<?xml version="1.0" encoding="UTF-8"?><gpx creator="Wikiloc - https://www.wikiloc.com" version="1.1" xmlns="http://www.topografix.com/GPX/1/1" xmlns:xsi="http://www.w3.org/2001/XMLSchema-instance" xsi:schemaLocation="http://www.topografix.com/GPX/1/1 http://www.topografix.com/GPX/1/1/gpx.xsd"><metadata><name>Wikiloc - Cilento: Trekking del Faro di Capo Palinuro (Sentiero dei Fortini e delle Torri)</name><author><name>filippobergi</name><link href="https://www.wikiloc.com/wikiloc/user.do?id=2312068"><text>filippobergi on Wikiloc</text></link></author><link href="https://www.wikiloc.com/hiking-trails/cilento-trekking-del-faro-di-capo-palinuro-sentiero-dei-fortini-e-delle-torri-110163904"><text>Cilento: Trekking del Faro di Capo Palinuro (Sentiero dei Fortini e delle Torri) on Wikiloc</text></link><time>2022-08-08T23:44:20Z</time></metadata><wpt lat="40.029122" lon="15.277176"><ele>.0</ele><time>2022-08-08T22:00:00Z</time><name>Porto di Palinuro</name><cmt></cmt><desc></desc></wpt><wpt lat="40.032078" lon="15.273013"><ele>.0</ele><time>2022-08-08T22:00:00Z</time><name>Rovine di Punta della Torre</name><cmt></cmt><desc></desc></wpt><wpt lat="40.030469" lon="15.268722"><ele>.0</ele><time>2022-08-08T22:00:00Z</time><name>Promontorio Punta della Quaglia</name><cmt></cmt><desc></desc></wpt><wpt lat="40.028827" lon="15.268207"><ele>.0</ele><time>2022-08-08T22:00:00Z</time><name>Scogliere</name><cmt></cmt><desc></desc></wpt><wpt lat="40.027546" lon="15.269566"><ele>.0</ele><time>2022-08-08T22:00:00Z</time><name>More scogliere</name><cmt></cmt><desc></desc></wpt><wpt lat="40.025149" lon="15.268493"><ele>.0</ele><time>2022-08-08T22:00:00Z</time><name>Palina e Punta Iacco</name><cmt></cmt><desc></desc></wpt><wpt lat="40.024985" lon="15.274036"><ele>.0</ele><time>2022-08-08T22:00:00Z</time><name>Faro</name><cmt></cmt><desc></desc></wpt><trk><name>Cilento: Trekking del Faro di Capo Palinuro (Sentiero dei Fo...</name><cmt></cmt><desc></desc><trkseg><trkpt lat="40.029222" lon="15.278184"><ele>9.094</ele><time>2022-08-08T22:00:00Z</time></trkpt><trkpt lat="40.029217" lon="15.277576"><ele>10.057</ele><time>2022-08-08T22:00:40Z</time></trkpt><trkpt lat="40.029310" lon="15.277220"><ele>10.022</ele><time>2022-08-08T22:01:05Z</time></trkpt><trkpt lat="40.029287" lon="15.276972"><ele>10.009</ele><time>2022-08-08T22:01:27Z</time></trkpt><trkpt lat="40.029198" lon="15.276601"><ele>13.080</ele><time>2022-08-08T22:02:06Z</time></trkpt><trkpt lat="40.029119" lon="15.276170"><ele>17.080</ele><time>2022-08-08T22:02:50Z</time></trkpt><trkpt lat="40.029092" lon="15.275928"><ele>19.039</ele><time>2022-08-08T22:03:17Z</time></trkpt><trkpt lat="40.029113" lon="15.275832"><ele>18.010</ele><time>2022-08-08T22:03:29Z</time></trkpt><trkpt lat="40.029247" lon="15.275684"><ele>19.065</ele><time>2022-08-08T22:03:55Z</time></trkpt><trkpt lat="40.029361" lon="15.275428"><ele>26.092</ele><time>2022-08-08T22:04:29Z</time></trkpt><trkpt lat="40.029567" lon="15.275225"><ele>28.078</ele><time>2022-08-08T22:05:02Z</time></trkpt><trkpt lat="40.030345" lon="15.274866"><ele>24.019</ele><time>2022-08-08T22:06:06Z</time></trkpt><trkpt lat="40.030885" lon="15.274440"><ele>28.083</ele><time>2022-08-08T22:07:19Z</time></trkpt><trkpt lat="40.031626" lon="15.273689"><ele>28.072</ele><time>2022-08-08T22:08:34Z</time></trkpt><trkpt lat="40.031794" lon="15.273491"><ele>28.013</ele><time>2022-08-08T22:08:48Z</time></trkpt><trkpt lat="40.031948" lon="15.273232"><ele>26.014</ele><time>2022-08-08T22:09:04Z</time></trkpt><trkpt lat="40.032023" lon="15.272967"><ele>23.009</ele><time>2022-08-08T22:09:17Z</time></trkpt><trkpt lat="40.032066" lon="15.272901"><ele>21.048</ele><time>2022-08-08T22:09:22Z</time></trkpt><trkpt lat="40.032023" lon="15.272967"><ele>23.038</ele><time>2022-08-08T22:09:33Z</time></trkpt><trkpt lat="40.031948" lon="15.273232"><ele>26.027</ele><time>2022-08-08T22:10:08Z</time></trkpt><trkpt lat="40.031794" lon="15.273491"><ele>28.058</ele><time>2022-08-08T22:10:49Z</time></trkpt><trkpt lat="40.031784" lon="15.273091"><ele>33.073</ele><time>2022-08-08T22:11:41Z</time></trkpt><trkpt lat="40.031704" lon="15.273123"><ele>36.060</ele><time>2022-08-08T22:11:59Z</time></trkpt><trkpt lat="40.031676" lon="15.273103"><ele>37.066</ele><time>2022-08-08T22:12:06Z</time></trkpt><trkpt lat="40.031703" lon="15.273029"><ele>36.047</ele><time>2022-08-08T22:12:20Z</time></trkpt><trkpt lat="40.031679" lon="15.272927"><ele>37.031</ele><time>2022-08-08T22:12:37Z</time></trkpt><trkpt lat="40.031646" lon="15.272884"><ele>38.093</ele><time>2022-08-08T22:12:47Z</time></trkpt><trkpt lat="40.031591" lon="15.272882"><ele>40.065</ele><time>2022-08-08T22:12:59Z</time></trkpt><trkpt lat="40.031543" lon="15.272833"><ele>42.021</ele><time>2022-08-08T22:13:12Z</time></trkpt><trkpt lat="40.031451" lon="15.272925"><ele>47.009</ele><time>2022-08-08T22:13:37Z</time></trkpt><trkpt lat="40.031449" lon="15.272817"><ele>47.080</ele><time>2022-08-08T22:13:54Z</time></trkpt><trkpt lat="40.031425" lon="15.272812"><ele>48.080</ele><time>2022-08-08T22:13:59Z</time></trkpt><trkpt lat="40.031390" lon="15.272866"><ele>49.069</ele><time>2022-08-08T22:14:11Z</time></trkpt><trkpt lat="40.031334" lon="15.272796"><ele>52.070</ele><time>2022-08-08T22:14:28Z</time></trkpt><trkpt lat="40.031254" lon="15.272825"><ele>56.035</ele><time>2022-08-08T22:14:51Z</time></trkpt><trkpt lat="40.031186" lon="15.272785"><ele>59.032</ele><time>2022-08-08T22:15:11Z</time></trkpt><trkpt lat="40.031108" lon="15.272667"><ele>63.058</ele><time>2022-08-08T22:15:44Z</time></trkpt><trkpt lat="40.031040" lon="15.272619"><ele>67.029</ele><time>2022-08-08T22:16:06Z</time></trkpt><trkpt lat="40.030928" lon="15.272592"><ele>72.013</ele><time>2022-08-08T22:16:37Z</time></trkpt><trkpt lat="40.030859" lon="15.272652"><ele>75.043</ele><time>2022-08-08T22:17:00Z</time></trkpt><trkpt lat="40.030766" lon="15.272833"><ele>77.064</ele><time>2022-08-08T22:17:47Z</time></trkpt><trkpt lat="40.030714" lon="15.272820"><ele>79.010</ele><time>2022-08-08T22:18:01Z</time></trkpt><trkpt lat="40.030642" lon="15.272895"><ele>81.009</ele><time>2022-08-08T22:18:26Z</time></trkpt><trkpt lat="40.030572" lon="15.272887"><ele>83.015</ele><time>2022-08-08T22:18:44Z</time></trkpt><trkpt lat="40.030455" lon="15.272965"><ele>86.065</ele><time>2022-08-08T22:19:17Z</time></trkpt><trkpt lat="40.030436" lon="15.272930"><ele>87.014</ele><time>2022-08-08T22:19:26Z</time></trkpt><trkpt lat="40.030355" lon="15.272941"><ele>90.075</ele><time>2022-08-08T22:19:46Z</time></trkpt><trkpt lat="40.030299" lon="15.272799"><ele>93.090</ele><time>2022-08-08T22:20:18Z</time></trkpt><trkpt lat="40.030135" lon="15.272640"><ele>101.037</ele><time>2022-08-08T22:21:10Z</time></trkpt><trkpt lat="40.030050" lon="15.272533"><ele>106.093</ele><time>2022-08-08T22:21:39Z</time></trkpt><trkpt lat="40.029985" lon="15.272557"><ele>107.074</ele><time>2022-08-08T22:21:49Z</time></trkpt><trkpt lat="40.029877" lon="15.272660"><ele>108.078</ele><time>2022-08-08T22:22:07Z</time></trkpt><trkpt lat="40.029861" lon="15.272675"><ele>108.076</ele><time>2022-08-08T22:22:09Z</time></trkpt><trkpt lat="40.029685" lon="15.272622"><ele>113.090</ele><time>2022-08-08T22:22:34Z</time></trkpt><trkpt lat="40.029656" lon="15.272208"><ele>113.019</ele><time>2022-08-08T22:23:17Z</time></trkpt><trkpt lat="40.029535" lon="15.271656"><ele>113.009</ele><time>2022-08-08T22:24:07Z</time></trkpt><trkpt lat="40.029511" lon="15.271425"><ele>109.098</ele><time>2022-08-08T22:24:26Z</time></trkpt><trkpt lat="40.029508" lon="15.271136"><ele>103.058</ele><time>2022-08-08T22:24:49Z</time></trkpt><trkpt lat="40.029474" lon="15.270985"><ele>101.097</ele><time>2022-08-08T22:25:03Z</time></trkpt><trkpt lat="40.029364" lon="15.270895"><ele>101.038</ele><time>2022-08-08T22:25:18Z</time></trkpt><trkpt lat="40.029539" lon="15.270292"><ele>89.033</ele><time>2022-08-08T22:26:15Z</time></trkpt><trkpt lat="40.029957" lon="15.269448"><ele>76.080</ele><time>2022-08-08T22:27:46Z</time></trkpt><trkpt lat="40.030457" lon="15.268746"><ele>42.076</ele><time>2022-08-08T22:29:43Z</time></trkpt><trkpt lat="40.030558" lon="15.268550"><ele>35.037</ele><time>2022-08-08T22:30:14Z</time></trkpt><trkpt lat="40.030650" lon="15.268421"><ele>30.051</ele><time>2022-08-08T22:30:28Z</time></trkpt><trkpt lat="40.030926" lon="15.268200"><ele>18.033</ele><time>2022-08-08T22:30:54Z</time></trkpt><trkpt lat="40.030650" lon="15.268421"><ele>30.023</ele><time>2022-08-08T22:31:19Z</time></trkpt><trkpt lat="40.030558" lon="15.268550"><ele>35.015</ele><time>2022-08-08T22:31:46Z</time></trkpt><trkpt lat="40.030457" lon="15.268746"><ele>42.009</ele><time>2022-08-08T22:32:47Z</time></trkpt><trkpt lat="40.029957" lon="15.269448"><ele>76.054</ele><time>2022-08-08T22:36:09Z</time></trkpt><trkpt lat="40.029954" lon="15.269314"><ele>75.024</ele><time>2022-08-08T22:36:15Z</time></trkpt><trkpt lat="40.029997" lon="15.269253"><ele>74.073</ele><time>2022-08-08T22:36:18Z</time></trkpt><trkpt lat="40.030021" lon="15.269164"><ele>72.054</ele><time>2022-08-08T22:36:22Z</time></trkpt><trkpt lat="40.030059" lon="15.269143"><ele>69.069</ele><time>2022-08-08T22:36:25Z</time></trkpt><trkpt lat="40.030100" lon="15.269057"><ele>65.056</ele><time>2022-08-08T22:36:29Z</time></trkpt><trkpt lat="40.030184" lon="15.268966"><ele>59.042</ele><time>2022-08-08T22:36:35Z</time></trkpt><trkpt lat="40.030159" lon="15.268943"><ele>60.013</ele><time>2022-08-08T22:36:37Z</time></trkpt><trkpt lat="40.030137" lon="15.268850"><ele>59.037</ele><time>2022-08-08T22:36:41Z</time></trkpt><trkpt lat="40.029974" lon="15.268708"><ele>62.049</ele><time>2022-08-08T22:36:52Z</time></trkpt><trkpt lat="40.029798" lon="15.268730"><ele>61.002</ele><time>2022-08-08T22:37:02Z</time></trkpt><trkpt lat="40.029705" lon="15.268700"><ele>60.022</ele><time>2022-08-08T22:37:07Z</time></trkpt><trkpt lat="40.029695" lon="15.268657"><ele>59.009</ele><time>2022-08-08T22:37:09Z</time></trkpt><trkpt lat="40.029668" lon="15.268630"><ele>58.095</ele><time>2022-08-08T22:37:11Z</time></trkpt><trkpt lat="40.029666" lon="15.268566"><ele>57.035</ele><time>2022-08-08T22:37:14Z</time></trkpt><trkpt lat="40.029707" lon="15.268537"><ele>56.084</ele><time>2022-08-08T22:37:16Z</time></trkpt><trkpt lat="40.029707" lon="15.268499"><ele>55.025</ele><time>2022-08-08T22:37:18Z</time></trkpt><trkpt lat="40.029617" lon="15.268461"><ele>54.020</ele><time>2022-08-08T22:37:23Z</time></trkpt><trkpt lat="40.029582" lon="15.268432"><ele>53.097</ele><time>2022-08-08T22:37:25Z</time></trkpt><trkpt lat="40.029564" lon="15.268376"><ele>51.063</ele><time>2022-08-08T22:37:28Z</time></trkpt><trkpt lat="40.029510" lon="15.268338"><ele>50.054</ele><time>2022-08-08T22:37:34Z</time></trkpt><trkpt lat="40.029516" lon="15.268199"><ele>44.018</ele><time>2022-08-08T22:37:48Z</time></trkpt><trkpt lat="40.029424" lon="15.268115"><ele>39.031</ele><time>2022-08-08T22:38:03Z</time></trkpt><trkpt lat="40.029405" lon="15.268070"><ele>37.061</ele><time>2022-08-08T22:38:08Z</time></trkpt><trkpt lat="40.029362" lon="15.268043"><ele>36.007</ele><time>2022-08-08T22:38:14Z</time></trkpt><trkpt lat="40.029212" lon="15.268017"><ele>35.009</ele><time>2022-08-08T22:38:35Z</time></trkpt><trkpt lat="40.029155" lon="15.268024"><ele>34.024</ele><time>2022-08-08T22:38:42Z</time></trkpt><trkpt lat="40.029073" lon="15.267997"><ele>32.094</ele><time>2022-08-08T22:38:53Z</time></trkpt><trkpt lat="40.028915" lon="15.268003"><ele>28.053</ele><time>2022-08-08T22:39:14Z</time></trkpt><trkpt lat="40.028715" lon="15.268094"><ele>26.084</ele><time>2022-08-08T22:39:38Z</time></trkpt><trkpt lat="40.028629" lon="15.268169"><ele>27.099</ele><time>2022-08-08T22:39:49Z</time></trkpt><trkpt lat="40.028584" lon="15.268292"><ele>30.086</ele><time>2022-08-08T22:40:00Z</time></trkpt><trkpt lat="40.028337" lon="15.268427"><ele>27.022</ele><time>2022-08-08T22:40:29Z</time></trkpt><trkpt lat="40.028321" lon="15.268534"><ele>30.073</ele><time>2022-08-08T22:40:38Z</time></trkpt><trkpt lat="40.028148" lon="15.268791"><ele>37.077</ele><time>2022-08-08T22:41:29Z</time></trkpt><trkpt lat="40.028107" lon="15.268899"><ele>40.028</ele><time>2022-08-08T22:41:50Z</time></trkpt><trkpt lat="40.027968" lon="15.268979"><ele>43.089</ele><time>2022-08-08T22:42:23Z</time></trkpt><trkpt lat="40.027918" lon="15.268984"><ele>42.017</ele><time>2022-08-08T22:42:34Z</time></trkpt><trkpt lat="40.027897" lon="15.269096"><ele>47.009</ele><time>2022-08-08T22:42:54Z</time></trkpt><trkpt lat="40.027801" lon="15.269182"><ele>50.013</ele><time>2022-08-08T22:43:20Z</time></trkpt><trkpt lat="40.027791" lon="15.269234"><ele>51.083</ele><time>2022-08-08T22:43:29Z</time></trkpt><trkpt lat="40.027758" lon="15.269267"><ele>52.042</ele><time>2022-08-08T22:43:38Z</time></trkpt><trkpt lat="40.027734" lon="15.269267"><ele>52.083</ele><time>2022-08-08T22:43:43Z</time></trkpt><trkpt lat="40.027695" lon="15.269364"><ele>54.098</ele><time>2022-08-08T22:44:02Z</time></trkpt><trkpt lat="40.027686" lon="15.269419"><ele>56.035</ele><time>2022-08-08T22:44:11Z</time></trkpt><trkpt lat="40.027697" lon="15.269462"><ele>57.081</ele><time>2022-08-08T22:44:19Z</time></trkpt><trkpt lat="40.027555" lon="15.269534"><ele>58.022</ele><time>2022-08-08T22:44:53Z</time></trkpt><trkpt lat="40.027483" lon="15.269545"><ele>59.076</ele><time>2022-08-08T22:45:09Z</time></trkpt><trkpt lat="40.027360" lon="15.269666"><ele>65.073</ele><time>2022-08-08T22:45:43Z</time></trkpt><trkpt lat="40.027296" lon="15.269695"><ele>67.085</ele><time>2022-08-08T22:45:57Z</time></trkpt><trkpt lat="40.027267" lon="15.269730"><ele>69.013</ele><time>2022-08-08T22:46:06Z</time></trkpt><trkpt lat="40.027031" lon="15.269725"><ele>74.009</ele><time>2022-08-08T22:46:54Z</time></trkpt><trkpt lat="40.026933" lon="15.269698"><ele>76.058</ele><time>2022-08-08T22:47:09Z</time></trkpt><trkpt lat="40.026772" lon="15.269609"><ele>77.088</ele><time>2022-08-08T22:47:37Z</time></trkpt><trkpt lat="40.026721" lon="15.269556"><ele>77.057</ele><time>2022-08-08T22:47:47Z</time></trkpt><trkpt lat="40.026672" lon="15.269567"><ele>78.088</ele><time>2022-08-08T22:47:55Z</time></trkpt><trkpt lat="40.026635" lon="15.269537"><ele>78.093</ele><time>2022-08-08T22:48:02Z</time></trkpt><trkpt lat="40.026528" lon="15.269550"><ele>81.010</ele><time>2022-08-08T22:48:19Z</time></trkpt><trkpt lat="40.026489" lon="15.269532"><ele>82.046</ele><time>2022-08-08T22:48:25Z</time></trkpt><trkpt lat="40.026470" lon="15.269486"><ele>81.017</ele><time>2022-08-08T22:48:32Z</time></trkpt><trkpt lat="40.026329" lon="15.269470"><ele>83.021</ele><time>2022-08-08T22:48:52Z</time></trkpt><trkpt lat="40.026284" lon="15.269422"><ele>83.033</ele><time>2022-08-08T22:48:57Z</time></trkpt><trkpt lat="40.025922" lon="15.269231"><ele>85.023</ele><time>2022-08-08T22:49:34Z</time></trkpt><trkpt lat="40.025789" lon="15.269111"><ele>85.015</ele><time>2022-08-08T22:49:49Z</time></trkpt><trkpt lat="40.025659" lon="15.269027"><ele>85.009</ele><time>2022-08-08T22:50:03Z</time></trkpt><trkpt lat="40.025271" lon="15.268700"><ele>13.024</ele><time>2022-08-08T22:51:57Z</time></trkpt><trkpt lat="40.025189" lon="15.268649"><ele>13.024</ele><time>2022-08-08T22:52:20Z</time></trkpt><trkpt lat="40.025051" lon="15.268389"><ele>13.053</ele><time>2022-08-08T22:53:21Z</time></trkpt><trkpt lat="40.025041" lon="15.268309"><ele>14.014</ele><time>2022-08-08T22:53:33Z</time></trkpt><trkpt lat="40.025064" lon="15.268185"><ele>14.079</ele><time>2022-08-08T22:53:40Z</time></trkpt><trkpt lat="40.025051" lon="15.268102"><ele>12.036</ele><time>2022-08-08T22:53:46Z</time></trkpt><trkpt lat="40.025004" lon="15.268000"><ele>9.032</ele><time>2022-08-08T22:53:53Z</time></trkpt><trkpt lat="40.024972" lon="15.267863"><ele>8.023</ele><time>2022-08-08T22:54:02Z</time></trkpt><trkpt lat="40.025004" lon="15.268000"><ele>9.047</ele><time>2022-08-08T22:54:10Z</time></trkpt><trkpt lat="40.025051" lon="15.268102"><ele>12.016</ele><time>2022-08-08T22:54:18Z</time></trkpt><trkpt lat="40.025064" lon="15.268185"><ele>14.076</ele><time>2022-08-08T22:54:23Z</time></trkpt><trkpt lat="40.025041" lon="15.268309"><ele>14.013</ele><time>2022-08-08T22:54:31Z</time></trkpt><trkpt lat="40.025051" lon="15.268389"><ele>13.009</ele><time>2022-08-08T22:54:36Z</time></trkpt><trkpt lat="40.025189" lon="15.268649"><ele>13.012</ele><time>2022-08-08T22:54:55Z</time></trkpt><trkpt lat="40.025183" lon="15.268708"><ele>13.032</ele><time>2022-08-08T22:54:59Z</time></trkpt><trkpt lat="40.025162" lon="15.268724"><ele>13.011</ele><time>2022-08-08T22:55:01Z</time></trkpt><trkpt lat="40.025189" lon="15.268813"><ele>13.062</ele><time>2022-08-08T22:55:07Z</time></trkpt><trkpt lat="40.025185" lon="15.268866"><ele>13.057</ele><time>2022-08-08T22:55:10Z</time></trkpt><trkpt lat="40.025248" lon="15.268920"><ele>13.014</ele><time>2022-08-08T22:55:16Z</time></trkpt><trkpt lat="40.025320" lon="15.269025"><ele>13.060</ele><time>2022-08-08T22:55:24Z</time></trkpt><trkpt lat="40.025287" lon="15.269068"><ele>13.061</ele><time>2022-08-08T22:55:28Z</time></trkpt><trkpt lat="40.025242" lon="15.269084"><ele>13.035</ele><time>2022-08-08T22:55:32Z</time></trkpt><trkpt lat="40.025211" lon="15.269062"><ele>13.034</ele><time>2022-08-08T22:55:35Z</time></trkpt><trkpt lat="40.025152" lon="15.269162"><ele>13.055</ele><time>2022-08-08T22:55:42Z</time></trkpt><trkpt lat="40.025250" lon="15.269349"><ele>13.010</ele><time>2022-08-08T22:55:56Z</time></trkpt><trkpt lat="40.025265" lon="15.269424"><ele>13.009</ele><time>2022-08-08T22:56:01Z</time></trkpt><trkpt lat="40.025156" lon="15.269352"><ele>13.084</ele><time>2022-08-08T22:56:11Z</time></trkpt><trkpt lat="40.025076" lon="15.269537"><ele>13.014</ele><time>2022-08-08T22:56:24Z</time></trkpt><trkpt lat="40.025123" lon="15.269639"><ele>13.023</ele><time>2022-08-08T22:56:31Z</time></trkpt><trkpt lat="40.025127" lon="15.269725"><ele>13.024</ele><time>2022-08-08T22:56:36Z</time></trkpt><trkpt lat="40.025189" lon="15.269848"><ele>13.029</ele><time>2022-08-08T22:56:45Z</time></trkpt><trkpt lat="40.025172" lon="15.269896"><ele>13.026</ele><time>2022-08-08T22:56:49Z</time></trkpt><trkpt lat="40.025207" lon="15.270004"><ele>13.042</ele><time>2022-08-08T22:56:56Z</time></trkpt><trkpt lat="40.025224" lon="15.270122"><ele>13.073</ele><time>2022-08-08T22:57:03Z</time></trkpt><trkpt lat="40.025228" lon="15.270224"><ele>13.017</ele><time>2022-08-08T22:57:10Z</time></trkpt><trkpt lat="40.025207" lon="15.270288"><ele>13.062</ele><time>2022-08-08T22:57:14Z</time></trkpt><trkpt lat="40.025170" lon="15.270320"><ele>13.083</ele><time>2022-08-08T22:57:17Z</time></trkpt><trkpt lat="40.025248" lon="15.270385"><ele>13.011</ele><time>2022-08-08T22:57:25Z</time></trkpt><trkpt lat="40.025466" lon="15.270851"><ele>127.009</ele><time>2022-08-08T22:59:34Z</time></trkpt><trkpt lat="40.025503" lon="15.271130"><ele>127.097</ele><time>2022-08-08T23:02:59Z</time></trkpt><trkpt lat="40.025553" lon="15.271283"><ele>136.097</ele><time>2022-08-08T23:05:00Z</time></trkpt><trkpt lat="40.025532" lon="15.271339"><ele>136.096</ele><time>2022-08-08T23:05:45Z</time></trkpt><trkpt lat="40.025499" lon="15.271372"><ele>136.017</ele><time>2022-08-08T23:06:24Z</time></trkpt><trkpt lat="40.025485" lon="15.271452"><ele>136.062</ele><time>2022-08-08T23:07:24Z</time></trkpt><trkpt lat="40.025501" lon="15.271734"><ele>136.049</ele><time>2022-08-08T23:10:36Z</time></trkpt><trkpt lat="40.025569" lon="15.272101"><ele>145.055</ele><time>2022-08-08T23:11:18Z</time></trkpt><trkpt lat="40.025577" lon="15.272305"><ele>145.046</ele><time>2022-08-08T23:11:40Z</time></trkpt><trkpt lat="40.025667" lon="15.272509"><ele>145.070</ele><time>2022-08-08T23:12:06Z</time></trkpt><trkpt lat="40.025655" lon="15.272595"><ele>145.062</ele><time>2022-08-08T23:12:15Z</time></trkpt><trkpt lat="40.025696" lon="15.272654"><ele>145.083</ele><time>2022-08-08T23:12:24Z</time></trkpt><trkpt lat="40.025667" lon="15.272750"><ele>145.011</ele><time>2022-08-08T23:12:38Z</time></trkpt><trkpt lat="40.025661" lon="15.272976"><ele>163.009</ele><time>2022-08-08T23:13:14Z</time></trkpt><trkpt lat="40.025672" lon="15.273024"><ele>163.067</ele><time>2022-08-08T23:13:22Z</time></trkpt><trkpt lat="40.025717" lon="15.273064"><ele>163.067</ele><time>2022-08-08T23:13:33Z</time></trkpt><trkpt lat="40.025772" lon="15.273241"><ele>163.046</ele><time>2022-08-08T23:14:03Z</time></trkpt><trkpt lat="40.025764" lon="15.273297"><ele>163.017</ele><time>2022-08-08T23:14:12Z</time></trkpt><trkpt lat="40.025645" lon="15.273410"><ele>163.012</ele><time>2022-08-08T23:14:43Z</time></trkpt><trkpt lat="40.025585" lon="15.273493"><ele>163.029</ele><time>2022-08-08T23:15:01Z</time></trkpt><trkpt lat="40.025511" lon="15.273550"><ele>163.095</ele><time>2022-08-08T23:15:18Z</time></trkpt><trkpt lat="40.025534" lon="15.273654"><ele>163.096</ele><time>2022-08-08T23:15:24Z</time></trkpt><trkpt lat="40.025528" lon="15.273724"><ele>163.010</ele><time>2022-08-08T23:15:28Z</time></trkpt><trkpt lat="40.025505" lon="15.273837"><ele>161.052</ele><time>2022-08-08T23:15:35Z</time></trkpt><trkpt lat="40.025497" lon="15.274003"><ele>161.053</ele><time>2022-08-08T23:15:44Z</time></trkpt><trkpt lat="40.025439" lon="15.274126"><ele>161.008</ele><time>2022-08-08T23:15:52Z</time></trkpt><trkpt lat="40.025415" lon="15.274472"><ele>161.009</ele><time>2022-08-08T23:16:12Z</time></trkpt><trkpt lat="40.025345" lon="15.274550"><ele>161.036</ele><time>2022-08-08T23:16:20Z</time></trkpt><trkpt lat="40.025261" lon="15.274580"><ele>161.066</ele><time>2022-08-08T23:16:31Z</time></trkpt><trkpt lat="40.025154" lon="15.274663"><ele>162.065</ele><time>2022-08-08T23:16:46Z</time></trkpt><trkpt lat="40.025007" lon="15.274686"><ele>162.066</ele><time>2022-08-08T23:17:04Z</time></trkpt><trkpt lat="40.025009" lon="15.274749"><ele>163.081</ele><time>2022-08-08T23:17:10Z</time></trkpt><trkpt lat="40.025064" lon="15.276918"><ele>163.038</ele><time>2022-08-08T23:19:39Z</time></trkpt><trkpt lat="40.025065" lon="15.276958"><ele>163.084</ele><time>2022-08-08T23:19:42Z</time></trkpt><trkpt lat="40.025196" lon="15.276736"><ele>163.045</ele><time>2022-08-08T23:19:59Z</time></trkpt><trkpt lat="40.025304" lon="15.276430"><ele>163.099</ele><time>2022-08-08T23:20:19Z</time></trkpt><trkpt lat="40.025399" lon="15.276108"><ele>173.098</ele><time>2022-08-08T23:20:38Z</time></trkpt><trkpt lat="40.025588" lon="15.275749"><ele>165.015</ele><time>2022-08-08T23:21:04Z</time></trkpt><trkpt lat="40.025986" lon="15.275368"><ele>159.026</ele><time>2022-08-08T23:21:55Z</time></trkpt><trkpt lat="40.026340" lon="15.275111"><ele>154.009</ele><time>2022-08-08T23:22:38Z</time></trkpt><trkpt lat="40.026758" lon="15.274601"><ele>147.010</ele><time>2022-08-08T23:23:39Z</time></trkpt><trkpt lat="40.027130" lon="15.274242"><ele>138.080</ele><time>2022-08-08T23:24:15Z</time></trkpt><trkpt lat="40.027186" lon="15.273930"><ele>137.039</ele><time>2022-08-08T23:24:29Z</time></trkpt><trkpt lat="40.027334" lon="15.273619"><ele>134.040</ele><time>2022-08-08T23:24:46Z</time></trkpt><trkpt lat="40.027839" lon="15.273206"><ele>128.095</ele><time>2022-08-08T23:25:22Z</time></trkpt><trkpt lat="40.028011" lon="15.272879"><ele>126.072</ele><time>2022-08-08T23:25:40Z</time></trkpt><trkpt lat="40.028058" lon="15.272702"><ele>125.098</ele><time>2022-08-08T23:25:48Z</time></trkpt><trkpt lat="40.027933" lon="15.272391"><ele>121.089</ele><time>2022-08-08T23:26:04Z</time></trkpt><trkpt lat="40.028091" lon="15.272048"><ele>117.033</ele><time>2022-08-08T23:26:22Z</time></trkpt><trkpt lat="40.028258" lon="15.271801"><ele>115.025</ele><time>2022-08-08T23:26:48Z</time></trkpt><trkpt lat="40.028685" lon="15.271232"><ele>106.026</ele><time>2022-08-08T23:27:52Z</time></trkpt><trkpt lat="40.028849" lon="15.270924"><ele>101.008</ele><time>2022-08-08T23:28:13Z</time></trkpt><trkpt lat="40.028966" lon="15.270774"><ele>99.009</ele><time>2022-08-08T23:28:26Z</time></trkpt><trkpt lat="40.029036" lon="15.270725"><ele>100.053</ele><time>2022-08-08T23:28:32Z</time></trkpt><trkpt lat="40.029102" lon="15.270768"><ele>102.053</ele><time>2022-08-08T23:28:37Z</time></trkpt><trkpt lat="40.029175" lon="15.270851"><ele>104.052</ele><time>2022-08-08T23:28:45Z</time></trkpt><trkpt lat="40.029231" lon="15.270916"><ele>104.013</ele><time>2022-08-08T23:28:51Z</time></trkpt><trkpt lat="40.029364" lon="15.270895"><ele>101.038</ele><time>2022-08-08T23:29:10Z</time></trkpt><trkpt lat="40.029474" lon="15.270985"><ele>101.085</ele><time>2022-08-08T23:29:29Z</time></trkpt><trkpt lat="40.029508" lon="15.271136"><ele>103.061</ele><time>2022-08-08T23:29:46Z</time></trkpt><trkpt lat="40.029511" lon="15.271425"><ele>109.032</ele><time>2022-08-08T23:30:18Z</time></trkpt><trkpt lat="40.029535" lon="15.271656"><ele>113.096</ele><time>2022-08-08T23:30:44Z</time></trkpt><trkpt lat="40.029656" lon="15.272208"><ele>113.085</ele><time>2022-08-08T23:31:17Z</time></trkpt><trkpt lat="40.029685" lon="15.272622"><ele>113.089</ele><time>2022-08-08T23:31:41Z</time></trkpt><trkpt lat="40.029861" lon="15.272675"><ele>108.017</ele><time>2022-08-08T23:32:02Z</time></trkpt><trkpt lat="40.029985" lon="15.272557"><ele>107.009</ele><time>2022-08-08T23:32:22Z</time></trkpt><trkpt lat="40.030050" lon="15.272533"><ele>106.079</ele><time>2022-08-08T23:32:31Z</time></trkpt><trkpt lat="40.030135" lon="15.272640"><ele>101.089</ele><time>2022-08-08T23:32:47Z</time></trkpt><trkpt lat="40.030299" lon="15.272799"><ele>93.038</ele><time>2022-08-08T23:33:14Z</time></trkpt><trkpt lat="40.030355" lon="15.272941"><ele>90.039</ele><time>2022-08-08T23:33:30Z</time></trkpt><trkpt lat="40.030436" lon="15.272930"><ele>87.054</ele><time>2022-08-08T23:33:41Z</time></trkpt><trkpt lat="40.030455" lon="15.272965"><ele>86.031</ele><time>2022-08-08T23:33:46Z</time></trkpt><trkpt lat="40.030572" lon="15.272887"><ele>83.057</ele><time>2022-08-08T23:34:03Z</time></trkpt><trkpt lat="40.030642" lon="15.272895"><ele>81.028</ele><time>2022-08-08T23:34:13Z</time></trkpt><trkpt lat="40.030714" lon="15.272820"><ele>79.022</ele><time>2022-08-08T23:34:25Z</time></trkpt><trkpt lat="40.030766" lon="15.272833"><ele>77.049</ele><time>2022-08-08T23:34:32Z</time></trkpt><trkpt lat="40.030859" lon="15.272652"><ele>75.002</ele><time>2022-08-08T23:34:54Z</time></trkpt><trkpt lat="40.030928" lon="15.272592"><ele>72.022</ele><time>2022-08-08T23:35:05Z</time></trkpt><trkpt lat="40.031040" lon="15.272619"><ele>67.009</ele><time>2022-08-08T23:35:20Z</time></trkpt><trkpt lat="40.031108" lon="15.272667"><ele>63.045</ele><time>2022-08-08T23:35:32Z</time></trkpt><trkpt lat="40.031186" lon="15.272785"><ele>59.045</ele><time>2022-08-08T23:35:50Z</time></trkpt><trkpt lat="40.031254" lon="15.272825"><ele>56.014</ele><time>2022-08-08T23:36:01Z</time></trkpt><trkpt lat="40.031334" lon="15.272796"><ele>52.065</ele><time>2022-08-08T23:36:13Z</time></trkpt><trkpt lat="40.031390" lon="15.272866"><ele>49.020</ele><time>2022-08-08T23:36:25Z</time></trkpt><trkpt lat="40.031425" lon="15.272812"><ele>48.027</ele><time>2022-08-08T23:36:33Z</time></trkpt><trkpt lat="40.031449" lon="15.272817"><ele>47.073</ele><time>2022-08-08T23:36:37Z</time></trkpt><trkpt lat="40.031451" lon="15.272925"><ele>47.084</ele><time>2022-08-08T23:36:49Z</time></trkpt><trkpt lat="40.031543" lon="15.272833"><ele>42.018</ele><time>2022-08-08T23:37:07Z</time></trkpt><trkpt lat="40.031591" lon="15.272882"><ele>40.063</ele><time>2022-08-08T23:37:16Z</time></trkpt><trkpt lat="40.031646" lon="15.272884"><ele>38.044</ele><time>2022-08-08T23:37:23Z</time></trkpt><trkpt lat="40.031679" lon="15.272927"><ele>37.018</ele><time>2022-08-08T23:37:26Z</time></trkpt><trkpt lat="40.031703" lon="15.273029"><ele>36.009</ele><time>2022-08-08T23:37:30Z</time></trkpt><trkpt lat="40.031676" lon="15.273103"><ele>37.067</ele><time>2022-08-08T23:37:34Z</time></trkpt><trkpt lat="40.031704" lon="15.273123"><ele>36.017</ele><time>2022-08-08T23:37:35Z</time></trkpt><trkpt lat="40.031784" lon="15.273091"><ele>33.046</ele><time>2022-08-08T23:37:40Z</time></trkpt><trkpt lat="40.031794" lon="15.273491"><ele>28.027</ele><time>2022-08-08T23:37:57Z</time></trkpt><trkpt lat="40.031626" lon="15.273689"><ele>28.032</ele><time>2022-08-08T23:38:11Z</time></trkpt><trkpt lat="40.030885" lon="15.274440"><ele>28.039</ele><time>2022-08-08T23:39:30Z</time></trkpt><trkpt lat="40.030345" lon="15.274866"><ele>24.045</ele><time>2022-08-08T23:40:12Z</time></trkpt><trkpt lat="40.029567" lon="15.275225"><ele>28.076</ele><time>2022-08-08T23:41:41Z</time></trkpt><trkpt lat="40.029361" lon="15.275428"><ele>26.050</ele><time>2022-08-08T23:41:55Z</time></trkpt><trkpt lat="40.029247" lon="15.275684"><ele>19.015</ele><time>2022-08-08T23:42:08Z</time></trkpt><trkpt lat="40.029113" lon="15.275832"><ele>18.065</ele><time>2022-08-08T23:42:18Z</time></trkpt><trkpt lat="40.029092" lon="15.275928"><ele>19.011</ele><time>2022-08-08T23:42:22Z</time></trkpt><trkpt lat="40.029119" lon="15.276170"><ele>17.009</ele><time>2022-08-08T23:42:33Z</time></trkpt><trkpt lat="40.029198" lon="15.276601"><ele>13.022</ele><time>2022-08-08T23:42:54Z</time></trkpt><trkpt lat="40.029287" lon="15.276972"><ele>10.012</ele><time>2022-08-08T23:43:12Z</time></trkpt><trkpt lat="40.029310" lon="15.277220"><ele>10.071</ele><time>2022-08-08T23:43:26Z</time></trkpt><trkpt lat="40.029217" lon="15.277576"><ele>10.012</ele><time>2022-08-08T23:43:48Z</time></trkpt><trkpt lat="40.029222" lon="15.278111"><ele>9.017</ele><time>2022-08-08T23:44:20Z</time></trkpt></trkseg></trk></gpx>