<?xml version="1.0" encoding="UTF-8"?>
<gpx creator="Wikiloc - https://www.wikiloc.com" version="1.1" xmlns="http://www.topografix.com/GPX/1/1" xmlns:xsi="http://www.w3.org/2001/XMLSchema-instance" xsi:schemaLocation="http://www.topografix.com/GPX/1/1 http://www.topografix.com/GPX/1/1/gpx.xsd">
  <metadata>
    <name>Wikiloc - Cilento -Monte Bulgheria</name>
    <link href="https://www.wikiloc.com/hiking-trails/cilento-monte-bulgheria-12802905">
      <text>Cilento -Monte Bulgheria - Wikiloc on Wikiloc</text>
    </link>
    <time>2016-04-02T08:29:08Z</time>
  </metadata>
  <wpt lat="40.047843" lon="15.458121">
    <ele>526.9</ele>
    <time>2016-04-03T06:55:47.597Z</time>
    <name>Fontana</name>
    <cmt></cmt>
    <desc></desc>
  </wpt>
  <wpt lat="40.047047" lon="15.432545">
    <ele>505.4</ele>
    <time>2016-04-03T06:55:48.497Z</time>
    <name>Sorgente</name>
    <cmt></cmt>
    <desc></desc>
  </wpt>
  <trk>
    <name>Cilento -Monte Bulgheria - Wikiloc</name>
    <cmt></cmt>
    <desc></desc>
    <trkseg>
      <trkpt lat="40.090302" lon="15.346796">
        <ele>105.379</ele>
        <time>2016-03-30T14:53:56Z</time>
      </trkpt>
      <trkpt lat="40.089016" lon="15.348708">
        <ele>117.505</ele>
        <time>2016-03-30T14:58:21Z</time>
      </trkpt>
      <trkpt lat="40.088192" lon="15.348781">
        <ele>118.125</ele>
        <time>2016-03-30T14:59:24Z</time>
      </trkpt>
      <trkpt lat="40.088048" lon="15.349641">
        <ele>119.408</ele>
        <time>2016-03-30T15:00:14Z</time>
      </trkpt>
      <trkpt lat="40.088197" lon="15.350115">
        <ele>115.598</ele>
        <time>2016-03-30T15:00:45Z</time>
      </trkpt>
      <trkpt lat="40.088510" lon="15.350100">
        <ele>111.639</ele>
        <time>2016-03-30T15:01:18Z</time>
      </trkpt>
      <trkpt lat="40.088211" lon="15.351172">
        <ele>113.655</ele>
        <time>2016-03-30T15:02:32Z</time>
      </trkpt>
      <trkpt lat="40.088340" lon="15.352914">
        <ele>103.347</ele>
        <time>2016-03-30T15:04:20Z</time>
      </trkpt>
      <trkpt lat="40.089153" lon="15.354323">
        <ele>101.419</ele>
        <time>2016-03-30T15:06:36Z</time>
      </trkpt>
      <trkpt lat="40.089766" lon="15.354657">
        <ele>104.526</ele>
        <time>2016-03-30T15:08:15Z</time>
      </trkpt>
      <trkpt lat="40.089509" lon="15.354907">
        <ele>109.267</ele>
        <time>2016-03-30T15:09:37Z</time>
      </trkpt>
      <trkpt lat="40.090200" lon="15.355866">
        <ele>125.062</ele>
        <time>2016-03-30T15:11:33Z</time>
      </trkpt>
      <trkpt lat="40.089615" lon="15.357218">
        <ele>144.929</ele>
        <time>2016-03-30T15:14:09Z</time>
      </trkpt>
      <trkpt lat="40.089662" lon="15.357955">
        <ele>150.500</ele>
        <time>2016-03-30T15:15:55Z</time>
      </trkpt>
      <trkpt lat="40.089989" lon="15.358259">
        <ele>168.320</ele>
        <time>2016-03-30T15:26:16Z</time>
      </trkpt>
      <trkpt lat="40.089348" lon="15.358993">
        <ele>179.308</ele>
        <time>2016-03-30T15:29:06Z</time>
      </trkpt>
      <trkpt lat="40.089857" lon="15.358167">
        <ele>174.723</ele>
        <time>2016-03-30T15:31:32Z</time>
      </trkpt>
      <trkpt lat="40.090234" lon="15.358194">
        <ele>166.824</ele>
        <time>2016-03-30T15:33:10Z</time>
      </trkpt>
      <trkpt lat="40.091180" lon="15.359024">
        <ele>150.340</ele>
        <time>2016-03-30T15:35:38Z</time>
      </trkpt>
      <trkpt lat="40.091595" lon="15.359681">
        <ele>141.822</ele>
        <time>2016-03-30T15:37:22Z</time>
      </trkpt>
      <trkpt lat="40.091652" lon="15.360569">
        <ele>147.274</ele>
        <time>2016-03-30T15:39:36Z</time>
      </trkpt>
      <trkpt lat="40.092347" lon="15.362475">
        <ele>161.751</ele>
        <time>2016-03-30T15:44:29Z</time>
      </trkpt>
      <trkpt lat="40.092177" lon="15.363935">
        <ele>171.082</ele>
        <time>2016-03-30T15:46:00Z</time>
      </trkpt>
      <trkpt lat="40.090482" lon="15.364842">
        <ele>184.867</ele>
        <time>2016-03-30T15:48:35Z</time>
      </trkpt>
      <trkpt lat="40.089776" lon="15.364648">
        <ele>199.215</ele>
        <time>2016-03-30T15:49:47Z</time>
      </trkpt>
      <trkpt lat="40.089530" lon="15.365336">
        <ele>211.765</ele>
        <time>2016-03-30T15:50:45Z</time>
      </trkpt>
      <trkpt lat="40.089456" lon="15.367204">
        <ele>233.111</ele>
        <time>2016-03-30T15:52:48Z</time>
      </trkpt>
      <trkpt lat="40.089809" lon="15.368734">
        <ele>243.308</ele>
        <time>2016-03-30T15:54:38Z</time>
      </trkpt>
      <trkpt lat="40.090242" lon="15.368988">
        <ele>247.852</ele>
        <time>2016-03-30T15:55:20Z</time>
      </trkpt>
      <trkpt lat="40.090413" lon="15.369563">
        <ele>250.713</ele>
        <time>2016-03-30T15:55:59Z</time>
      </trkpt>
      <trkpt lat="40.089963" lon="15.373398">
        <ele>264.399</ele>
        <time>2016-03-30T16:00:03Z</time>
      </trkpt>
      <trkpt lat="40.090500" lon="15.375010">
        <ele>256.081</ele>
        <time>2016-03-30T16:01:47Z</time>
      </trkpt>
      <trkpt lat="40.090360" lon="15.375863">
        <ele>250.953</ele>
        <time>2016-03-30T16:03:57Z</time>
      </trkpt>
      <trkpt lat="40.091691" lon="15.378622">
        <ele>266.640</ele>
        <time>2016-03-30T16:07:19Z</time>
      </trkpt>
      <trkpt lat="40.091345" lon="15.380433">
        <ele>261.821</ele>
        <time>2016-03-30T16:09:20Z</time>
      </trkpt>
      <trkpt lat="40.091723" lon="15.381102">
        <ele>254.766</ele>
        <time>2016-03-30T16:10:18Z</time>
      </trkpt>
      <trkpt lat="40.090967" lon="15.384311">
        <ele>259.745</ele>
        <time>2016-03-30T16:13:43Z</time>
      </trkpt>
      <trkpt lat="40.091733" lon="15.385044">
        <ele>258.147</ele>
        <time>2016-03-30T16:15:08Z</time>
      </trkpt>
      <trkpt lat="40.090968" lon="15.384572">
        <ele>254.111</ele>
        <time>2016-03-30T16:22:27Z</time>
      </trkpt>
      <trkpt lat="40.090888" lon="15.384231">
        <ele>252.208</ele>
        <time>2016-03-30T16:22:45Z</time>
      </trkpt>
      <trkpt lat="40.091678" lon="15.381123">
        <ele>246.665</ele>
        <time>2016-03-30T16:26:38Z</time>
      </trkpt>
      <trkpt lat="40.091318" lon="15.380552">
        <ele>245.986</ele>
        <time>2016-03-30T16:27:36Z</time>
      </trkpt>
      <trkpt lat="40.091432" lon="15.379814">
        <ele>247.832</ele>
        <time>2016-03-30T16:28:26Z</time>
      </trkpt>
      <trkpt lat="40.090313" lon="15.379278">
        <ele>265.254</ele>
        <time>2016-03-30T16:30:55Z</time>
      </trkpt>
      <trkpt lat="40.089286" lon="15.379070">
        <ele>289.376</ele>
        <time>2016-03-30T16:33:05Z</time>
      </trkpt>
      <trkpt lat="40.088789" lon="15.379426">
        <ele>308.283</ele>
        <time>2016-03-30T16:35:49Z</time>
      </trkpt>
      <trkpt lat="40.088404" lon="15.379209">
        <ele>319.044</ele>
        <time>2016-03-30T16:38:15Z</time>
      </trkpt>
      <trkpt lat="40.088221" lon="15.380004">
        <ele>337.999</ele>
        <time>2016-03-30T16:41:10Z</time>
      </trkpt>
      <trkpt lat="40.087887" lon="15.379909">
        <ele>366.459</ele>
        <time>2016-03-30T16:43:50Z</time>
      </trkpt>
      <trkpt lat="40.087867" lon="15.380397">
        <ele>373.703</ele>
        <time>2016-03-30T16:44:35Z</time>
      </trkpt>
      <trkpt lat="40.087706" lon="15.379964">
        <ele>383.623</ele>
        <time>2016-03-30T16:45:29Z</time>
      </trkpt>
      <trkpt lat="40.087513" lon="15.380539">
        <ele>389.608</ele>
        <time>2016-03-30T16:46:38Z</time>
      </trkpt>
      <trkpt lat="40.087076" lon="15.379612">
        <ele>411.566</ele>
        <time>2016-03-30T16:49:50Z</time>
      </trkpt>
      <trkpt lat="40.086617" lon="15.379589">
        <ele>433.477</ele>
        <time>2016-03-30T16:51:49Z</time>
      </trkpt>
      <trkpt lat="40.086600" lon="15.380046">
        <ele>447.653</ele>
        <time>2016-03-30T16:53:00Z</time>
      </trkpt>
      <trkpt lat="40.086426" lon="15.380005">
        <ele>450.215</ele>
        <time>2016-03-30T16:53:20Z</time>
      </trkpt>
      <trkpt lat="40.086594" lon="15.380297">
        <ele>459.547</ele>
        <time>2016-03-30T16:54:32Z</time>
      </trkpt>
      <trkpt lat="40.085986" lon="15.379789">
        <ele>479.254</ele>
        <time>2016-03-30T16:57:06Z</time>
      </trkpt>
      <trkpt lat="40.085871" lon="15.380367">
        <ele>496.755</ele>
        <time>2016-03-30T16:58:46Z</time>
      </trkpt>
      <trkpt lat="40.085417" lon="15.379783">
        <ele>509.470</ele>
        <time>2016-03-30T17:00:36Z</time>
      </trkpt>
      <trkpt lat="40.085373" lon="15.380965">
        <ele>529.937</ele>
        <time>2016-03-30T17:02:55Z</time>
      </trkpt>
      <trkpt lat="40.085328" lon="15.380472">
        <ele>535.949</ele>
        <time>2016-03-30T17:03:39Z</time>
      </trkpt>
      <trkpt lat="40.084738" lon="15.379582">
        <ele>548.613</ele>
        <time>2016-03-30T17:05:25Z</time>
      </trkpt>
      <trkpt lat="40.084778" lon="15.380069">
        <ele>572.808</ele>
        <time>2016-03-30T17:11:29Z</time>
      </trkpt>
      <trkpt lat="40.084079" lon="15.379256">
        <ele>570.634</ele>
        <time>2016-03-30T17:16:35Z</time>
      </trkpt>
      <trkpt lat="40.084471" lon="15.380201">
        <ele>587.335</ele>
        <time>2016-03-30T17:18:28Z</time>
      </trkpt>
      <trkpt lat="40.084286" lon="15.380148">
        <ele>594.341</ele>
        <time>2016-03-30T17:19:37Z</time>
      </trkpt>
      <trkpt lat="40.084407" lon="15.380702">
        <ele>604.373</ele>
        <time>2016-03-30T17:20:50Z</time>
      </trkpt>
      <trkpt lat="40.084146" lon="15.381473">
        <ele>611.415</ele>
        <time>2016-03-30T17:22:14Z</time>
      </trkpt>
      <trkpt lat="40.083836" lon="15.380344">
        <ele>640.692</ele>
        <time>2016-03-30T17:24:32Z</time>
      </trkpt>
      <trkpt lat="40.082957" lon="15.379339">
        <ele>651.613</ele>
        <time>2016-03-30T17:26:44Z</time>
      </trkpt>
      <trkpt lat="40.083173" lon="15.379896">
        <ele>665.548</ele>
        <time>2016-03-30T17:28:03Z</time>
      </trkpt>
      <trkpt lat="40.082878" lon="15.380039">
        <ele>684.896</ele>
        <time>2016-03-30T17:30:23Z</time>
      </trkpt>
      <trkpt lat="40.083028" lon="15.380730">
        <ele>702.831</ele>
        <time>2016-03-30T17:32:20Z</time>
      </trkpt>
      <trkpt lat="40.081808" lon="15.380168">
        <ele>757.624</ele>
        <time>2016-03-30T17:37:29Z</time>
      </trkpt>
      <trkpt lat="40.081354" lon="15.380306">
        <ele>771.408</ele>
        <time>2016-03-30T17:38:44Z</time>
      </trkpt>
      <trkpt lat="40.081160" lon="15.380057">
        <ele>783.040</ele>
        <time>2016-03-30T17:39:19Z</time>
      </trkpt>
      <trkpt lat="40.080216" lon="15.380471">
        <ele>835.161</ele>
        <time>2016-03-30T17:45:40Z</time>
      </trkpt>
      <trkpt lat="40.079929" lon="15.379842">
        <ele>847.127</ele>
        <time>2016-03-30T17:49:55Z</time>
      </trkpt>
      <trkpt lat="40.077724" lon="15.381375">
        <ele>858.549</ele>
        <time>2016-03-30T17:54:51Z</time>
      </trkpt>
      <trkpt lat="40.076954" lon="15.381191">
        <ele>862.881</ele>
        <time>2016-03-30T17:57:15Z</time>
      </trkpt>
      <trkpt lat="40.076881" lon="15.381887">
        <ele>861.848</ele>
        <time>2016-03-30T17:58:33Z</time>
      </trkpt>
      <trkpt lat="40.077251" lon="15.382734">
        <ele>861.329</ele>
        <time>2016-03-30T17:59:44Z</time>
      </trkpt>
      <trkpt lat="40.079116" lon="15.384246">
        <ele>878.374</ele>
        <time>2016-03-30T18:03:09Z</time>
      </trkpt>
      <trkpt lat="40.079593" lon="15.385874">
        <ele>881.628</ele>
        <time>2016-03-30T18:05:15Z</time>
      </trkpt>
      <trkpt lat="40.079402" lon="15.388463">
        <ele>905.189</ele>
        <time>2016-03-30T18:08:39Z</time>
      </trkpt>
      <trkpt lat="40.079809" lon="15.393698">
        <ele>952.417</ele>
        <time>2016-03-30T18:15:15Z</time>
      </trkpt>
      <trkpt lat="40.079648" lon="15.394959">
        <ele>960.008</ele>
        <time>2016-03-30T18:16:37Z</time>
      </trkpt>
      <trkpt lat="40.079275" lon="15.395555">
        <ele>970.563</ele>
        <time>2016-03-30T18:18:01Z</time>
      </trkpt>
      <trkpt lat="40.078935" lon="15.394048">
        <ele>978.324</ele>
        <time>2016-03-30T18:22:29Z</time>
      </trkpt>
      <trkpt lat="40.078966" lon="15.394544">
        <ele>981.010</ele>
        <time>2016-03-30T18:23:49Z</time>
      </trkpt>
      <trkpt lat="40.078102" lon="15.396294">
        <ele>988.152</ele>
        <time>2016-03-30T18:26:05Z</time>
      </trkpt>
      <trkpt lat="40.078016" lon="15.397005">
        <ele>987.184</ele>
        <time>2016-03-30T18:27:02Z</time>
      </trkpt>
      <trkpt lat="40.078292" lon="15.397568">
        <ele>985.891</ele>
        <time>2016-03-30T18:27:54Z</time>
      </trkpt>
      <trkpt lat="40.077920" lon="15.402660">
        <ele>1011.562</ele>
        <time>2016-03-30T18:36:45Z</time>
      </trkpt>
      <trkpt lat="40.075660" lon="15.405099">
        <ele>1004.737</ele>
        <time>2016-03-30T18:46:48Z</time>
      </trkpt>
      <trkpt lat="40.074931" lon="15.406668">
        <ele>1031.045</ele>
        <time>2016-03-30T18:49:53Z</time>
      </trkpt>
      <trkpt lat="40.074749" lon="15.407883">
        <ele>1047.347</ele>
        <time>2016-03-30T18:51:41Z</time>
      </trkpt>
      <trkpt lat="40.074353" lon="15.408452">
        <ele>1052.811</ele>
        <time>2016-03-30T18:52:34Z</time>
      </trkpt>
      <trkpt lat="40.074266" lon="15.411102">
        <ele>1086.808</ele>
        <time>2016-03-30T18:58:46Z</time>
      </trkpt>
      <trkpt lat="40.073533" lon="15.413390">
        <ele>1114.615</ele>
        <time>2016-03-30T19:02:31Z</time>
      </trkpt>
      <trkpt lat="40.073353" lon="15.414832">
        <ele>1122.646</ele>
        <time>2016-03-30T19:04:26Z</time>
      </trkpt>
      <trkpt lat="40.073542" lon="15.417073">
        <ele>1133.692</ele>
        <time>2016-03-30T19:09:22Z</time>
      </trkpt>
      <trkpt lat="40.072035" lon="15.418637">
        <ele>1123.094</ele>
        <time>2016-03-30T19:13:07Z</time>
      </trkpt>
      <trkpt lat="40.071781" lon="15.419315">
        <ele>1128.346</ele>
        <time>2016-03-30T19:14:32Z</time>
      </trkpt>
      <trkpt lat="40.071363" lon="15.421326">
        <ele>1156.683</ele>
        <time>2016-03-30T19:26:08Z</time>
      </trkpt>
      <trkpt lat="40.071545" lon="15.420913">
        <ele>1157.994</ele>
        <time>2016-03-30T19:26:59Z</time>
      </trkpt>
      <trkpt lat="40.071595" lon="15.421528">
        <ele>1152.749</ele>
        <time>2016-03-30T19:36:28Z</time>
      </trkpt>
      <trkpt lat="40.071619" lon="15.420929">
        <ele>1153.252</ele>
        <time>2016-03-30T19:38:04Z</time>
      </trkpt>
      <trkpt lat="40.071617" lon="15.421538">
        <ele>1151.653</ele>
        <time>2016-03-30T19:43:55Z</time>
      </trkpt>
      <trkpt lat="40.071632" lon="15.420859">
        <ele>1156.908</ele>
        <time>2016-03-30T19:50:12Z</time>
      </trkpt>
      <trkpt lat="40.071299" lon="15.421351">
        <ele>1162.408</ele>
        <time>2016-03-31T07:52:29Z</time>
      </trkpt>
      <trkpt lat="40.070923" lon="15.424960">
        <ele>1174.686</ele>
        <time>2016-03-31T07:58:15Z</time>
      </trkpt>
      <trkpt lat="40.069531" lon="15.428751">
        <ele>1226.567</ele>
        <time>2016-03-31T08:06:52Z</time>
      </trkpt>
      <trkpt lat="40.069906" lon="15.431010">
        <ele>1278.873</ele>
        <time>2016-03-31T08:15:15Z</time>
      </trkpt>
      <trkpt lat="40.069088" lon="15.432556">
        <ele>1263.875</ele>
        <time>2016-03-31T08:35:40Z</time>
      </trkpt>
      <trkpt lat="40.068608" lon="15.435444">
        <ele>1255.517</ele>
        <time>2016-03-31T08:43:03Z</time>
      </trkpt>
      <trkpt lat="40.068645" lon="15.436152">
        <ele>1249.494</ele>
        <time>2016-03-31T08:46:00Z</time>
      </trkpt>
      <trkpt lat="40.068822" lon="15.436135">
        <ele>1244.315</ele>
        <time>2016-03-31T08:47:18Z</time>
      </trkpt>
      <trkpt lat="40.068359" lon="15.436124">
        <ele>1246.640</ele>
        <time>2016-03-31T09:01:19Z</time>
      </trkpt>
      <trkpt lat="40.067424" lon="15.435103">
        <ele>1204.434</ele>
        <time>2016-03-31T09:08:12Z</time>
      </trkpt>
      <trkpt lat="40.066889" lon="15.435160">
        <ele>1181.755</ele>
        <time>2016-03-31T09:10:55Z</time>
      </trkpt>
      <trkpt lat="40.066540" lon="15.434570">
        <ele>1161.110</ele>
        <time>2016-03-31T09:13:56Z</time>
      </trkpt>
      <trkpt lat="40.066205" lon="15.434741">
        <ele>1146.108</ele>
        <time>2016-03-31T09:15:43Z</time>
      </trkpt>
      <trkpt lat="40.065784" lon="15.434350">
        <ele>1127.394</ele>
        <time>2016-03-31T09:18:04Z</time>
      </trkpt>
      <trkpt lat="40.064925" lon="15.434981">
        <ele>1093.175</ele>
        <time>2016-03-31T09:24:19Z</time>
      </trkpt>
      <trkpt lat="40.064596" lon="15.434874">
        <ele>1074.851</ele>
        <time>2016-03-31T09:28:01Z</time>
      </trkpt>
      <trkpt lat="40.064081" lon="15.435603">
        <ele>1057.323</ele>
        <time>2016-03-31T09:30:42Z</time>
      </trkpt>
      <trkpt lat="40.063737" lon="15.435601">
        <ele>1050.585</ele>
        <time>2016-03-31T09:32:43Z</time>
      </trkpt>
      <trkpt lat="40.062837" lon="15.436673">
        <ele>1001.882</ele>
        <time>2016-03-31T09:40:58Z</time>
      </trkpt>
      <trkpt lat="40.062892" lon="15.436993">
        <ele>996.973</ele>
        <time>2016-03-31T09:43:10Z</time>
      </trkpt>
      <trkpt lat="40.062577" lon="15.437119">
        <ele>991.998</ele>
        <time>2016-03-31T09:44:43Z</time>
      </trkpt>
      <trkpt lat="40.062415" lon="15.436874">
        <ele>987.614</ele>
        <time>2016-03-31T09:45:27Z</time>
      </trkpt>
      <trkpt lat="40.062205" lon="15.437300">
        <ele>979.954</ele>
        <time>2016-03-31T09:47:08Z</time>
      </trkpt>
      <trkpt lat="40.062006" lon="15.437047">
        <ele>972.209</ele>
        <time>2016-03-31T09:47:54Z</time>
      </trkpt>
      <trkpt lat="40.061948" lon="15.437396">
        <ele>965.908</ele>
        <time>2016-03-31T09:48:38Z</time>
      </trkpt>
      <trkpt lat="40.061689" lon="15.437225">
        <ele>958.552</ele>
        <time>2016-03-31T09:49:51Z</time>
      </trkpt>
      <trkpt lat="40.061527" lon="15.437506">
        <ele>953.033</ele>
        <time>2016-03-31T09:50:52Z</time>
      </trkpt>
      <trkpt lat="40.060985" lon="15.436923">
        <ele>928.669</ele>
        <time>2016-03-31T09:53:34Z</time>
      </trkpt>
      <trkpt lat="40.060781" lon="15.437297">
        <ele>920.251</ele>
        <time>2016-03-31T09:54:42Z</time>
      </trkpt>
      <trkpt lat="40.060662" lon="15.437107">
        <ele>912.783</ele>
        <time>2016-03-31T09:56:01Z</time>
      </trkpt>
      <trkpt lat="40.060408" lon="15.438129">
        <ele>889.680</ele>
        <time>2016-03-31T09:59:06Z</time>
      </trkpt>
      <trkpt lat="40.059994" lon="15.438240">
        <ele>878.891</ele>
        <time>2016-03-31T10:00:38Z</time>
      </trkpt>
      <trkpt lat="40.060227" lon="15.439808">
        <ele>828.926</ele>
        <time>2016-03-31T10:08:03Z</time>
      </trkpt>
      <trkpt lat="40.059939" lon="15.439783">
        <ele>813.833</ele>
        <time>2016-03-31T10:09:39Z</time>
      </trkpt>
      <trkpt lat="40.060026" lon="15.440001">
        <ele>807.423</ele>
        <time>2016-03-31T10:10:28Z</time>
      </trkpt>
      <trkpt lat="40.059774" lon="15.440121">
        <ele>800.215</ele>
        <time>2016-03-31T10:12:02Z</time>
      </trkpt>
      <trkpt lat="40.059522" lon="15.439813">
        <ele>779.208</ele>
        <time>2016-03-31T10:13:25Z</time>
      </trkpt>
      <trkpt lat="40.059519" lon="15.440172">
        <ele>772.644</ele>
        <time>2016-03-31T10:15:14Z</time>
      </trkpt>
      <trkpt lat="40.059292" lon="15.439981">
        <ele>755.065</ele>
        <time>2016-03-31T10:16:26Z</time>
      </trkpt>
      <trkpt lat="40.059206" lon="15.439293">
        <ele>747.511</ele>
        <time>2016-03-31T10:17:40Z</time>
      </trkpt>
      <trkpt lat="40.058766" lon="15.439331">
        <ele>731.433</ele>
        <time>2016-03-31T10:20:46Z</time>
      </trkpt>
      <trkpt lat="40.058049" lon="15.438712">
        <ele>717.325</ele>
        <time>2016-03-31T10:28:19Z</time>
      </trkpt>
      <trkpt lat="40.058146" lon="15.438554">
        <ele>722.612</ele>
        <time>2016-03-31T10:46:10Z</time>
      </trkpt>
      <trkpt lat="40.057760" lon="15.438662">
        <ele>682.243</ele>
        <time>2016-03-31T10:50:56Z</time>
      </trkpt>
      <trkpt lat="40.058100" lon="15.439369">
        <ele>670.898</ele>
        <time>2016-03-31T10:52:26Z</time>
      </trkpt>
      <trkpt lat="40.057542" lon="15.439039">
        <ele>651.169</ele>
        <time>2016-03-31T10:54:39Z</time>
      </trkpt>
      <trkpt lat="40.055049" lon="15.439451">
        <ele>606.304</ele>
        <time>2016-03-31T10:59:48Z</time>
      </trkpt>
      <trkpt lat="40.054544" lon="15.440680">
        <ele>574.824</ele>
        <time>2016-03-31T11:03:56Z</time>
      </trkpt>
      <trkpt lat="40.053775" lon="15.441307">
        <ele>561.408</ele>
        <time>2016-03-31T11:05:31Z</time>
      </trkpt>
      <trkpt lat="40.053767" lon="15.442642">
        <ele>543.417</ele>
        <time>2016-03-31T11:07:03Z</time>
      </trkpt>
      <trkpt lat="40.054339" lon="15.445122">
        <ele>536.968</ele>
        <time>2016-03-31T11:09:58Z</time>
      </trkpt>
      <trkpt lat="40.054986" lon="15.445681">
        <ele>531.284</ele>
        <time>2016-03-31T11:11:12Z</time>
      </trkpt>
      <trkpt lat="40.054497" lon="15.445391">
        <ele>536.226</ele>
        <time>2016-03-31T11:12:26Z</time>
      </trkpt>
      <trkpt lat="40.054047" lon="15.446193">
        <ele>530.758</ele>
        <time>2016-03-31T11:13:54Z</time>
      </trkpt>
      <trkpt lat="40.053718" lon="15.447464">
        <ele>510.025</ele>
        <time>2016-03-31T11:15:15Z</time>
      </trkpt>
      <trkpt lat="40.053638" lon="15.449319">
        <ele>481.566</ele>
        <time>2016-03-31T11:17:25Z</time>
      </trkpt>
      <trkpt lat="40.052681" lon="15.449062">
        <ele>475.491</ele>
        <time>2016-03-31T11:19:10Z</time>
      </trkpt>
      <trkpt lat="40.052130" lon="15.449814">
        <ele>481.955</ele>
        <time>2016-03-31T11:20:15Z</time>
      </trkpt>
      <trkpt lat="40.050306" lon="15.450571">
        <ele>497.907</ele>
        <time>2016-03-31T11:23:26Z</time>
      </trkpt>
      <trkpt lat="40.049966" lon="15.451622">
        <ele>504.517</ele>
        <time>2016-03-31T11:24:47Z</time>
      </trkpt>
      <trkpt lat="40.049616" lon="15.451678">
        <ele>498.408</ele>
        <time>2016-03-31T11:32:45Z</time>
      </trkpt>
      <trkpt lat="40.050003" lon="15.451458">
        <ele>506.996</ele>
        <time>2016-03-31T11:33:45Z</time>
      </trkpt>
      <trkpt lat="40.050298" lon="15.450422">
        <ele>505.017</ele>
        <time>2016-03-31T11:35:31Z</time>
      </trkpt>
      <trkpt lat="40.051550" lon="15.450220">
        <ele>502.213</ele>
        <time>2016-03-31T11:38:22Z</time>
      </trkpt>
      <trkpt lat="40.052659" lon="15.449077">
        <ele>491.675</ele>
        <time>2016-03-31T11:40:23Z</time>
      </trkpt>
      <trkpt lat="40.053066" lon="15.449267">
        <ele>492.087</ele>
        <time>2016-03-31T11:40:43Z</time>
      </trkpt>
      <trkpt lat="40.053735" lon="15.451482">
        <ele>474.994</ele>
        <time>2016-03-31T11:43:43Z</time>
      </trkpt>
      <trkpt lat="40.053585" lon="15.451325">
        <ele>473.345</ele>
        <time>2016-03-31T11:44:50Z</time>
      </trkpt>
      <trkpt lat="40.053758" lon="15.451269">
        <ele>474.630</ele>
        <time>2016-03-31T11:45:34Z</time>
      </trkpt>
      <trkpt lat="40.054585" lon="15.457013">
        <ele>401.871</ele>
        <time>2016-03-31T12:14:04Z</time>
      </trkpt>
      <trkpt lat="40.054498" lon="15.457193">
        <ele>402.041</ele>
        <time>2016-03-31T12:14:22Z</time>
      </trkpt>
      <trkpt lat="40.053922" lon="15.457096">
        <ele>398.715</ele>
        <time>2016-03-31T12:15:09Z</time>
      </trkpt>
      <trkpt lat="40.053994" lon="15.458545">
        <ele>386.708</ele>
        <time>2016-03-31T12:16:40Z</time>
      </trkpt>
      <trkpt lat="40.053365" lon="15.459443">
        <ele>382.538</ele>
        <time>2016-03-31T12:18:08Z</time>
      </trkpt>
      <trkpt lat="40.052689" lon="15.461199">
        <ele>376.029</ele>
        <time>2016-03-31T12:20:15Z</time>
      </trkpt>
      <trkpt lat="40.052756" lon="15.463958">
        <ele>378.415</ele>
        <time>2016-03-31T12:24:00Z</time>
      </trkpt>
      <trkpt lat="40.053816" lon="15.469537">
        <ele>358.947</ele>
        <time>2016-03-31T12:31:17Z</time>
      </trkpt>
      <trkpt lat="40.052799" lon="15.473135">
        <ele>355.949</ele>
        <time>2016-03-31T12:36:19Z</time>
      </trkpt>
      <trkpt lat="40.052937" lon="15.474268">
        <ele>360.736</ele>
        <time>2016-03-31T12:37:59Z</time>
      </trkpt>
      <trkpt lat="40.052420" lon="15.474203">
        <ele>355.687</ele>
        <time>2016-03-31T12:38:49Z</time>
      </trkpt>
      <trkpt lat="40.051817" lon="15.478219">
        <ele>305.782</ele>
        <time>2016-03-31T12:43:31Z</time>
      </trkpt>
      <trkpt lat="40.051655" lon="15.478218">
        <ele>291.612</ele>
        <time>2016-03-31T12:44:16Z</time>
      </trkpt>
      <trkpt lat="40.051821" lon="15.478311">
        <ele>290.432</ele>
        <time>2016-03-31T12:44:41Z</time>
      </trkpt>
      <trkpt lat="40.051699" lon="15.479167">
        <ele>289.005</ele>
        <time>2016-03-31T12:46:16Z</time>
      </trkpt>
      <trkpt lat="40.051340" lon="15.479918">
        <ele>279.808</ele>
        <time>2016-03-31T12:47:09Z</time>
      </trkpt>
      <trkpt lat="40.050381" lon="15.480287">
        <ele>262.282</ele>
        <time>2016-03-31T12:48:43Z</time>
      </trkpt>
      <trkpt lat="40.049427" lon="15.482270">
        <ele>232.293</ele>
        <time>2016-03-31T12:52:17Z</time>
      </trkpt>
      <trkpt lat="40.049543" lon="15.482454">
        <ele>229.489</ele>
        <time>2016-03-31T12:52:32Z</time>
      </trkpt>
      <trkpt lat="40.049848" lon="15.482226">
        <ele>219.741</ele>
        <time>2016-03-31T12:53:07Z</time>
      </trkpt>
      <trkpt lat="40.050794" lon="15.482932">
        <ele>202.333</ele>
        <time>2016-03-31T12:55:05Z</time>
      </trkpt>
      <trkpt lat="40.050469" lon="15.483684">
        <ele>192.270</ele>
        <time>2016-03-31T12:56:51Z</time>
      </trkpt>
      <trkpt lat="40.050683" lon="15.483943">
        <ele>187.971</ele>
        <time>2016-03-31T12:57:17Z</time>
      </trkpt>
      <trkpt lat="40.052294" lon="15.483688">
        <ele>170.586</ele>
        <time>2016-03-31T12:59:50Z</time>
      </trkpt>
      <trkpt lat="40.052638" lon="15.484714">
        <ele>153.567</ele>
        <time>2016-03-31T13:01:17Z</time>
      </trkpt>
      <trkpt lat="40.052432" lon="15.485221">
        <ele>146.581</ele>
        <time>2016-03-31T13:02:06Z</time>
      </trkpt>
      <trkpt lat="40.052855" lon="15.485849">
        <ele>139.719</ele>
        <time>2016-03-31T13:03:01Z</time>
      </trkpt>
      <trkpt lat="40.052775" lon="15.486465">
        <ele>129.708</ele>
        <time>2016-03-31T13:05:19Z</time>
      </trkpt>
      <trkpt lat="40.053356" lon="15.487077">
        <ele>120.417</ele>
        <time>2016-03-31T13:07:15Z</time>
      </trkpt>
      <trkpt lat="40.053718" lon="15.489106">
        <ele>96.098</ele>
        <time>2016-03-31T13:09:42Z</time>
      </trkpt>
      <trkpt lat="40.053511" lon="15.489962">
        <ele>88.174</ele>
        <time>2016-03-31T13:10:32Z</time>
      </trkpt>
      <trkpt lat="40.053874" lon="15.490561">
        <ele>80.036</ele>
        <time>2016-03-31T13:11:25Z</time>
      </trkpt>
      <trkpt lat="40.053870" lon="15.491548">
        <ele>67.158</ele>
        <time>2016-03-31T13:12:37Z</time>
      </trkpt>
      <trkpt lat="40.054192" lon="15.491443">
        <ele>59.855</ele>
        <time>2016-03-31T13:13:28Z</time>
      </trkpt>
      <trkpt lat="40.053588" lon="15.493102">
        <ele>46.096</ele>
        <time>2016-03-31T13:16:04Z</time>
      </trkpt>
      <trkpt lat="40.053153" lon="15.492106">
        <ele>47.221</ele>
        <time>2016-03-31T13:18:30Z</time>
      </trkpt>
      <trkpt lat="40.053083" lon="15.492382">
        <ele>52.087</ele>
        <time>2016-03-31T13:22:54Z</time>
      </trkpt>
      <trkpt lat="40.053151" lon="15.492075">
        <ele>47.042</ele>
        <time>2016-03-31T13:27:47Z</time>
      </trkpt>
      <trkpt lat="40.052259" lon="15.491552">
        <ele>56.826</ele>
        <time>2016-03-31T14:44:52Z</time>
      </trkpt>
      <trkpt lat="40.050633" lon="15.490926">
        <ele>57.208</ele>
        <time>2016-03-31T14:48:24Z</time>
      </trkpt>
      <trkpt lat="40.049293" lon="15.490834">
        <ele>59.479</ele>
        <time>2016-03-31T14:56:53Z</time>
      </trkpt>
      <trkpt lat="40.048916" lon="15.490414">
        <ele>57.340</ele>
        <time>2016-03-31T14:57:31Z</time>
      </trkpt>
      <trkpt lat="40.049017" lon="15.489973">
        <ele>57.176</ele>
        <time>2016-03-31T14:58:15Z</time>
      </trkpt>
      <trkpt lat="40.050023" lon="15.490300">
        <ele>61.148</ele>
        <time>2016-03-31T14:59:49Z</time>
      </trkpt>
      <trkpt lat="40.050338" lon="15.489168">
        <ele>64.190</ele>
        <time>2016-03-31T15:01:17Z</time>
      </trkpt>
      <trkpt lat="40.050833" lon="15.488465">
        <ele>73.027</ele>
        <time>2016-03-31T15:02:38Z</time>
      </trkpt>
      <trkpt lat="40.050159" lon="15.487706">
        <ele>85.378</ele>
        <time>2016-03-31T15:04:07Z</time>
      </trkpt>
      <trkpt lat="40.049684" lon="15.487700">
        <ele>90.063</ele>
        <time>2016-03-31T15:04:50Z</time>
      </trkpt>
      <trkpt lat="40.049365" lon="15.486856">
        <ele>95.618</ele>
        <time>2016-03-31T15:06:18Z</time>
      </trkpt>
      <trkpt lat="40.048375" lon="15.487267">
        <ele>114.398</ele>
        <time>2016-03-31T15:08:04Z</time>
      </trkpt>
      <trkpt lat="40.047748" lon="15.487004">
        <ele>113.717</ele>
        <time>2016-03-31T15:08:58Z</time>
      </trkpt>
      <trkpt lat="40.047491" lon="15.486132">
        <ele>108.308</ele>
        <time>2016-03-31T15:10:00Z</time>
      </trkpt>
      <trkpt lat="40.047196" lon="15.486163">
        <ele>110.122</ele>
        <time>2016-03-31T15:10:51Z</time>
      </trkpt>
      <trkpt lat="40.047061" lon="15.485827">
        <ele>115.243</ele>
        <time>2016-03-31T15:12:28Z</time>
      </trkpt>
      <trkpt lat="40.045666" lon="15.484978">
        <ele>122.189</ele>
        <time>2016-03-31T15:15:38Z</time>
      </trkpt>
      <trkpt lat="40.044473" lon="15.484642">
        <ele>138.311</ele>
        <time>2016-03-31T15:26:06Z</time>
      </trkpt>
      <trkpt lat="40.044048" lon="15.485024">
        <ele>142.073</ele>
        <time>2016-03-31T15:33:18Z</time>
      </trkpt>
      <trkpt lat="40.044099" lon="15.484812">
        <ele>139.690</ele>
        <time>2016-03-31T15:34:36Z</time>
      </trkpt>
      <trkpt lat="40.043633" lon="15.484988">
        <ele>139.631</ele>
        <time>2016-03-31T15:40:20Z</time>
      </trkpt>
      <trkpt lat="40.043148" lon="15.484412">
        <ele>138.266</ele>
        <time>2016-03-31T15:41:30Z</time>
      </trkpt>
      <trkpt lat="40.042424" lon="15.484056">
        <ele>126.214</ele>
        <time>2016-03-31T15:42:49Z</time>
      </trkpt>
      <trkpt lat="40.040509" lon="15.483767">
        <ele>125.654</ele>
        <time>2016-03-31T15:47:24Z</time>
      </trkpt>
      <trkpt lat="40.040057" lon="15.483849">
        <ele>125.309</ele>
        <time>2016-03-31T15:50:54Z</time>
      </trkpt>
      <trkpt lat="40.039722" lon="15.484227">
        <ele>114.108</ele>
        <time>2016-03-31T15:52:38Z</time>
      </trkpt>
      <trkpt lat="40.039305" lon="15.484051">
        <ele>102.732</ele>
        <time>2016-03-31T15:54:14Z</time>
      </trkpt>
      <trkpt lat="40.038996" lon="15.484504">
        <ele>78.463</ele>
        <time>2016-03-31T15:56:36Z</time>
      </trkpt>
      <trkpt lat="40.038546" lon="15.484427">
        <ele>58.059</ele>
        <time>2016-03-31T16:00:34Z</time>
      </trkpt>
      <trkpt lat="40.038986" lon="15.484502">
        <ele>74.741</ele>
        <time>2016-03-31T16:05:47Z</time>
      </trkpt>
      <trkpt lat="40.039268" lon="15.484050">
        <ele>92.653</ele>
        <time>2016-03-31T16:07:58Z</time>
      </trkpt>
      <trkpt lat="40.039629" lon="15.484167">
        <ele>92.760</ele>
        <time>2016-03-31T16:09:25Z</time>
      </trkpt>
      <trkpt lat="40.040455" lon="15.483773">
        <ele>133.891</ele>
        <time>2016-03-31T16:13:34Z</time>
      </trkpt>
      <trkpt lat="40.041159" lon="15.480492">
        <ele>122.546</ele>
        <time>2016-03-31T16:18:39Z</time>
      </trkpt>
      <trkpt lat="40.040437" lon="15.479834">
        <ele>62.717</ele>
        <time>2016-03-31T16:25:21Z</time>
      </trkpt>
      <trkpt lat="40.040477" lon="15.480107">
        <ele>52.787</ele>
        <time>2016-03-31T16:26:51Z</time>
      </trkpt>
      <trkpt lat="40.040310" lon="15.480002">
        <ele>50.515</ele>
        <time>2016-03-31T16:28:37Z</time>
      </trkpt>
      <trkpt lat="40.039988" lon="15.480510">
        <ele>43.608</ele>
        <time>2016-03-31T16:40:48Z</time>
      </trkpt>
      <trkpt lat="40.040310" lon="15.479836">
        <ele>60.632</ele>
        <time>2016-03-31T17:02:11Z</time>
      </trkpt>
      <trkpt lat="40.040384" lon="15.480049">
        <ele>48.653</ele>
        <time>2016-03-31T17:03:14Z</time>
      </trkpt>
      <trkpt lat="40.040451" lon="15.479818">
        <ele>32.179</ele>
        <time>2016-04-01T08:08:30Z</time>
      </trkpt>
      <trkpt lat="40.040253" lon="15.479833">
        <ele>65.611</ele>
        <time>2016-04-01T08:13:04Z</time>
      </trkpt>
      <trkpt lat="40.040225" lon="15.480068">
        <ele>72.943</ele>
        <time>2016-04-01T08:13:49Z</time>
      </trkpt>
      <trkpt lat="40.040514" lon="15.479927">
        <ele>64.130</ele>
        <time>2016-04-01T08:15:28Z</time>
      </trkpt>
      <trkpt lat="40.040596" lon="15.480246">
        <ele>91.741</ele>
        <time>2016-04-01T08:16:45Z</time>
      </trkpt>
      <trkpt lat="40.041047" lon="15.480268">
        <ele>117.426</ele>
        <time>2016-04-01T08:18:59Z</time>
      </trkpt>
      <trkpt lat="40.041139" lon="15.480487">
        <ele>125.814</ele>
        <time>2016-04-01T08:19:24Z</time>
      </trkpt>
      <trkpt lat="40.040563" lon="15.483594">
        <ele>160.554</ele>
        <time>2016-04-01T08:24:09Z</time>
      </trkpt>
      <trkpt lat="40.041684" lon="15.482823">
        <ele>194.809</ele>
        <time>2016-04-01T08:29:57Z</time>
      </trkpt>
      <trkpt lat="40.042030" lon="15.482232">
        <ele>204.708</ele>
        <time>2016-04-01T08:31:24Z</time>
      </trkpt>
      <trkpt lat="40.042105" lon="15.482732">
        <ele>208.422</ele>
        <time>2016-04-01T08:32:34Z</time>
      </trkpt>
      <trkpt lat="40.042880" lon="15.480851">
        <ele>245.113</ele>
        <time>2016-04-01T08:58:29Z</time>
      </trkpt>
      <trkpt lat="40.042937" lon="15.479017">
        <ele>269.179</ele>
        <time>2016-04-01T09:02:17Z</time>
      </trkpt>
      <trkpt lat="40.043168" lon="15.479102">
        <ele>272.131</ele>
        <time>2016-04-01T09:03:21Z</time>
      </trkpt>
      <trkpt lat="40.043351" lon="15.478834">
        <ele>281.743</ele>
        <time>2016-04-01T09:04:42Z</time>
      </trkpt>
      <trkpt lat="40.043661" lon="15.479036">
        <ele>290.220</ele>
        <time>2016-04-01T09:06:05Z</time>
      </trkpt>
      <trkpt lat="40.043799" lon="15.478587">
        <ele>300.731</ele>
        <time>2016-04-01T09:06:59Z</time>
      </trkpt>
      <trkpt lat="40.043526" lon="15.476692">
        <ele>294.146</ele>
        <time>2016-04-01T09:11:39Z</time>
      </trkpt>
      <trkpt lat="40.042423" lon="15.472715">
        <ele>290.998</ele>
        <time>2016-04-01T09:19:12Z</time>
      </trkpt>
      <trkpt lat="40.041185" lon="15.470222">
        <ele>268.615</ele>
        <time>2016-04-01T09:27:08Z</time>
      </trkpt>
      <trkpt lat="40.040656" lon="15.469770">
        <ele>265.026</ele>
        <time>2016-04-01T09:29:53Z</time>
      </trkpt>
      <trkpt lat="40.040559" lon="15.468133">
        <ele>290.908</ele>
        <time>2016-04-01T09:33:53Z</time>
      </trkpt>
      <trkpt lat="40.041013" lon="15.466060">
        <ele>306.190</ele>
        <time>2016-04-01T09:44:12Z</time>
      </trkpt>
      <trkpt lat="40.040844" lon="15.465985">
        <ele>302.631</ele>
        <time>2016-04-01T09:45:55Z</time>
      </trkpt>
      <trkpt lat="40.040989" lon="15.466079">
        <ele>309.557</ele>
        <time>2016-04-01T09:47:29Z</time>
      </trkpt>
      <trkpt lat="40.040762" lon="15.466321">
        <ele>301.369</ele>
        <time>2016-04-01T09:48:48Z</time>
      </trkpt>
      <trkpt lat="40.040101" lon="15.466097">
        <ele>311.561</ele>
        <time>2016-04-01T09:51:31Z</time>
      </trkpt>
      <trkpt lat="40.040745" lon="15.464570">
        <ele>379.488</ele>
        <time>2016-04-01T10:00:37Z</time>
      </trkpt>
      <trkpt lat="40.041038" lon="15.464499">
        <ele>391.829</ele>
        <time>2016-04-01T10:04:03Z</time>
      </trkpt>
      <trkpt lat="40.040820" lon="15.464135">
        <ele>391.044</ele>
        <time>2016-04-01T10:05:56Z</time>
      </trkpt>
      <trkpt lat="40.041538" lon="15.462999">
        <ele>437.589</ele>
        <time>2016-04-01T10:13:25Z</time>
      </trkpt>
      <trkpt lat="40.041133" lon="15.459306">
        <ele>517.806</ele>
        <time>2016-04-01T10:23:01Z</time>
      </trkpt>
      <trkpt lat="40.040587" lon="15.456861">
        <ele>579.326</ele>
        <time>2016-04-01T10:35:19Z</time>
      </trkpt>
      <trkpt lat="40.041088" lon="15.457185">
        <ele>586.008</ele>
        <time>2016-04-01T10:39:51Z</time>
      </trkpt>
      <trkpt lat="40.042971" lon="15.457443">
        <ele>576.019</ele>
        <time>2016-04-01T10:43:07Z</time>
      </trkpt>
      <trkpt lat="40.044254" lon="15.458346">
        <ele>563.440</ele>
        <time>2016-04-01T10:45:06Z</time>
      </trkpt>
      <trkpt lat="40.044727" lon="15.457568">
        <ele>553.836</ele>
        <time>2016-04-01T10:46:17Z</time>
      </trkpt>
      <trkpt lat="40.045373" lon="15.458848">
        <ele>556.578</ele>
        <time>2016-04-01T10:47:58Z</time>
      </trkpt>
      <trkpt lat="40.046974" lon="15.459255">
        <ele>551.080</ele>
        <time>2016-04-01T10:50:47Z</time>
      </trkpt>
      <trkpt lat="40.047440" lon="15.459104">
        <ele>538.157</ele>
        <time>2016-04-01T10:51:30Z</time>
      </trkpt>
      <trkpt lat="40.047810" lon="15.458056">
        <ele>527.128</ele>
        <time>2016-04-01T10:52:54Z</time>
      </trkpt>
      <trkpt lat="40.047946" lon="15.458205">
        <ele>529.753</ele>
        <time>2016-04-01T10:56:58Z</time>
      </trkpt>
      <trkpt lat="40.047877" lon="15.457118">
        <ele>519.143</ele>
        <time>2016-04-01T11:00:28Z</time>
      </trkpt>
      <trkpt lat="40.048746" lon="15.455371">
        <ele>505.264</ele>
        <time>2016-04-01T11:03:08Z</time>
      </trkpt>
      <trkpt lat="40.049661" lon="15.452544">
        <ele>528.610</ele>
        <time>2016-04-01T11:07:15Z</time>
      </trkpt>
      <trkpt lat="40.049597" lon="15.451424">
        <ele>523.708</ele>
        <time>2016-04-01T11:20:50Z</time>
      </trkpt>
      <trkpt lat="40.049801" lon="15.451609">
        <ele>497.685</ele>
        <time>2016-04-01T11:23:20Z</time>
      </trkpt>
      <trkpt lat="40.049905" lon="15.450390">
        <ele>507.146</ele>
        <time>2016-04-01T11:26:38Z</time>
      </trkpt>
      <trkpt lat="40.049836" lon="15.449886">
        <ele>513.462</ele>
        <time>2016-04-01T11:27:15Z</time>
      </trkpt>
      <trkpt lat="40.049357" lon="15.449958">
        <ele>503.114</ele>
        <time>2016-04-01T11:32:03Z</time>
      </trkpt>
      <trkpt lat="40.050681" lon="15.449126">
        <ele>524.316</ele>
        <time>2016-04-01T11:54:57Z</time>
      </trkpt>
      <trkpt lat="40.050759" lon="15.448251">
        <ele>528.153</ele>
        <time>2016-04-01T11:55:55Z</time>
      </trkpt>
      <trkpt lat="40.051659" lon="15.447437">
        <ele>531.924</ele>
        <time>2016-04-01T11:57:52Z</time>
      </trkpt>
      <trkpt lat="40.051660" lon="15.446756">
        <ele>533.219</ele>
        <time>2016-04-01T11:58:29Z</time>
      </trkpt>
      <trkpt lat="40.049750" lon="15.441770">
        <ele>554.495</ele>
        <time>2016-04-01T12:05:02Z</time>
      </trkpt>
      <trkpt lat="40.047353" lon="15.439385">
        <ele>503.049</ele>
        <time>2016-04-01T12:09:40Z</time>
      </trkpt>
      <trkpt lat="40.046587" lon="15.437367">
        <ele>486.023</ele>
        <time>2016-04-01T12:12:21Z</time>
      </trkpt>
      <trkpt lat="40.045551" lon="15.436302">
        <ele>479.708</ele>
        <time>2016-04-01T12:14:32Z</time>
      </trkpt>
      <trkpt lat="40.046109" lon="15.433748">
        <ele>503.420</ele>
        <time>2016-04-01T12:19:41Z</time>
      </trkpt>
      <trkpt lat="40.047236" lon="15.432406">
        <ele>505.591</ele>
        <time>2016-04-01T12:25:06Z</time>
      </trkpt>
      <trkpt lat="40.047454" lon="15.429582">
        <ele>513.157</ele>
        <time>2016-04-01T12:28:48Z</time>
      </trkpt>
      <trkpt lat="40.047268" lon="15.429132">
        <ele>510.419</ele>
        <time>2016-04-01T12:29:27Z</time>
      </trkpt>
      <trkpt lat="40.045947" lon="15.428163">
        <ele>513.141</ele>
        <time>2016-04-01T12:31:26Z</time>
      </trkpt>
      <trkpt lat="40.044403" lon="15.427516">
        <ele>511.338</ele>
        <time>2016-04-01T12:33:35Z</time>
      </trkpt>
      <trkpt lat="40.044062" lon="15.426455">
        <ele>505.799</ele>
        <time>2016-04-01T12:34:44Z</time>
      </trkpt>
      <trkpt lat="40.042378" lon="15.425328">
        <ele>506.844</ele>
        <time>2016-04-01T12:37:22Z</time>
      </trkpt>
      <trkpt lat="40.041888" lon="15.424099">
        <ele>508.354</ele>
        <time>2016-04-01T12:38:48Z</time>
      </trkpt>
      <trkpt lat="40.041025" lon="15.422973">
        <ele>510.356</ele>
        <time>2016-04-01T12:40:33Z</time>
      </trkpt>
      <trkpt lat="40.040884" lon="15.421998">
        <ele>511.411</ele>
        <time>2016-04-01T12:41:38Z</time>
      </trkpt>
      <trkpt lat="40.040290" lon="15.421684">
        <ele>513.108</ele>
        <time>2016-04-01T12:42:34Z</time>
      </trkpt>
      <trkpt lat="40.039867" lon="15.421004">
        <ele>515.756</ele>
        <time>2016-04-01T12:43:25Z</time>
      </trkpt>
      <trkpt lat="40.039226" lon="15.418866">
        <ele>524.797</ele>
        <time>2016-04-01T12:46:24Z</time>
      </trkpt>
      <trkpt lat="40.038612" lon="15.418335">
        <ele>528.513</ele>
        <time>2016-04-01T12:47:26Z</time>
      </trkpt>
      <trkpt lat="40.036261" lon="15.414633">
        <ele>540.895</ele>
        <time>2016-04-01T12:52:54Z</time>
      </trkpt>
      <trkpt lat="40.035846" lon="15.415257">
        <ele>546.187</ele>
        <time>2016-04-01T12:53:50Z</time>
      </trkpt>
      <trkpt lat="40.034806" lon="15.415254">
        <ele>548.564</ele>
        <time>2016-04-01T12:55:24Z</time>
      </trkpt>
      <trkpt lat="40.034345" lon="15.416154">
        <ele>554.895</ele>
        <time>2016-04-01T12:56:31Z</time>
      </trkpt>
      <trkpt lat="40.033041" lon="15.416603">
        <ele>557.430</ele>
        <time>2016-04-01T12:58:18Z</time>
      </trkpt>
      <trkpt lat="40.032429" lon="15.416260">
        <ele>554.365</ele>
        <time>2016-04-01T12:59:10Z</time>
      </trkpt>
      <trkpt lat="40.031678" lon="15.414986">
        <ele>552.768</ele>
        <time>2016-04-01T13:00:53Z</time>
      </trkpt>
      <trkpt lat="40.029581" lon="15.413283">
        <ele>528.114</ele>
        <time>2016-04-01T13:05:04Z</time>
      </trkpt>
      <trkpt lat="40.028930" lon="15.413778">
        <ele>526.608</ele>
        <time>2016-04-01T13:06:10Z</time>
      </trkpt>
      <trkpt lat="40.028601" lon="15.415321">
        <ele>519.477</ele>
        <time>2016-04-01T13:08:01Z</time>
      </trkpt>
      <trkpt lat="40.027966" lon="15.415414">
        <ele>513.058</ele>
        <time>2016-04-01T13:09:41Z</time>
      </trkpt>
      <trkpt lat="40.025712" lon="15.411480">
        <ele>499.154</ele>
        <time>2016-04-01T13:16:45Z</time>
      </trkpt>
      <trkpt lat="40.025008" lon="15.403790">
        <ele>479.166</ele>
        <time>2016-04-01T13:24:56Z</time>
      </trkpt>
      <trkpt lat="40.024495" lon="15.402091">
        <ele>478.858</ele>
        <time>2016-04-01T13:27:47Z</time>
      </trkpt>
      <trkpt lat="40.025015" lon="15.400297">
        <ele>483.135</ele>
        <time>2016-04-01T13:31:30Z</time>
      </trkpt>
      <trkpt lat="40.025375" lon="15.400286">
        <ele>476.666</ele>
        <time>2016-04-01T13:32:04Z</time>
      </trkpt>
      <trkpt lat="40.025609" lon="15.395083">
        <ele>472.681</ele>
        <time>2016-04-01T13:48:02Z</time>
      </trkpt>
      <trkpt lat="40.024911" lon="15.389935">
        <ele>449.552</ele>
        <time>2016-04-01T13:53:45Z</time>
      </trkpt>
      <trkpt lat="40.024970" lon="15.389570">
        <ele>449.753</ele>
        <time>2016-04-01T13:54:09Z</time>
      </trkpt>
      <trkpt lat="40.025991" lon="15.389360">
        <ele>451.308</ele>
        <time>2016-04-01T13:55:51Z</time>
      </trkpt>
      <trkpt lat="40.026112" lon="15.388869">
        <ele>451.708</ele>
        <time>2016-04-01T13:56:36Z</time>
      </trkpt>
      <trkpt lat="40.026898" lon="15.388836">
        <ele>449.626</ele>
        <time>2016-04-01T13:57:44Z</time>
      </trkpt>
      <trkpt lat="40.026989" lon="15.388625">
        <ele>448.797</ele>
        <time>2016-04-01T13:57:59Z</time>
      </trkpt>
      <trkpt lat="40.027017" lon="15.387512">
        <ele>445.043</ele>
        <time>2016-04-01T13:59:15Z</time>
      </trkpt>
      <trkpt lat="40.026396" lon="15.385684">
        <ele>438.075</ele>
        <time>2016-04-01T14:01:59Z</time>
      </trkpt>
      <trkpt lat="40.026622" lon="15.385588">
        <ele>436.227</ele>
        <time>2016-04-01T14:02:50Z</time>
      </trkpt>
      <trkpt lat="40.027078" lon="15.382996">
        <ele>437.544</ele>
        <time>2016-04-01T14:36:34Z</time>
      </trkpt>
      <trkpt lat="40.027667" lon="15.382702">
        <ele>436.335</ele>
        <time>2016-04-01T14:38:07Z</time>
      </trkpt>
      <trkpt lat="40.028013" lon="15.382911">
        <ele>434.310</ele>
        <time>2016-04-01T14:38:39Z</time>
      </trkpt>
      <trkpt lat="40.026756" lon="15.380599">
        <ele>412.888</ele>
        <time>2016-04-01T14:43:22Z</time>
      </trkpt>
      <trkpt lat="40.027245" lon="15.380959">
        <ele>404.024</ele>
        <time>2016-04-01T14:45:39Z</time>
      </trkpt>
      <trkpt lat="40.026880" lon="15.379924">
        <ele>393.026</ele>
        <time>2016-04-01T14:47:12Z</time>
      </trkpt>
      <trkpt lat="40.027251" lon="15.380246">
        <ele>384.308</ele>
        <time>2016-04-01T14:48:26Z</time>
      </trkpt>
      <trkpt lat="40.027255" lon="15.379447">
        <ele>368.269</ele>
        <time>2016-04-01T14:52:17Z</time>
      </trkpt>
      <trkpt lat="40.027516" lon="15.379801">
        <ele>364.340</ele>
        <time>2016-04-01T14:53:04Z</time>
      </trkpt>
      <trkpt lat="40.028183" lon="15.379805">
        <ele>346.746</ele>
        <time>2016-04-01T14:55:50Z</time>
      </trkpt>
      <trkpt lat="40.028286" lon="15.380146">
        <ele>339.138</ele>
        <time>2016-04-01T14:57:45Z</time>
      </trkpt>
      <trkpt lat="40.029128" lon="15.380783">
        <ele>327.780</ele>
        <time>2016-04-01T15:01:37Z</time>
      </trkpt>
      <trkpt lat="40.031120" lon="15.381105">
        <ele>295.437</ele>
        <time>2016-04-01T15:10:24Z</time>
      </trkpt>
      <trkpt lat="40.031567" lon="15.381515">
        <ele>281.878</ele>
        <time>2016-04-01T15:14:24Z</time>
      </trkpt>
      <trkpt lat="40.032097" lon="15.382673">
        <ele>264.613</ele>
        <time>2016-04-01T15:18:44Z</time>
      </trkpt>
      <trkpt lat="40.032601" lon="15.382180">
        <ele>254.943</ele>
        <time>2016-04-01T15:22:51Z</time>
      </trkpt>
      <trkpt lat="40.032852" lon="15.382281">
        <ele>253.964</ele>
        <time>2016-04-01T15:24:16Z</time>
      </trkpt>
      <trkpt lat="40.032578" lon="15.382168">
        <ele>253.910</ele>
        <time>2016-04-01T15:25:24Z</time>
      </trkpt>
      <trkpt lat="40.033024" lon="15.380954">
        <ele>246.708</ele>
        <time>2016-04-01T15:28:24Z</time>
      </trkpt>
      <trkpt lat="40.034512" lon="15.379114">
        <ele>229.555</ele>
        <time>2016-04-01T15:31:57Z</time>
      </trkpt>
      <trkpt lat="40.034176" lon="15.378751">
        <ele>213.546</ele>
        <time>2016-04-01T15:34:00Z</time>
      </trkpt>
      <trkpt lat="40.035379" lon="15.378335">
        <ele>205.532</ele>
        <time>2016-04-01T15:36:47Z</time>
      </trkpt>
      <trkpt lat="40.036873" lon="15.375265">
        <ele>231.664</ele>
        <time>2016-04-01T15:41:26Z</time>
      </trkpt>
      <trkpt lat="40.037735" lon="15.374327">
        <ele>243.386</ele>
        <time>2016-04-01T15:43:19Z</time>
      </trkpt>
      <trkpt lat="40.038000" lon="15.373287">
        <ele>253.253</ele>
        <time>2016-04-01T15:44:37Z</time>
      </trkpt>
      <trkpt lat="40.041522" lon="15.370701">
        <ele>271.054</ele>
        <time>2016-04-01T15:50:16Z</time>
      </trkpt>
      <trkpt lat="40.041831" lon="15.369398">
        <ele>287.759</ele>
        <time>2016-04-01T15:51:59Z</time>
      </trkpt>
      <trkpt lat="40.041723" lon="15.368539">
        <ele>291.231</ele>
        <time>2016-04-01T15:52:57Z</time>
      </trkpt>
      <trkpt lat="40.043707" lon="15.368636">
        <ele>289.761</ele>
        <time>2016-04-01T15:55:46Z</time>
      </trkpt>
      <trkpt lat="40.045157" lon="15.367881">
        <ele>292.007</ele>
        <time>2016-04-01T15:58:23Z</time>
      </trkpt>
      <trkpt lat="40.046725" lon="15.366494">
        <ele>308.608</ele>
        <time>2016-04-01T16:01:10Z</time>
      </trkpt>
      <trkpt lat="40.048181" lon="15.365711">
        <ele>313.754</ele>
        <time>2016-04-01T16:03:13Z</time>
      </trkpt>
      <trkpt lat="40.048910" lon="15.366080">
        <ele>306.645</ele>
        <time>2016-04-01T16:04:17Z</time>
      </trkpt>
      <trkpt lat="40.049237" lon="15.366536">
        <ele>305.931</ele>
        <time>2016-04-01T16:04:54Z</time>
      </trkpt>
      <trkpt lat="40.050008" lon="15.366470">
        <ele>311.883</ele>
        <time>2016-04-01T16:06:00Z</time>
      </trkpt>
      <trkpt lat="40.050957" lon="15.365834">
        <ele>309.735</ele>
        <time>2016-04-01T16:07:17Z</time>
      </trkpt>
      <trkpt lat="40.051472" lon="15.365108">
        <ele>308.182</ele>
        <time>2016-04-01T16:08:25Z</time>
      </trkpt>
      <trkpt lat="40.050983" lon="15.364356">
        <ele>318.993</ele>
        <time>2016-04-01T16:10:11Z</time>
      </trkpt>
      <trkpt lat="40.051046" lon="15.364115">
        <ele>316.638</ele>
        <time>2016-04-01T16:10:54Z</time>
      </trkpt>
      <trkpt lat="40.051349" lon="15.364169">
        <ele>350.334</ele>
        <time>2016-04-01T16:21:09Z</time>
      </trkpt>
      <trkpt lat="40.051616" lon="15.363139">
        <ele>331.455</ele>
        <time>2016-04-01T16:22:32Z</time>
      </trkpt>
      <trkpt lat="40.053460" lon="15.362444">
        <ele>325.310</ele>
        <time>2016-04-01T16:26:23Z</time>
      </trkpt>
      <trkpt lat="40.054807" lon="15.361352">
        <ele>327.008</ele>
        <time>2016-04-01T16:28:35Z</time>
      </trkpt>
      <trkpt lat="40.055185" lon="15.359913">
        <ele>318.824</ele>
        <time>2016-04-01T16:31:22Z</time>
      </trkpt>
      <trkpt lat="40.055728" lon="15.361253">
        <ele>303.435</ele>
        <time>2016-04-01T16:33:06Z</time>
      </trkpt>
      <trkpt lat="40.056583" lon="15.361261">
        <ele>304.941</ele>
        <time>2016-04-01T16:34:46Z</time>
      </trkpt>
      <trkpt lat="40.057398" lon="15.361661">
        <ele>306.323</ele>
        <time>2016-04-01T16:36:15Z</time>
      </trkpt>
      <trkpt lat="40.058037" lon="15.361222">
        <ele>343.155</ele>
        <time>2016-04-01T16:37:46Z</time>
      </trkpt>
      <trkpt lat="40.057897" lon="15.360850">
        <ele>334.672</ele>
        <time>2016-04-01T16:37:56Z</time>
      </trkpt>
      <trkpt lat="40.057471" lon="15.361774">
        <ele>307.473</ele>
        <time>2016-04-01T16:46:02Z</time>
      </trkpt>
      <trkpt lat="40.057442" lon="15.361196">
        <ele>305.118</ele>
        <time>2016-04-01T16:54:32Z</time>
      </trkpt>
      <trkpt lat="40.058026" lon="15.360701">
        <ele>288.872</ele>
        <time>2016-04-01T17:00:54Z</time>
      </trkpt>
      <trkpt lat="40.058075" lon="15.359964">
        <ele>316.213</ele>
        <time>2016-04-01T17:02:30Z</time>
      </trkpt>
      <trkpt lat="40.059229" lon="15.358656">
        <ele>328.514</ele>
        <time>2016-04-01T17:05:19Z</time>
      </trkpt>
      <trkpt lat="40.060154" lon="15.358320">
        <ele>352.608</ele>
        <time>2016-04-01T17:11:01Z</time>
      </trkpt>
      <trkpt lat="40.061498" lon="15.355499">
        <ele>401.198</ele>
        <time>2016-04-01T17:29:18Z</time>
      </trkpt>
      <trkpt lat="40.062434" lon="15.354533">
        <ele>417.649</ele>
        <time>2016-04-01T17:32:12Z</time>
      </trkpt>
      <trkpt lat="40.062706" lon="15.353741">
        <ele>427.355</ele>
        <time>2016-04-01T17:33:56Z</time>
      </trkpt>
      <trkpt lat="40.063283" lon="15.353249">
        <ele>438.137</ele>
        <time>2016-04-01T17:36:27Z</time>
      </trkpt>
      <trkpt lat="40.063441" lon="15.352564">
        <ele>444.839</ele>
        <time>2016-04-01T17:37:27Z</time>
      </trkpt>
      <trkpt lat="40.063656" lon="15.352319">
        <ele>445.926</ele>
        <time>2016-04-01T17:37:57Z</time>
      </trkpt>
      <trkpt lat="40.064822" lon="15.352408">
        <ele>449.117</ele>
        <time>2016-04-01T17:40:09Z</time>
      </trkpt>
      <trkpt lat="40.065253" lon="15.352799">
        <ele>447.812</ele>
        <time>2016-04-01T17:41:03Z</time>
      </trkpt>
      <trkpt lat="40.066101" lon="15.350900">
        <ele>443.927</ele>
        <time>2016-04-01T17:43:41Z</time>
      </trkpt>
      <trkpt lat="40.067668" lon="15.348443">
        <ele>432.468</ele>
        <time>2016-04-01T17:47:25Z</time>
      </trkpt>
      <trkpt lat="40.072445" lon="15.349379">
        <ele>427.014</ele>
        <time>2016-04-01T17:55:34Z</time>
      </trkpt>
      <trkpt lat="40.073355" lon="15.349356">
        <ele>430.508</ele>
        <time>2016-04-01T17:57:47Z</time>
      </trkpt>
      <trkpt lat="40.073955" lon="15.349817">
        <ele>426.963</ele>
        <time>2016-04-01T18:10:30Z</time>
      </trkpt>
      <trkpt lat="40.075244" lon="15.350084">
        <ele>427.654</ele>
        <time>2016-04-01T18:17:17Z</time>
      </trkpt>
      <trkpt lat="40.076964" lon="15.349553">
        <ele>443.160</ele>
        <time>2016-04-01T18:23:22Z</time>
      </trkpt>
      <trkpt lat="40.077023" lon="15.349155">
        <ele>444.742</ele>
        <time>2016-04-01T18:26:02Z</time>
      </trkpt>
      <trkpt lat="40.077390" lon="15.349178">
        <ele>452.584</ele>
        <time>2016-04-01T18:28:35Z</time>
      </trkpt>
      <trkpt lat="40.077884" lon="15.349707">
        <ele>447.571</ele>
        <time>2016-04-01T18:29:53Z</time>
      </trkpt>
      <trkpt lat="40.078469" lon="15.349622">
        <ele>438.242</ele>
        <time>2016-04-01T18:30:50Z</time>
      </trkpt>
      <trkpt lat="40.079205" lon="15.348923">
        <ele>441.217</ele>
        <time>2016-04-01T18:33:02Z</time>
      </trkpt>
      <trkpt lat="40.079628" lon="15.348886">
        <ele>439.076</ele>
        <time>2016-04-01T18:33:47Z</time>
      </trkpt>
      <trkpt lat="40.079881" lon="15.350049">
        <ele>420.190</ele>
        <time>2016-04-01T18:37:07Z</time>
      </trkpt>
      <trkpt lat="40.080985" lon="15.350817">
        <ele>401.619</ele>
        <time>2016-04-01T18:41:02Z</time>
      </trkpt>
      <trkpt lat="40.081604" lon="15.352323">
        <ele>386.508</ele>
        <time>2016-04-01T18:44:26Z</time>
      </trkpt>
      <trkpt lat="40.082575" lon="15.352411">
        <ele>362.538</ele>
        <time>2016-04-01T18:48:31Z</time>
      </trkpt>
      <trkpt lat="40.083112" lon="15.353536">
        <ele>351.129</ele>
        <time>2016-04-01T18:50:50Z</time>
      </trkpt>
      <trkpt lat="40.083956" lon="15.353749">
        <ele>320.525</ele>
        <time>2016-04-01T18:56:06Z</time>
      </trkpt>
      <trkpt lat="40.084202" lon="15.353517">
        <ele>317.957</ele>
        <time>2016-04-01T18:59:14Z</time>
      </trkpt>
      <trkpt lat="40.084735" lon="15.353870">
        <ele>309.819</ele>
        <time>2016-04-01T19:00:48Z</time>
      </trkpt>
      <trkpt lat="40.085111" lon="15.353421">
        <ele>295.516</ele>
        <time>2016-04-01T19:06:07Z</time>
      </trkpt>
      <trkpt lat="40.085879" lon="15.354615">
        <ele>300.067</ele>
        <time>2016-04-02T07:40:29Z</time>
      </trkpt>
      <trkpt lat="40.086564" lon="15.354495">
        <ele>307.652</ele>
        <time>2016-04-02T07:41:37Z</time>
      </trkpt>
      <trkpt lat="40.086706" lon="15.354026">
        <ele>300.234</ele>
        <time>2016-04-02T07:46:06Z</time>
      </trkpt>
      <trkpt lat="40.086891" lon="15.354146">
        <ele>300.555</ele>
        <time>2016-04-02T07:47:29Z</time>
      </trkpt>
      <trkpt lat="40.087565" lon="15.355268">
        <ele>278.710</ele>
        <time>2016-04-02T07:50:11Z</time>
      </trkpt>
      <trkpt lat="40.087883" lon="15.357458">
        <ele>249.808</ele>
        <time>2016-04-02T07:54:23Z</time>
      </trkpt>
      <trkpt lat="40.088039" lon="15.357302">
        <ele>248.614</ele>
        <time>2016-04-02T07:54:49Z</time>
      </trkpt>
      <trkpt lat="40.088577" lon="15.358758">
        <ele>206.885</ele>
        <time>2016-04-02T07:59:23Z</time>
      </trkpt>
      <trkpt lat="40.089191" lon="15.359043">
        <ele>199.421</ele>
        <time>2016-04-02T08:01:00Z</time>
      </trkpt>
      <trkpt lat="40.089707" lon="15.358340">
        <ele>195.213</ele>
        <time>2016-04-02T08:03:04Z</time>
      </trkpt>
      <trkpt lat="40.089595" lon="15.357000">
        <ele>164.935</ele>
        <time>2016-04-02T08:07:21Z</time>
      </trkpt>
      <trkpt lat="40.090174" lon="15.355948">
        <ele>147.772</ele>
        <time>2016-04-02T08:10:14Z</time>
      </trkpt>
      <trkpt lat="40.089426" lon="15.354910">
        <ele>125.853</ele>
        <time>2016-04-02T08:16:43Z</time>
      </trkpt>
      <trkpt lat="40.089719" lon="15.354699">
        <ele>120.518</ele>
        <time>2016-04-02T08:17:32Z</time>
      </trkpt>
      <trkpt lat="40.089045" lon="15.354267">
        <ele>114.053</ele>
        <time>2016-04-02T08:18:56Z</time>
      </trkpt>
      <trkpt lat="40.088314" lon="15.352706">
        <ele>108.304</ele>
        <time>2016-04-02T08:21:16Z</time>
      </trkpt>
      <trkpt lat="40.088188" lon="15.351343">
        <ele>108.914</ele>
        <time>2016-04-02T08:22:59Z</time>
      </trkpt>
      <trkpt lat="40.088649" lon="15.349633">
        <ele>111.908</ele>
        <time>2016-04-02T08:25:33Z</time>
      </trkpt>
      <trkpt lat="40.090145" lon="15.347228">
        <ele>113.846</ele>
        <time>2016-04-02T08:29:08Z</time>
      </trkpt>
    </trkseg>
  </trk></gpx>