<?xml version="1.0" encoding="UTF-8"?>
<gpx creator="Wikiloc - https://www.wikiloc.com" version="1.1" xmlns="http://www.topografix.com/GPX/1/1" xmlns:xsi="http://www.w3.org/2001/XMLSchema-instance" xsi:schemaLocation="http://www.topografix.com/GPX/1/1 http://www.topografix.com/GPX/1/1/gpx.xsd">
  <metadata>
    <name>Wikiloc - Marina di Camerota-Porto Infreschi-Cala Bianca- Spiaggia del...</name>
    <link href="https://www.wikiloc.com/hiking-trails/marina-di-camerota-porto-infreschi-cala-bianca-spiaggia-del-pozzallo-e-ritorno-79835214">
      <text>Marina di Camerota-Porto Infreschi-Cala Bianca- Spiaggia del... on Wikiloc</text>
    </link>
    <time>2021-08-02T16:49:33Z</time>
  </metadata>
  <wpt lat="40.000926" lon="15.381057">
    <ele>9.9</ele>
    <time>2021-08-02T06:07:42Z</time>
    <name>Grotta della cala</name>
    <cmt></cmt>
    <desc></desc>
  </wpt>
  <wpt lat="39.998700" lon="15.405108">
    <ele>89.5</ele>
    <time>2021-08-02T06:53:28Z</time>
    <name>Panorama</name>
    <cmt></cmt>
    <desc></desc>
  </wpt>
  <wpt lat="39.998414" lon="15.406036">
    <ele>81.0</ele>
    <time>2021-08-02T06:55:31Z</time>
    <name>Panorama</name>
    <cmt></cmt>
    <desc></desc>
  </wpt>
  <wpt lat="39.997266" lon="15.424710">
    <ele>51.3</ele>
    <time>2021-08-02T07:47:54Z</time>
    <name>Porto Infreschi</name>
    <cmt></cmt>
    <desc></desc>
  </wpt>
  <wpt lat="39.997460" lon="15.413332">
    <ele>5.9</ele>
    <time>2021-08-02T11:24:05Z</time>
    <name>Cala Bianca</name>
    <cmt></cmt>
    <desc></desc>
  </wpt>
  <wpt lat="39.997720" lon="15.406736">
    <ele>44.1</ele>
    <time>2021-08-02T13:54:30Z</time>
    <name>Pozzallo</name>
    <cmt></cmt>
    <desc></desc>
  </wpt>
  <trk>
    <name>Marina di Camerota-Porto Infreschi-Cala Bianca- Spiaggia del... - Wikiloc</name>
    <cmt></cmt>
    <desc></desc>
    <trkseg>
      <trkpt lat="40.001586" lon="15.377523">
        <ele>9.526</ele>
        <time>2021-08-02T08:02:11Z</time>
      </trkpt>
      <trkpt lat="40.002211" lon="15.378593">
        <ele>10.347</ele>
        <time>2021-08-02T08:03:47Z</time>
      </trkpt>
      <trkpt lat="40.002260" lon="15.379125">
        <ele>12.811</ele>
        <time>2021-08-02T08:04:18Z</time>
      </trkpt>
      <trkpt lat="40.002191" lon="15.379285">
        <ele>13.208</ele>
        <time>2021-08-02T08:04:32Z</time>
      </trkpt>
      <trkpt lat="40.002014" lon="15.379185">
        <ele>11.419</ele>
        <time>2021-08-02T08:04:47Z</time>
      </trkpt>
      <trkpt lat="40.001715" lon="15.379359">
        <ele>11.221</ele>
        <time>2021-08-02T08:05:12Z</time>
      </trkpt>
      <trkpt lat="40.001430" lon="15.379803">
        <ele>9.320</ele>
        <time>2021-08-02T08:05:44Z</time>
      </trkpt>
      <trkpt lat="40.001046" lon="15.380043">
        <ele>8.965</ele>
        <time>2021-08-02T08:06:15Z</time>
      </trkpt>
      <trkpt lat="40.001103" lon="15.380239">
        <ele>8.957</ele>
        <time>2021-08-02T08:06:23Z</time>
      </trkpt>
      <trkpt lat="40.001005" lon="15.380891">
        <ele>8.914</ele>
        <time>2021-08-02T08:07:15Z</time>
      </trkpt>
      <trkpt lat="40.000720" lon="15.381322">
        <ele>9.543</ele>
        <time>2021-08-02T08:08:03Z</time>
      </trkpt>
      <trkpt lat="40.000826" lon="15.381615">
        <ele>9.596</ele>
        <time>2021-08-02T08:08:23Z</time>
      </trkpt>
      <trkpt lat="40.000788" lon="15.382062">
        <ele>8.736</ele>
        <time>2021-08-02T08:08:52Z</time>
      </trkpt>
      <trkpt lat="40.001000" lon="15.382322">
        <ele>10.517</ele>
        <time>2021-08-02T08:09:16Z</time>
      </trkpt>
      <trkpt lat="40.001264" lon="15.383275">
        <ele>16.218</ele>
        <time>2021-08-02T08:10:13Z</time>
      </trkpt>
      <trkpt lat="40.001236" lon="15.383909">
        <ele>20.908</ele>
        <time>2021-08-02T08:10:51Z</time>
      </trkpt>
      <trkpt lat="40.000410" lon="15.385649">
        <ele>11.470</ele>
        <time>2021-08-02T08:13:03Z</time>
      </trkpt>
      <trkpt lat="40.000278" lon="15.385776">
        <ele>10.372</ele>
        <time>2021-08-02T08:13:14Z</time>
      </trkpt>
      <trkpt lat="40.000100" lon="15.385691">
        <ele>9.931</ele>
        <time>2021-08-02T08:13:29Z</time>
      </trkpt>
      <trkpt lat="39.999965" lon="15.386045">
        <ele>9.916</ele>
        <time>2021-08-02T08:13:54Z</time>
      </trkpt>
      <trkpt lat="39.999726" lon="15.386309">
        <ele>9.968</ele>
        <time>2021-08-02T08:14:09Z</time>
      </trkpt>
      <trkpt lat="39.999714" lon="15.386794">
        <ele>0.095</ele>
        <time>2021-08-02T08:14:47Z</time>
      </trkpt>
      <trkpt lat="40.000039" lon="15.387343">
        <ele>10.464</ele>
        <time>2021-08-02T08:15:44Z</time>
      </trkpt>
      <trkpt lat="40.000021" lon="15.388581">
        <ele>9.187</ele>
        <time>2021-08-02T08:18:04Z</time>
      </trkpt>
      <trkpt lat="40.000207" lon="15.388768">
        <ele>9.123</ele>
        <time>2021-08-02T08:18:39Z</time>
      </trkpt>
      <trkpt lat="40.000356" lon="15.389213">
        <ele>10.483</ele>
        <time>2021-08-02T08:20:00Z</time>
      </trkpt>
      <trkpt lat="40.000489" lon="15.389205">
        <ele>10.911</ele>
        <time>2021-08-02T08:20:19Z</time>
      </trkpt>
      <trkpt lat="40.000713" lon="15.389700">
        <ele>11.308</ele>
        <time>2021-08-02T08:21:24Z</time>
      </trkpt>
      <trkpt lat="40.000695" lon="15.389882">
        <ele>9.229</ele>
        <time>2021-08-02T08:22:02Z</time>
      </trkpt>
      <trkpt lat="40.000469" lon="15.390491">
        <ele>10.341</ele>
        <time>2021-08-02T08:23:21Z</time>
      </trkpt>
      <trkpt lat="40.000226" lon="15.390671">
        <ele>10.250</ele>
        <time>2021-08-02T08:24:04Z</time>
      </trkpt>
      <trkpt lat="40.000385" lon="15.390936">
        <ele>10.245</ele>
        <time>2021-08-02T08:25:18Z</time>
      </trkpt>
      <trkpt lat="39.999961" lon="15.392060">
        <ele>50.287</ele>
        <time>2021-08-02T08:27:06Z</time>
      </trkpt>
      <trkpt lat="39.998910" lon="15.393821">
        <ele>106.724</ele>
        <time>2021-08-02T08:29:47Z</time>
      </trkpt>
      <trkpt lat="39.999047" lon="15.394147">
        <ele>105.173</ele>
        <time>2021-08-02T08:30:12Z</time>
      </trkpt>
      <trkpt lat="39.999896" lon="15.395274">
        <ele>120.686</ele>
        <time>2021-08-02T08:32:08Z</time>
      </trkpt>
      <trkpt lat="40.000994" lon="15.395725">
        <ele>125.559</ele>
        <time>2021-08-02T08:33:51Z</time>
      </trkpt>
      <trkpt lat="40.001741" lon="15.396781">
        <ele>137.203</ele>
        <time>2021-08-02T08:35:59Z</time>
      </trkpt>
      <trkpt lat="40.000850" lon="15.399224">
        <ele>137.123</ele>
        <time>2021-08-02T08:40:38Z</time>
      </trkpt>
      <trkpt lat="40.000417" lon="15.399104">
        <ele>129.308</ele>
        <time>2021-08-02T08:41:23Z</time>
      </trkpt>
      <trkpt lat="40.000147" lon="15.399187">
        <ele>137.062</ele>
        <time>2021-08-02T08:41:50Z</time>
      </trkpt>
      <trkpt lat="39.999712" lon="15.399759">
        <ele>137.834</ele>
        <time>2021-08-02T08:42:50Z</time>
      </trkpt>
      <trkpt lat="39.999572" lon="15.401820">
        <ele>119.183</ele>
        <time>2021-08-02T08:47:26Z</time>
      </trkpt>
      <trkpt lat="39.999295" lon="15.402064">
        <ele>109.428</ele>
        <time>2021-08-02T08:48:05Z</time>
      </trkpt>
      <trkpt lat="39.998862" lon="15.403635">
        <ele>97.220</ele>
        <time>2021-08-02T08:50:10Z</time>
      </trkpt>
      <trkpt lat="39.998615" lon="15.405786">
        <ele>87.657</ele>
        <time>2021-08-02T08:54:15Z</time>
      </trkpt>
      <trkpt lat="39.998537" lon="15.405955">
        <ele>85.546</ele>
        <time>2021-08-02T08:54:40Z</time>
      </trkpt>
      <trkpt lat="39.998078" lon="15.406287">
        <ele>74.729</ele>
        <time>2021-08-02T08:56:33Z</time>
      </trkpt>
      <trkpt lat="39.997948" lon="15.406080">
        <ele>67.457</ele>
        <time>2021-08-02T08:57:49Z</time>
      </trkpt>
      <trkpt lat="39.997879" lon="15.406480">
        <ele>61.000</ele>
        <time>2021-08-02T08:58:32Z</time>
      </trkpt>
      <trkpt lat="39.997701" lon="15.406756">
        <ele>53.420</ele>
        <time>2021-08-02T09:00:02Z</time>
      </trkpt>
      <trkpt lat="39.998028" lon="15.406801">
        <ele>48.608</ele>
        <time>2021-08-02T09:00:30Z</time>
      </trkpt>
      <trkpt lat="39.998463" lon="15.406710">
        <ele>44.872</ele>
        <time>2021-08-02T09:01:17Z</time>
      </trkpt>
      <trkpt lat="39.998299" lon="15.406918">
        <ele>39.584</ele>
        <time>2021-08-02T09:01:45Z</time>
      </trkpt>
      <trkpt lat="39.998503" lon="15.406957">
        <ele>32.953</ele>
        <time>2021-08-02T09:02:20Z</time>
      </trkpt>
      <trkpt lat="39.998322" lon="15.407151">
        <ele>28.318</ele>
        <time>2021-08-02T09:03:12Z</time>
      </trkpt>
      <trkpt lat="39.998607" lon="15.407341">
        <ele>20.880</ele>
        <time>2021-08-02T09:04:18Z</time>
      </trkpt>
      <trkpt lat="39.998778" lon="15.407143">
        <ele>20.647</ele>
        <time>2021-08-02T09:04:54Z</time>
      </trkpt>
      <trkpt lat="39.998876" lon="15.407573">
        <ele>20.176</ele>
        <time>2021-08-02T09:05:33Z</time>
      </trkpt>
      <trkpt lat="39.998685" lon="15.407811">
        <ele>20.599</ele>
        <time>2021-08-02T09:06:15Z</time>
      </trkpt>
      <trkpt lat="39.998683" lon="15.407935">
        <ele>24.819</ele>
        <time>2021-08-02T09:06:35Z</time>
      </trkpt>
      <trkpt lat="39.998782" lon="15.407935">
        <ele>27.709</ele>
        <time>2021-08-02T09:06:47Z</time>
      </trkpt>
      <trkpt lat="39.998404" lon="15.408390">
        <ele>36.619</ele>
        <time>2021-08-02T09:08:12Z</time>
      </trkpt>
      <trkpt lat="39.998055" lon="15.408338">
        <ele>43.708</ele>
        <time>2021-08-02T09:09:07Z</time>
      </trkpt>
      <trkpt lat="39.998251" lon="15.408765">
        <ele>49.868</ele>
        <time>2021-08-02T09:10:36Z</time>
      </trkpt>
      <trkpt lat="39.998241" lon="15.409574">
        <ele>68.470</ele>
        <time>2021-08-02T09:12:17Z</time>
      </trkpt>
      <trkpt lat="39.998656" lon="15.410384">
        <ele>60.179</ele>
        <time>2021-08-02T09:14:11Z</time>
      </trkpt>
      <trkpt lat="39.998807" lon="15.411020">
        <ele>60.494</ele>
        <time>2021-08-02T09:16:00Z</time>
      </trkpt>
      <trkpt lat="39.998725" lon="15.411834">
        <ele>53.346</ele>
        <time>2021-08-02T09:17:12Z</time>
      </trkpt>
      <trkpt lat="39.998826" lon="15.412104">
        <ele>53.083</ele>
        <time>2021-08-02T09:17:36Z</time>
      </trkpt>
      <trkpt lat="39.998808" lon="15.412595">
        <ele>47.012</ele>
        <time>2021-08-02T09:18:37Z</time>
      </trkpt>
      <trkpt lat="39.998947" lon="15.412975">
        <ele>43.765</ele>
        <time>2021-08-02T09:19:08Z</time>
      </trkpt>
      <trkpt lat="39.998772" lon="15.413333">
        <ele>39.871</ele>
        <time>2021-08-02T09:19:49Z</time>
      </trkpt>
      <trkpt lat="39.998799" lon="15.413982">
        <ele>32.941</ele>
        <time>2021-08-02T09:20:58Z</time>
      </trkpt>
      <trkpt lat="39.998563" lon="15.415043">
        <ele>24.515</ele>
        <time>2021-08-02T09:22:32Z</time>
      </trkpt>
      <trkpt lat="39.998694" lon="15.415473">
        <ele>25.008</ele>
        <time>2021-08-02T09:23:04Z</time>
      </trkpt>
      <trkpt lat="39.998564" lon="15.416231">
        <ele>19.164</ele>
        <time>2021-08-02T09:24:01Z</time>
      </trkpt>
      <trkpt lat="39.998715" lon="15.416414">
        <ele>16.516</ele>
        <time>2021-08-02T09:24:39Z</time>
      </trkpt>
      <trkpt lat="39.998703" lon="15.416610">
        <ele>24.295</ele>
        <time>2021-08-02T09:26:36Z</time>
      </trkpt>
      <trkpt lat="39.998383" lon="15.417125">
        <ele>37.780</ele>
        <time>2021-08-02T09:27:46Z</time>
      </trkpt>
      <trkpt lat="39.998380" lon="15.417360">
        <ele>43.982</ele>
        <time>2021-08-02T09:28:50Z</time>
      </trkpt>
      <trkpt lat="39.998224" lon="15.417478">
        <ele>47.259</ele>
        <time>2021-08-02T09:29:17Z</time>
      </trkpt>
      <trkpt lat="39.998280" lon="15.417317">
        <ele>51.878</ele>
        <time>2021-08-02T09:30:40Z</time>
      </trkpt>
      <trkpt lat="39.998117" lon="15.417575">
        <ele>48.511</ele>
        <time>2021-08-02T09:31:09Z</time>
      </trkpt>
      <trkpt lat="39.997986" lon="15.418114">
        <ele>58.792</ele>
        <time>2021-08-02T09:31:58Z</time>
      </trkpt>
      <trkpt lat="39.997430" lon="15.418899">
        <ele>74.473</ele>
        <time>2021-08-02T09:34:05Z</time>
      </trkpt>
      <trkpt lat="39.997441" lon="15.419129">
        <ele>83.420</ele>
        <time>2021-08-02T09:35:07Z</time>
      </trkpt>
      <trkpt lat="39.997221" lon="15.419235">
        <ele>91.008</ele>
        <time>2021-08-02T09:35:49Z</time>
      </trkpt>
      <trkpt lat="39.996899" lon="15.420222">
        <ele>107.296</ele>
        <time>2021-08-02T09:37:39Z</time>
      </trkpt>
      <trkpt lat="39.997337" lon="15.420423">
        <ele>105.088</ele>
        <time>2021-08-02T09:38:31Z</time>
      </trkpt>
      <trkpt lat="39.997190" lon="15.421190">
        <ele>102.557</ele>
        <time>2021-08-02T09:39:49Z</time>
      </trkpt>
      <trkpt lat="39.997270" lon="15.421570">
        <ele>91.332</ele>
        <time>2021-08-02T09:40:19Z</time>
      </trkpt>
      <trkpt lat="39.997103" lon="15.422723">
        <ele>66.914</ele>
        <time>2021-08-02T09:41:55Z</time>
      </trkpt>
      <trkpt lat="39.997581" lon="15.423959">
        <ele>61.741</ele>
        <time>2021-08-02T09:43:43Z</time>
      </trkpt>
      <trkpt lat="39.997490" lon="15.424107">
        <ele>56.460</ele>
        <time>2021-08-02T09:44:12Z</time>
      </trkpt>
      <trkpt lat="39.997279" lon="15.423980">
        <ele>50.753</ele>
        <time>2021-08-02T09:45:08Z</time>
      </trkpt>
      <trkpt lat="39.997196" lon="15.424278">
        <ele>53.374</ele>
        <time>2021-08-02T09:46:29Z</time>
      </trkpt>
      <trkpt lat="39.997362" lon="15.425066">
        <ele>38.256</ele>
        <time>2021-08-02T09:49:07Z</time>
      </trkpt>
      <trkpt lat="39.997522" lon="15.425252">
        <ele>28.421</ele>
        <time>2021-08-02T09:50:42Z</time>
      </trkpt>
      <trkpt lat="39.997754" lon="15.425963">
        <ele>20.008</ele>
        <time>2021-08-02T09:53:31Z</time>
      </trkpt>
      <trkpt lat="39.997577" lon="15.425617">
        <ele>18.564</ele>
        <time>2021-08-02T09:59:45Z</time>
      </trkpt>
      <trkpt lat="39.997515" lon="15.424987">
        <ele>19.076</ele>
        <time>2021-08-02T10:00:30Z</time>
      </trkpt>
      <trkpt lat="39.997577" lon="15.424836">
        <ele>18.475</ele>
        <time>2021-08-02T10:01:07Z</time>
      </trkpt>
      <trkpt lat="39.997647" lon="15.424900">
        <ele>15.040</ele>
        <time>2021-08-02T10:05:59Z</time>
      </trkpt>
      <trkpt lat="39.997599" lon="15.424850">
        <ele>14.782</ele>
        <time>2021-08-02T10:06:45Z</time>
      </trkpt>
      <trkpt lat="39.997597" lon="15.424949">
        <ele>14.669</ele>
        <time>2021-08-02T10:08:09Z</time>
      </trkpt>
      <trkpt lat="39.997606" lon="15.424829">
        <ele>14.648</ele>
        <time>2021-08-02T10:08:58Z</time>
      </trkpt>
      <trkpt lat="39.997549" lon="15.425040">
        <ele>14.221</ele>
        <time>2021-08-02T10:36:00Z</time>
      </trkpt>
      <trkpt lat="39.997563" lon="15.424937">
        <ele>22.011</ele>
        <time>2021-08-02T10:40:57Z</time>
      </trkpt>
      <trkpt lat="39.997696" lon="15.424937">
        <ele>36.221</ele>
        <time>2021-08-02T10:44:56Z</time>
      </trkpt>
      <trkpt lat="39.997618" lon="15.424992">
        <ele>33.403</ele>
        <time>2021-08-02T10:47:11Z</time>
      </trkpt>
      <trkpt lat="39.997645" lon="15.424869">
        <ele>16.308</ele>
        <time>2021-08-02T10:54:30Z</time>
      </trkpt>
      <trkpt lat="39.997621" lon="15.424939">
        <ele>9.898</ele>
        <time>2021-08-02T11:11:52Z</time>
      </trkpt>
      <trkpt lat="39.997733" lon="15.424909">
        <ele>8.740</ele>
        <time>2021-08-02T11:15:05Z</time>
      </trkpt>
      <trkpt lat="39.997640" lon="15.424940">
        <ele>19.099</ele>
        <time>2021-08-02T11:23:06Z</time>
      </trkpt>
      <trkpt lat="39.997587" lon="15.424845">
        <ele>17.964</ele>
        <time>2021-08-02T11:23:52Z</time>
      </trkpt>
      <trkpt lat="39.997574" lon="15.424964">
        <ele>19.416</ele>
        <time>2021-08-02T11:24:09Z</time>
      </trkpt>
      <trkpt lat="39.997678" lon="15.425017">
        <ele>20.873</ele>
        <time>2021-08-02T11:24:17Z</time>
      </trkpt>
      <trkpt lat="39.997599" lon="15.425372">
        <ele>22.252</ele>
        <time>2021-08-02T11:24:57Z</time>
      </trkpt>
      <trkpt lat="39.997538" lon="15.425280">
        <ele>23.165</ele>
        <time>2021-08-02T11:25:36Z</time>
      </trkpt>
      <trkpt lat="39.997646" lon="15.425360">
        <ele>27.693</ele>
        <time>2021-08-02T11:28:12Z</time>
      </trkpt>
      <trkpt lat="39.997562" lon="15.425253">
        <ele>36.265</ele>
        <time>2021-08-02T11:30:18Z</time>
      </trkpt>
      <trkpt lat="39.997684" lon="15.425284">
        <ele>37.821</ele>
        <time>2021-08-02T11:31:29Z</time>
      </trkpt>
      <trkpt lat="39.997517" lon="15.425219">
        <ele>36.108</ele>
        <time>2021-08-02T11:33:40Z</time>
      </trkpt>
      <trkpt lat="39.997592" lon="15.425289">
        <ele>35.886</ele>
        <time>2021-08-02T11:34:07Z</time>
      </trkpt>
      <trkpt lat="39.997467" lon="15.425277">
        <ele>35.998</ele>
        <time>2021-08-02T11:38:25Z</time>
      </trkpt>
      <trkpt lat="39.997560" lon="15.425296">
        <ele>34.047</ele>
        <time>2021-08-02T11:42:13Z</time>
      </trkpt>
      <trkpt lat="39.997521" lon="15.425243">
        <ele>32.542</ele>
        <time>2021-08-02T11:44:08Z</time>
      </trkpt>
      <trkpt lat="39.997535" lon="15.425373">
        <ele>30.174</ele>
        <time>2021-08-02T11:45:09Z</time>
      </trkpt>
      <trkpt lat="39.997311" lon="15.424945">
        <ele>32.071</ele>
        <time>2021-08-02T12:19:26Z</time>
      </trkpt>
      <trkpt lat="39.997181" lon="15.424322">
        <ele>43.560</ele>
        <time>2021-08-02T12:20:52Z</time>
      </trkpt>
      <trkpt lat="39.997251" lon="15.424025">
        <ele>45.233</ele>
        <time>2021-08-02T12:21:27Z</time>
      </trkpt>
      <trkpt lat="39.997359" lon="15.424012">
        <ele>46.486</ele>
        <time>2021-08-02T12:21:37Z</time>
      </trkpt>
      <trkpt lat="39.997453" lon="15.424151">
        <ele>47.260</ele>
        <time>2021-08-02T12:21:58Z</time>
      </trkpt>
      <trkpt lat="39.997613" lon="15.423934">
        <ele>48.626</ele>
        <time>2021-08-02T12:22:54Z</time>
      </trkpt>
      <trkpt lat="39.997109" lon="15.422872">
        <ele>63.008</ele>
        <time>2021-08-02T12:24:55Z</time>
      </trkpt>
      <trkpt lat="39.997305" lon="15.420377">
        <ele>91.425</ele>
        <time>2021-08-02T12:28:44Z</time>
      </trkpt>
      <trkpt lat="39.996946" lon="15.420110">
        <ele>104.197</ele>
        <time>2021-08-02T12:29:40Z</time>
      </trkpt>
      <trkpt lat="39.997149" lon="15.419392">
        <ele>104.356</ele>
        <time>2021-08-02T12:30:47Z</time>
      </trkpt>
      <trkpt lat="39.997249" lon="15.419233">
        <ele>104.351</ele>
        <time>2021-08-02T12:31:12Z</time>
      </trkpt>
      <trkpt lat="39.997437" lon="15.419176">
        <ele>92.713</ele>
        <time>2021-08-02T12:31:50Z</time>
      </trkpt>
      <trkpt lat="39.997391" lon="15.418929">
        <ele>81.790</ele>
        <time>2021-08-02T12:32:31Z</time>
      </trkpt>
      <trkpt lat="39.997979" lon="15.418121">
        <ele>60.559</ele>
        <time>2021-08-02T12:34:48Z</time>
      </trkpt>
      <trkpt lat="39.998082" lon="15.417641">
        <ele>52.052</ele>
        <time>2021-08-02T12:35:35Z</time>
      </trkpt>
      <trkpt lat="39.998208" lon="15.417457">
        <ele>49.867</ele>
        <time>2021-08-02T12:36:17Z</time>
      </trkpt>
      <trkpt lat="39.998450" lon="15.417420">
        <ele>45.981</ele>
        <time>2021-08-02T12:37:02Z</time>
      </trkpt>
      <trkpt lat="39.998355" lon="15.417219">
        <ele>36.919</ele>
        <time>2021-08-02T12:37:54Z</time>
      </trkpt>
      <trkpt lat="39.998723" lon="15.416522">
        <ele>23.808</ele>
        <time>2021-08-02T12:39:33Z</time>
      </trkpt>
      <trkpt lat="39.998386" lon="15.416219">
        <ele>17.843</ele>
        <time>2021-08-02T12:40:21Z</time>
      </trkpt>
      <trkpt lat="39.998439" lon="15.415730">
        <ele>17.495</ele>
        <time>2021-08-02T12:41:13Z</time>
      </trkpt>
      <trkpt lat="39.998306" lon="15.415435">
        <ele>17.894</ele>
        <time>2021-08-02T12:42:09Z</time>
      </trkpt>
      <trkpt lat="39.998328" lon="15.414546">
        <ele>13.279</ele>
        <time>2021-08-02T12:44:16Z</time>
      </trkpt>
      <trkpt lat="39.998139" lon="15.414488">
        <ele>16.011</ele>
        <time>2021-08-02T12:44:36Z</time>
      </trkpt>
      <trkpt lat="39.997971" lon="15.413764">
        <ele>11.848</ele>
        <time>2021-08-02T12:45:58Z</time>
      </trkpt>
      <trkpt lat="39.997743" lon="15.413689">
        <ele>13.817</ele>
        <time>2021-08-02T12:46:32Z</time>
      </trkpt>
      <trkpt lat="39.997592" lon="15.413304">
        <ele>17.210</ele>
        <time>2021-08-02T12:47:06Z</time>
      </trkpt>
      <trkpt lat="39.997203" lon="15.413463">
        <ele>13.316</ele>
        <time>2021-08-02T12:48:07Z</time>
      </trkpt>
      <trkpt lat="39.997387" lon="15.413425">
        <ele>8.376</ele>
        <time>2021-08-02T13:23:33Z</time>
      </trkpt>
      <trkpt lat="39.997528" lon="15.413238">
        <ele>7.213</ele>
        <time>2021-08-02T13:24:14Z</time>
      </trkpt>
      <trkpt lat="39.997620" lon="15.413288">
        <ele>7.608</ele>
        <time>2021-08-02T13:24:31Z</time>
      </trkpt>
      <trkpt lat="39.997560" lon="15.412521">
        <ele>24.578</ele>
        <time>2021-08-02T13:26:50Z</time>
      </trkpt>
      <trkpt lat="39.997450" lon="15.412376">
        <ele>26.870</ele>
        <time>2021-08-02T13:27:40Z</time>
      </trkpt>
      <trkpt lat="39.997575" lon="15.412545">
        <ele>29.789</ele>
        <time>2021-08-02T13:28:38Z</time>
      </trkpt>
      <trkpt lat="39.997783" lon="15.412392">
        <ele>30.584</ele>
        <time>2021-08-02T13:29:01Z</time>
      </trkpt>
      <trkpt lat="39.998265" lon="15.412437">
        <ele>35.496</ele>
        <time>2021-08-02T13:29:53Z</time>
      </trkpt>
      <trkpt lat="39.998482" lon="15.412305">
        <ele>35.983</ele>
        <time>2021-08-02T13:30:19Z</time>
      </trkpt>
      <trkpt lat="39.998801" lon="15.412516">
        <ele>40.612</ele>
        <time>2021-08-02T13:31:08Z</time>
      </trkpt>
      <trkpt lat="39.998855" lon="15.412226">
        <ele>40.075</ele>
        <time>2021-08-02T13:31:35Z</time>
      </trkpt>
      <trkpt lat="39.998714" lon="15.411948">
        <ele>39.248</ele>
        <time>2021-08-02T13:31:57Z</time>
      </trkpt>
      <trkpt lat="39.998729" lon="15.410744">
        <ele>50.661</ele>
        <time>2021-08-02T13:33:26Z</time>
      </trkpt>
      <trkpt lat="39.998522" lon="15.410326">
        <ele>51.617</ele>
        <time>2021-08-02T13:34:05Z</time>
      </trkpt>
      <trkpt lat="39.998491" lon="15.410004">
        <ele>55.008</ele>
        <time>2021-08-02T13:34:29Z</time>
      </trkpt>
      <trkpt lat="39.998280" lon="15.409851">
        <ele>57.661</ele>
        <time>2021-08-02T13:34:55Z</time>
      </trkpt>
      <trkpt lat="39.998204" lon="15.409536">
        <ele>62.123</ele>
        <time>2021-08-02T13:35:19Z</time>
      </trkpt>
      <trkpt lat="39.998247" lon="15.408861">
        <ele>57.432</ele>
        <time>2021-08-02T13:36:34Z</time>
      </trkpt>
      <trkpt lat="39.998095" lon="15.408423">
        <ele>42.157</ele>
        <time>2021-08-02T13:37:26Z</time>
      </trkpt>
      <trkpt lat="39.998312" lon="15.408495">
        <ele>47.399</ele>
        <time>2021-08-02T13:39:42Z</time>
      </trkpt>
      <trkpt lat="39.998386" lon="15.408269">
        <ele>41.216</ele>
        <time>2021-08-02T13:40:00Z</time>
      </trkpt>
      <trkpt lat="39.998712" lon="15.408011">
        <ele>32.635</ele>
        <time>2021-08-02T13:40:42Z</time>
      </trkpt>
      <trkpt lat="39.998615" lon="15.407895">
        <ele>27.318</ele>
        <time>2021-08-02T13:41:09Z</time>
      </trkpt>
      <trkpt lat="39.998758" lon="15.407767">
        <ele>23.913</ele>
        <time>2021-08-02T13:41:45Z</time>
      </trkpt>
      <trkpt lat="39.998790" lon="15.407245">
        <ele>17.643</ele>
        <time>2021-08-02T13:42:29Z</time>
      </trkpt>
      <trkpt lat="39.998722" lon="15.407201">
        <ele>16.607</ele>
        <time>2021-08-02T13:42:38Z</time>
      </trkpt>
      <trkpt lat="39.998616" lon="15.407337">
        <ele>15.808</ele>
        <time>2021-08-02T13:43:13Z</time>
      </trkpt>
      <trkpt lat="39.998348" lon="15.407224">
        <ele>16.328</ele>
        <time>2021-08-02T13:44:25Z</time>
      </trkpt>
      <trkpt lat="39.998133" lon="15.407404">
        <ele>15.340</ele>
        <time>2021-08-02T13:45:06Z</time>
      </trkpt>
      <trkpt lat="39.997901" lon="15.407396">
        <ele>17.849</ele>
        <time>2021-08-02T13:45:36Z</time>
      </trkpt>
      <trkpt lat="39.997599" lon="15.407890">
        <ele>18.164</ele>
        <time>2021-08-02T13:46:33Z</time>
      </trkpt>
      <trkpt lat="39.997463" lon="15.407959">
        <ele>13.066</ele>
        <time>2021-08-02T13:47:15Z</time>
      </trkpt>
      <trkpt lat="39.997280" lon="15.407876">
        <ele>6.563</ele>
        <time>2021-08-02T13:47:32Z</time>
      </trkpt>
      <trkpt lat="39.997160" lon="15.407677">
        <ele>5.022</ele>
        <time>2021-08-02T13:47:53Z</time>
      </trkpt>
      <trkpt lat="39.997339" lon="15.407444">
        <ele>4.365</ele>
        <time>2021-08-02T15:32:34Z</time>
      </trkpt>
      <trkpt lat="39.997266" lon="15.407859">
        <ele>15.923</ele>
        <time>2021-08-02T15:46:15Z</time>
      </trkpt>
      <trkpt lat="39.997539" lon="15.407963">
        <ele>16.883</ele>
        <time>2021-08-02T15:46:57Z</time>
      </trkpt>
      <trkpt lat="39.997874" lon="15.407450">
        <ele>16.511</ele>
        <time>2021-08-02T15:47:44Z</time>
      </trkpt>
      <trkpt lat="39.998053" lon="15.407472">
        <ele>12.608</ele>
        <time>2021-08-02T15:48:15Z</time>
      </trkpt>
      <trkpt lat="39.998102" lon="15.407300">
        <ele>12.049</ele>
        <time>2021-08-02T15:48:31Z</time>
      </trkpt>
      <trkpt lat="39.998361" lon="15.407223">
        <ele>16.151</ele>
        <time>2021-08-02T15:49:07Z</time>
      </trkpt>
      <trkpt lat="39.998331" lon="15.407048">
        <ele>17.980</ele>
        <time>2021-08-02T15:49:34Z</time>
      </trkpt>
      <trkpt lat="39.998516" lon="15.406985">
        <ele>24.815</ele>
        <time>2021-08-02T15:50:20Z</time>
      </trkpt>
      <trkpt lat="39.998337" lon="15.406882">
        <ele>31.817</ele>
        <time>2021-08-02T15:51:01Z</time>
      </trkpt>
      <trkpt lat="39.998439" lon="15.406728">
        <ele>33.664</ele>
        <time>2021-08-02T15:52:37Z</time>
      </trkpt>
      <trkpt lat="39.997771" lon="15.406820">
        <ele>44.383</ele>
        <time>2021-08-02T15:53:57Z</time>
      </trkpt>
      <trkpt lat="39.997721" lon="15.406742">
        <ele>45.326</ele>
        <time>2021-08-02T15:54:16Z</time>
      </trkpt>
      <trkpt lat="39.997871" lon="15.406588">
        <ele>54.242</ele>
        <time>2021-08-02T15:55:40Z</time>
      </trkpt>
      <trkpt lat="39.997941" lon="15.406115">
        <ele>63.222</ele>
        <time>2021-08-02T15:56:39Z</time>
      </trkpt>
      <trkpt lat="39.998124" lon="15.406259">
        <ele>68.114</ele>
        <time>2021-08-02T15:57:08Z</time>
      </trkpt>
      <trkpt lat="39.998353" lon="15.406147">
        <ele>72.908</ele>
        <time>2021-08-02T15:57:37Z</time>
      </trkpt>
      <trkpt lat="39.998705" lon="15.405555">
        <ele>82.471</ele>
        <time>2021-08-02T15:58:47Z</time>
      </trkpt>
      <trkpt lat="39.998849" lon="15.404628">
        <ele>88.523</ele>
        <time>2021-08-02T15:59:57Z</time>
      </trkpt>
      <trkpt lat="39.998843" lon="15.403872">
        <ele>97.632</ele>
        <time>2021-08-02T16:01:00Z</time>
      </trkpt>
      <trkpt lat="39.999045" lon="15.403248">
        <ele>100.967</ele>
        <time>2021-08-02T16:02:07Z</time>
      </trkpt>
      <trkpt lat="39.999045" lon="15.402859">
        <ele>103.519</ele>
        <time>2021-08-02T16:02:39Z</time>
      </trkpt>
      <trkpt lat="39.999553" lon="15.401734">
        <ele>114.786</ele>
        <time>2021-08-02T16:04:44Z</time>
      </trkpt>
      <trkpt lat="39.999702" lon="15.399803">
        <ele>137.655</ele>
        <time>2021-08-02T16:07:39Z</time>
      </trkpt>
      <trkpt lat="40.000215" lon="15.399243">
        <ele>143.578</ele>
        <time>2021-08-02T16:08:49Z</time>
      </trkpt>
      <trkpt lat="40.000455" lon="15.399188">
        <ele>143.869</ele>
        <time>2021-08-02T16:09:11Z</time>
      </trkpt>
      <trkpt lat="40.000723" lon="15.399346">
        <ele>143.804</ele>
        <time>2021-08-02T16:09:40Z</time>
      </trkpt>
      <trkpt lat="40.000862" lon="15.399149">
        <ele>142.024</ele>
        <time>2021-08-02T16:12:31Z</time>
      </trkpt>
      <trkpt lat="40.000859" lon="15.399273">
        <ele>140.208</ele>
        <time>2021-08-02T16:12:49Z</time>
      </trkpt>
      <trkpt lat="40.001476" lon="15.397280">
        <ele>145.093</ele>
        <time>2021-08-02T16:15:55Z</time>
      </trkpt>
      <trkpt lat="40.001694" lon="15.396949">
        <ele>145.765</ele>
        <time>2021-08-02T16:16:20Z</time>
      </trkpt>
      <trkpt lat="40.001672" lon="15.396630">
        <ele>148.314</ele>
        <time>2021-08-02T16:16:38Z</time>
      </trkpt>
      <trkpt lat="40.001180" lon="15.396147">
        <ele>133.619</ele>
        <time>2021-08-02T16:17:37Z</time>
      </trkpt>
      <trkpt lat="40.000900" lon="15.395682">
        <ele>127.011</ele>
        <time>2021-08-02T16:18:15Z</time>
      </trkpt>
      <trkpt lat="40.000737" lon="15.395551">
        <ele>126.618</ele>
        <time>2021-08-02T16:18:32Z</time>
      </trkpt>
      <trkpt lat="40.000376" lon="15.395528">
        <ele>125.447</ele>
        <time>2021-08-02T16:18:52Z</time>
      </trkpt>
      <trkpt lat="39.999692" lon="15.395256">
        <ele>116.880</ele>
        <time>2021-08-02T16:19:54Z</time>
      </trkpt>
      <trkpt lat="39.999632" lon="15.395031">
        <ele>109.446</ele>
        <time>2021-08-02T16:20:18Z</time>
      </trkpt>
      <trkpt lat="39.998992" lon="15.394224">
        <ele>107.688</ele>
        <time>2021-08-02T16:21:29Z</time>
      </trkpt>
      <trkpt lat="39.998916" lon="15.393868">
        <ele>107.216</ele>
        <time>2021-08-02T16:22:20Z</time>
      </trkpt>
      <trkpt lat="39.999368" lon="15.393264">
        <ele>110.908</ele>
        <time>2021-08-02T16:23:50Z</time>
      </trkpt>
      <trkpt lat="39.999599" lon="15.392587">
        <ele>113.221</ele>
        <time>2021-08-02T16:24:38Z</time>
      </trkpt>
      <trkpt lat="40.000063" lon="15.391862">
        <ele>113.273</ele>
        <time>2021-08-02T16:25:40Z</time>
      </trkpt>
      <trkpt lat="40.000437" lon="15.390858">
        <ele>112.922</ele>
        <time>2021-08-02T16:26:46Z</time>
      </trkpt>
      <trkpt lat="40.000214" lon="15.390702">
        <ele>112.947</ele>
        <time>2021-08-02T16:27:06Z</time>
      </trkpt>
      <trkpt lat="40.000425" lon="15.390564">
        <ele>112.939</ele>
        <time>2021-08-02T16:27:32Z</time>
      </trkpt>
      <trkpt lat="40.000763" lon="15.390049">
        <ele>112.956</ele>
        <time>2021-08-02T16:28:26Z</time>
      </trkpt>
      <trkpt lat="40.000756" lon="15.389867">
        <ele>112.935</ele>
        <time>2021-08-02T16:28:59Z</time>
      </trkpt>
      <trkpt lat="40.000487" lon="15.389532">
        <ele>112.868</ele>
        <time>2021-08-02T16:30:01Z</time>
      </trkpt>
      <trkpt lat="40.000272" lon="15.388998">
        <ele>112.842</ele>
        <time>2021-08-02T16:31:32Z</time>
      </trkpt>
      <trkpt lat="40.000083" lon="15.388916">
        <ele>112.622</ele>
        <time>2021-08-02T16:32:05Z</time>
      </trkpt>
      <trkpt lat="39.999975" lon="15.388129">
        <ele>112.414</ele>
        <time>2021-08-02T16:33:54Z</time>
      </trkpt>
      <trkpt lat="40.000039" lon="15.387269">
        <ele>112.408</ele>
        <time>2021-08-02T16:35:16Z</time>
      </trkpt>
      <trkpt lat="39.999712" lon="15.386811">
        <ele>112.311</ele>
        <time>2021-08-02T16:36:17Z</time>
      </trkpt>
      <trkpt lat="39.999816" lon="15.386281">
        <ele>112.373</ele>
        <time>2021-08-02T16:37:44Z</time>
      </trkpt>
      <trkpt lat="40.000004" lon="15.385950">
        <ele>112.542</ele>
        <time>2021-08-02T16:38:12Z</time>
      </trkpt>
      <trkpt lat="40.000508" lon="15.385443">
        <ele>112.777</ele>
        <time>2021-08-02T16:39:02Z</time>
      </trkpt>
      <trkpt lat="40.001103" lon="15.384438">
        <ele>112.189</ele>
        <time>2021-08-02T16:40:24Z</time>
      </trkpt>
      <trkpt lat="40.001292" lon="15.383418">
        <ele>112.156</ele>
        <time>2021-08-02T16:41:22Z</time>
      </trkpt>
      <trkpt lat="40.001050" lon="15.382594">
        <ele>112.325</ele>
        <time>2021-08-02T16:42:21Z</time>
      </trkpt>
      <trkpt lat="40.000778" lon="15.382175">
        <ele>112.598</ele>
        <time>2021-08-02T16:42:57Z</time>
      </trkpt>
      <trkpt lat="40.000807" lon="15.381663">
        <ele>112.629</ele>
        <time>2021-08-02T16:43:34Z</time>
      </trkpt>
      <trkpt lat="40.000712" lon="15.381391">
        <ele>112.600</ele>
        <time>2021-08-02T16:43:57Z</time>
      </trkpt>
      <trkpt lat="40.001020" lon="15.381009">
        <ele>112.620</ele>
        <time>2021-08-02T16:44:38Z</time>
      </trkpt>
      <trkpt lat="40.001088" lon="15.380134">
        <ele>112.808</ele>
        <time>2021-08-02T16:46:12Z</time>
      </trkpt>
      <trkpt lat="40.001233" lon="15.379886">
        <ele>112.849</ele>
        <time>2021-08-02T16:46:31Z</time>
      </trkpt>
      <trkpt lat="40.001817" lon="15.379254">
        <ele>112.881</ele>
        <time>2021-08-02T16:47:40Z</time>
      </trkpt>
      <trkpt lat="40.002240" lon="15.379234">
        <ele>112.760</ele>
        <time>2021-08-02T16:48:19Z</time>
      </trkpt>
      <trkpt lat="40.002265" lon="15.378911">
        <ele>112.745</ele>
        <time>2021-08-02T16:48:43Z</time>
      </trkpt>
      <trkpt lat="40.001900" lon="15.378290">
        <ele>112.887</ele>
        <time>2021-08-02T16:49:33Z</time>
      </trkpt>
    </trkseg>
  </trk></gpx>