<?xml version="1.0" encoding="UTF-8"?>
<gpx creator="Wikiloc - https://www.wikiloc.com" version="1.1" xmlns="http://www.topografix.com/GPX/1/1" xmlns:xsi="http://www.w3.org/2001/XMLSchema-instance" xsi:schemaLocation="http://www.topografix.com/GPX/1/1 http://www.topografix.com/GPX/1/1/gpx.xsd">
  <metadata>
    <name>Wikiloc - Palinuro Sentiero della primula</name>
    <link href="https://www.wikiloc.com/hiking-trails/palinuro-sentiero-della-primula-22900080">
      <text>Palinuro Sentiero della primula - Wikiloc on Wikiloc</text>
    </link>
    <time>2018-02-25T15:38:36Z</time>
  </metadata>
  <trk>
    <name>Palinuro Sentiero della primula - Wikiloc</name>
    <cmt></cmt>
    <desc></desc>
    <trkseg>
      <trkpt lat="40.053586" lon="15.282884">
        <ele>5.518</ele>
        <time>2018-02-25T09:22:17Z</time>
      </trkpt>
      <trkpt lat="40.052620" lon="15.282892">
        <ele>2.098</ele>
        <time>2018-02-25T09:24:29Z</time>
      </trkpt>
      <trkpt lat="40.052210" lon="15.282750">
        <ele>2.117</ele>
        <time>2018-02-25T09:25:42Z</time>
      </trkpt>
      <trkpt lat="40.051903" lon="15.282933">
        <ele>1.708</ele>
        <time>2018-02-25T09:26:54Z</time>
      </trkpt>
      <trkpt lat="40.051573" lon="15.282888">
        <ele>-0.453</ele>
        <time>2018-02-25T09:27:56Z</time>
      </trkpt>
      <trkpt lat="40.051259" lon="15.283028">
        <ele>2.293</ele>
        <time>2018-02-25T09:28:47Z</time>
      </trkpt>
      <trkpt lat="40.050791" lon="15.283099">
        <ele>2.480</ele>
        <time>2018-02-25T09:31:42Z</time>
      </trkpt>
      <trkpt lat="40.050616" lon="15.283002">
        <ele>2.881</ele>
        <time>2018-02-25T09:32:05Z</time>
      </trkpt>
      <trkpt lat="40.050124" lon="15.283208">
        <ele>4.281</ele>
        <time>2018-02-25T09:33:33Z</time>
      </trkpt>
      <trkpt lat="40.049940" lon="15.283160">
        <ele>4.271</ele>
        <time>2018-02-25T09:33:52Z</time>
      </trkpt>
      <trkpt lat="40.047324" lon="15.284116">
        <ele>3.159</ele>
        <time>2018-02-25T09:39:58Z</time>
      </trkpt>
      <trkpt lat="40.047116" lon="15.284260">
        <ele>4.371</ele>
        <time>2018-02-25T09:40:25Z</time>
      </trkpt>
      <trkpt lat="40.047076" lon="15.284417">
        <ele>1.319</ele>
        <time>2018-02-25T09:40:41Z</time>
      </trkpt>
      <trkpt lat="40.046960" lon="15.284342">
        <ele>5.609</ele>
        <time>2018-02-25T09:43:08Z</time>
      </trkpt>
      <trkpt lat="40.046740" lon="15.284449">
        <ele>3.319</ele>
        <time>2018-02-25T09:43:36Z</time>
      </trkpt>
      <trkpt lat="40.046490" lon="15.284332">
        <ele>5.308</ele>
        <time>2018-02-25T09:44:01Z</time>
      </trkpt>
      <trkpt lat="40.045456" lon="15.284691">
        <ele>6.143</ele>
        <time>2018-02-25T09:45:49Z</time>
      </trkpt>
      <trkpt lat="40.044121" lon="15.284901">
        <ele>8.383</ele>
        <time>2018-02-25T09:48:12Z</time>
      </trkpt>
      <trkpt lat="40.043207" lon="15.285385">
        <ele>7.690</ele>
        <time>2018-02-25T09:50:03Z</time>
      </trkpt>
      <trkpt lat="40.041491" lon="15.285460">
        <ele>3.291</ele>
        <time>2018-02-25T09:53:18Z</time>
      </trkpt>
      <trkpt lat="40.041077" lon="15.285645">
        <ele>2.851</ele>
        <time>2018-02-25T09:54:10Z</time>
      </trkpt>
      <trkpt lat="40.040666" lon="15.285501">
        <ele>0.541</ele>
        <time>2018-02-25T09:55:11Z</time>
      </trkpt>
      <trkpt lat="40.040074" lon="15.285585">
        <ele>7.429</ele>
        <time>2018-02-25T09:56:25Z</time>
      </trkpt>
      <trkpt lat="40.039645" lon="15.285517">
        <ele>1.361</ele>
        <time>2018-02-25T09:57:27Z</time>
      </trkpt>
      <trkpt lat="40.039382" lon="15.285654">
        <ele>2.527</ele>
        <time>2018-02-25T09:58:02Z</time>
      </trkpt>
      <trkpt lat="40.038398" lon="15.285480">
        <ele>5.168</ele>
        <time>2018-02-25T10:00:08Z</time>
      </trkpt>
      <trkpt lat="40.038331" lon="15.285585">
        <ele>0.514</ele>
        <time>2018-02-25T10:01:48Z</time>
      </trkpt>
      <trkpt lat="40.037855" lon="15.285663">
        <ele>-3.208</ele>
        <time>2018-02-25T10:03:12Z</time>
      </trkpt>
      <trkpt lat="40.037715" lon="15.285510">
        <ele>0.834</ele>
        <time>2018-02-25T10:03:47Z</time>
      </trkpt>
      <trkpt lat="40.037439" lon="15.285494">
        <ele>2.354</ele>
        <time>2018-02-25T10:04:24Z</time>
      </trkpt>
      <trkpt lat="40.037198" lon="15.285336">
        <ele>2.441</ele>
        <time>2018-02-25T10:05:14Z</time>
      </trkpt>
      <trkpt lat="40.036833" lon="15.285403">
        <ele>2.162</ele>
        <time>2018-02-25T10:06:58Z</time>
      </trkpt>
      <trkpt lat="40.036681" lon="15.285259">
        <ele>0.672</ele>
        <time>2018-02-25T10:07:46Z</time>
      </trkpt>
      <trkpt lat="40.036265" lon="15.285235">
        <ele>2.192</ele>
        <time>2018-02-25T10:09:40Z</time>
      </trkpt>
      <trkpt lat="40.035894" lon="15.285591">
        <ele>4.070</ele>
        <time>2018-02-25T10:11:11Z</time>
      </trkpt>
      <trkpt lat="40.035887" lon="15.285506">
        <ele>5.652</ele>
        <time>2018-02-25T10:12:17Z</time>
      </trkpt>
      <trkpt lat="40.035522" lon="15.285619">
        <ele>11.024</ele>
        <time>2018-02-25T10:13:11Z</time>
      </trkpt>
      <trkpt lat="40.035505" lon="15.285493">
        <ele>10.404</ele>
        <time>2018-02-25T10:13:40Z</time>
      </trkpt>
      <trkpt lat="40.035198" lon="15.285507">
        <ele>14.214</ele>
        <time>2018-02-25T10:14:16Z</time>
      </trkpt>
      <trkpt lat="40.034996" lon="15.285844">
        <ele>9.508</ele>
        <time>2018-02-25T10:15:13Z</time>
      </trkpt>
      <trkpt lat="40.034709" lon="15.285936">
        <ele>17.754</ele>
        <time>2018-02-25T10:15:38Z</time>
      </trkpt>
      <trkpt lat="40.034323" lon="15.285572">
        <ele>20.234</ele>
        <time>2018-02-25T10:18:29Z</time>
      </trkpt>
      <trkpt lat="40.034356" lon="15.285707">
        <ele>26.851</ele>
        <time>2018-02-25T10:26:20Z</time>
      </trkpt>
      <trkpt lat="40.034291" lon="15.285412">
        <ele>14.462</ele>
        <time>2018-02-25T10:27:56Z</time>
      </trkpt>
      <trkpt lat="40.034262" lon="15.285517">
        <ele>20.362</ele>
        <time>2018-02-25T10:28:32Z</time>
      </trkpt>
      <trkpt lat="40.034090" lon="15.285245">
        <ele>13.072</ele>
        <time>2018-02-25T10:30:25Z</time>
      </trkpt>
      <trkpt lat="40.033754" lon="15.285094">
        <ele>22.270</ele>
        <time>2018-02-25T10:31:11Z</time>
      </trkpt>
      <trkpt lat="40.033701" lon="15.284953">
        <ele>12.972</ele>
        <time>2018-02-25T10:32:15Z</time>
      </trkpt>
      <trkpt lat="40.033545" lon="15.284962">
        <ele>17.755</ele>
        <time>2018-02-25T10:32:33Z</time>
      </trkpt>
      <trkpt lat="40.033479" lon="15.284747">
        <ele>8.907</ele>
        <time>2018-02-25T10:33:23Z</time>
      </trkpt>
      <trkpt lat="40.032917" lon="15.284779">
        <ele>24.417</ele>
        <time>2018-02-25T10:36:09Z</time>
      </trkpt>
      <trkpt lat="40.032834" lon="15.284433">
        <ele>23.208</ele>
        <time>2018-02-25T10:39:16Z</time>
      </trkpt>
      <trkpt lat="40.032505" lon="15.284319">
        <ele>29.867</ele>
        <time>2018-02-25T10:40:32Z</time>
      </trkpt>
      <trkpt lat="40.032682" lon="15.283729">
        <ele>29.367</ele>
        <time>2018-02-25T10:41:19Z</time>
      </trkpt>
      <trkpt lat="40.032792" lon="15.283712">
        <ele>21.844</ele>
        <time>2018-02-25T10:41:25Z</time>
      </trkpt>
      <trkpt lat="40.032659" lon="15.282905">
        <ele>27.495</ele>
        <time>2018-02-25T10:42:29Z</time>
      </trkpt>
      <trkpt lat="40.031587" lon="15.281917">
        <ele>34.145</ele>
        <time>2018-02-25T10:46:06Z</time>
      </trkpt>
      <trkpt lat="40.031235" lon="15.281833">
        <ele>26.965</ele>
        <time>2018-02-25T10:46:52Z</time>
      </trkpt>
      <trkpt lat="40.030183" lon="15.281082">
        <ele>14.993</ele>
        <time>2018-02-25T10:48:39Z</time>
      </trkpt>
      <trkpt lat="40.030097" lon="15.280851">
        <ele>22.115</ele>
        <time>2018-02-25T10:50:12Z</time>
      </trkpt>
      <trkpt lat="40.030261" lon="15.280919">
        <ele>11.638</ele>
        <time>2018-02-25T10:51:11Z</time>
      </trkpt>
      <trkpt lat="40.030343" lon="15.280646">
        <ele>8.870</ele>
        <time>2018-02-25T10:52:41Z</time>
      </trkpt>
      <trkpt lat="40.030004" lon="15.280224">
        <ele>-1.517</ele>
        <time>2018-02-25T10:55:42Z</time>
      </trkpt>
      <trkpt lat="40.030072" lon="15.280146">
        <ele>3.808</ele>
        <time>2018-02-25T10:57:17Z</time>
      </trkpt>
      <trkpt lat="40.029710" lon="15.279427">
        <ele>-2.795</ele>
        <time>2018-02-25T10:58:47Z</time>
      </trkpt>
      <trkpt lat="40.029782" lon="15.279254">
        <ele>2.785</ele>
        <time>2018-02-25T10:59:04Z</time>
      </trkpt>
      <trkpt lat="40.029499" lon="15.278134">
        <ele>0.962</ele>
        <time>2018-02-25T11:00:53Z</time>
      </trkpt>
      <trkpt lat="40.029549" lon="15.277841">
        <ele>0.283</ele>
        <time>2018-02-25T11:01:35Z</time>
      </trkpt>
      <trkpt lat="40.029350" lon="15.277495">
        <ele>4.113</ele>
        <time>2018-02-25T11:02:34Z</time>
      </trkpt>
      <trkpt lat="40.029474" lon="15.276728">
        <ele>1.513</ele>
        <time>2018-02-25T11:04:43Z</time>
      </trkpt>
      <trkpt lat="40.029361" lon="15.276625">
        <ele>-0.821</ele>
        <time>2018-02-25T11:04:59Z</time>
      </trkpt>
      <trkpt lat="40.029409" lon="15.276160">
        <ele>0.183</ele>
        <time>2018-02-25T11:05:55Z</time>
      </trkpt>
      <trkpt lat="40.029281" lon="15.275843">
        <ele>-0.277</ele>
        <time>2018-02-25T11:06:35Z</time>
      </trkpt>
      <trkpt lat="40.029104" lon="15.275806">
        <ele>-7.961</ele>
        <time>2018-02-25T11:07:05Z</time>
      </trkpt>
      <trkpt lat="40.029706" lon="15.275045">
        <ele>7.327</ele>
        <time>2018-02-25T11:09:40Z</time>
      </trkpt>
      <trkpt lat="40.029995" lon="15.275110">
        <ele>12.208</ele>
        <time>2018-02-25T11:10:39Z</time>
      </trkpt>
      <trkpt lat="40.030821" lon="15.274535">
        <ele>22.599</ele>
        <time>2018-02-25T11:12:18Z</time>
      </trkpt>
      <trkpt lat="40.031849" lon="15.273521">
        <ele>29.919</ele>
        <time>2018-02-25T11:15:24Z</time>
      </trkpt>
      <trkpt lat="40.032053" lon="15.272923">
        <ele>32.546</ele>
        <time>2018-02-25T11:17:26Z</time>
      </trkpt>
      <trkpt lat="40.032216" lon="15.272837">
        <ele>21.747</ele>
        <time>2018-02-25T11:21:01Z</time>
      </trkpt>
      <trkpt lat="40.032052" lon="15.272925">
        <ele>32.867</ele>
        <time>2018-02-25T11:23:48Z</time>
      </trkpt>
      <trkpt lat="40.031744" lon="15.273522">
        <ele>35.667</ele>
        <time>2018-02-25T11:25:23Z</time>
      </trkpt>
      <trkpt lat="40.031780" lon="15.273058">
        <ele>40.955</ele>
        <time>2018-02-25T11:27:12Z</time>
      </trkpt>
      <trkpt lat="40.031640" lon="15.273039">
        <ele>43.977</ele>
        <time>2018-02-25T11:27:32Z</time>
      </trkpt>
      <trkpt lat="40.031717" lon="15.272975">
        <ele>48.725</ele>
        <time>2018-02-25T11:27:51Z</time>
      </trkpt>
      <trkpt lat="40.031605" lon="15.272839">
        <ele>53.126</ele>
        <time>2018-02-25T11:28:55Z</time>
      </trkpt>
      <trkpt lat="40.031500" lon="15.272805">
        <ele>55.908</ele>
        <time>2018-02-25T11:29:24Z</time>
      </trkpt>
      <trkpt lat="40.031465" lon="15.272908">
        <ele>59.608</ele>
        <time>2018-02-25T11:29:57Z</time>
      </trkpt>
      <trkpt lat="40.031418" lon="15.272783">
        <ele>67.494</ele>
        <time>2018-02-25T11:30:34Z</time>
      </trkpt>
      <trkpt lat="40.030912" lon="15.272594">
        <ele>67.914</ele>
        <time>2018-02-25T11:33:11Z</time>
      </trkpt>
      <trkpt lat="40.030662" lon="15.272872">
        <ele>84.331</ele>
        <time>2018-02-25T11:34:18Z</time>
      </trkpt>
      <trkpt lat="40.030442" lon="15.272925">
        <ele>94.672</ele>
        <time>2018-02-25T11:38:18Z</time>
      </trkpt>
      <trkpt lat="40.030304" lon="15.272882">
        <ele>98.322</ele>
        <time>2018-02-25T11:38:48Z</time>
      </trkpt>
      <trkpt lat="40.030408" lon="15.272880">
        <ele>104.442</ele>
        <time>2018-02-25T11:40:13Z</time>
      </trkpt>
      <trkpt lat="40.030052" lon="15.272495">
        <ele>103.060</ele>
        <time>2018-02-25T11:42:41Z</time>
      </trkpt>
      <trkpt lat="40.029906" lon="15.272657">
        <ele>108.482</ele>
        <time>2018-02-25T11:43:36Z</time>
      </trkpt>
      <trkpt lat="40.029717" lon="15.272649">
        <ele>109.813</ele>
        <time>2018-02-25T11:44:09Z</time>
      </trkpt>
      <trkpt lat="40.029537" lon="15.271015">
        <ele>106.443</ele>
        <time>2018-02-25T11:47:58Z</time>
      </trkpt>
      <trkpt lat="40.029035" lon="15.270667">
        <ele>103.207</ele>
        <time>2018-02-25T11:50:51Z</time>
      </trkpt>
      <trkpt lat="40.027983" lon="15.272190">
        <ele>122.408</ele>
        <time>2018-02-25T11:56:16Z</time>
      </trkpt>
      <trkpt lat="40.027974" lon="15.272457">
        <ele>124.983</ele>
        <time>2018-02-25T11:56:59Z</time>
      </trkpt>
      <trkpt lat="40.028100" lon="15.272686">
        <ele>128.323</ele>
        <time>2018-02-25T11:57:52Z</time>
      </trkpt>
      <trkpt lat="40.028071" lon="15.272873">
        <ele>127.610</ele>
        <time>2018-02-25T11:58:09Z</time>
      </trkpt>
      <trkpt lat="40.027895" lon="15.272994">
        <ele>129.491</ele>
        <time>2018-02-25T11:58:30Z</time>
      </trkpt>
      <trkpt lat="40.027877" lon="15.273218">
        <ele>132.421</ele>
        <time>2018-02-25T11:59:04Z</time>
      </trkpt>
      <trkpt lat="40.027322" lon="15.273580">
        <ele>138.811</ele>
        <time>2018-02-25T12:01:07Z</time>
      </trkpt>
      <trkpt lat="40.027110" lon="15.274172">
        <ele>142.059</ele>
        <time>2018-02-25T12:02:47Z</time>
      </trkpt>
      <trkpt lat="40.026460" lon="15.274963">
        <ele>158.941</ele>
        <time>2018-02-25T12:05:40Z</time>
      </trkpt>
      <trkpt lat="40.025780" lon="15.275538">
        <ele>171.015</ele>
        <time>2018-02-25T12:07:28Z</time>
      </trkpt>
      <trkpt lat="40.025318" lon="15.276473">
        <ele>174.965</ele>
        <time>2018-02-25T12:09:18Z</time>
      </trkpt>
      <trkpt lat="40.025132" lon="15.276451">
        <ele>175.311</ele>
        <time>2018-02-25T12:09:35Z</time>
      </trkpt>
      <trkpt lat="40.025023" lon="15.276789">
        <ele>179.708</ele>
        <time>2018-02-25T12:15:58Z</time>
      </trkpt>
      <trkpt lat="40.025138" lon="15.276883">
        <ele>182.953</ele>
        <time>2018-02-25T12:16:21Z</time>
      </trkpt>
      <trkpt lat="40.025041" lon="15.276675">
        <ele>179.013</ele>
        <time>2018-02-25T12:17:01Z</time>
      </trkpt>
      <trkpt lat="40.024881" lon="15.274126">
        <ele>201.230</ele>
        <time>2018-02-25T12:20:34Z</time>
      </trkpt>
      <trkpt lat="40.025005" lon="15.274826">
        <ele>196.261</ele>
        <time>2018-02-25T12:21:55Z</time>
      </trkpt>
      <trkpt lat="40.025011" lon="15.277247">
        <ele>168.331</ele>
        <time>2018-02-25T12:24:49Z</time>
      </trkpt>
      <trkpt lat="40.025310" lon="15.278697">
        <ele>171.131</ele>
        <time>2018-02-25T12:26:42Z</time>
      </trkpt>
      <trkpt lat="40.025340" lon="15.279465">
        <ele>175.099</ele>
        <time>2018-02-25T12:27:48Z</time>
      </trkpt>
      <trkpt lat="40.025768" lon="15.281269">
        <ele>173.441</ele>
        <time>2018-02-25T12:30:17Z</time>
      </trkpt>
      <trkpt lat="40.026061" lon="15.281934">
        <ele>169.298</ele>
        <time>2018-02-25T12:31:05Z</time>
      </trkpt>
      <trkpt lat="40.026130" lon="15.282520">
        <ele>170.815</ele>
        <time>2018-02-25T12:31:38Z</time>
      </trkpt>
      <trkpt lat="40.026270" lon="15.282800">
        <ele>172.526</ele>
        <time>2018-02-25T12:32:02Z</time>
      </trkpt>
      <trkpt lat="40.026399" lon="15.283825">
        <ele>181.908</ele>
        <time>2018-02-25T12:33:39Z</time>
      </trkpt>
      <trkpt lat="40.026305" lon="15.283865">
        <ele>183.021</ele>
        <time>2018-02-25T12:34:22Z</time>
      </trkpt>
      <trkpt lat="40.026375" lon="15.283746">
        <ele>180.551</ele>
        <time>2018-02-25T12:34:26Z</time>
      </trkpt>
      <trkpt lat="40.026466" lon="15.283805">
        <ele>180.528</ele>
        <time>2018-02-25T12:34:34Z</time>
      </trkpt>
      <trkpt lat="40.026390" lon="15.283608">
        <ele>184.949</ele>
        <time>2018-02-25T12:37:08Z</time>
      </trkpt>
      <trkpt lat="40.026293" lon="15.283652">
        <ele>183.789</ele>
        <time>2018-02-25T12:37:16Z</time>
      </trkpt>
      <trkpt lat="40.026240" lon="15.284114">
        <ele>180.769</ele>
        <time>2018-02-25T12:37:54Z</time>
      </trkpt>
      <trkpt lat="40.025954" lon="15.284335">
        <ele>177.017</ele>
        <time>2018-02-25T12:38:38Z</time>
      </trkpt>
      <trkpt lat="40.025528" lon="15.284335">
        <ele>171.529</ele>
        <time>2018-02-25T12:39:24Z</time>
      </trkpt>
      <trkpt lat="40.025497" lon="15.284219">
        <ele>165.082</ele>
        <time>2018-02-25T12:42:31Z</time>
      </trkpt>
      <trkpt lat="40.025182" lon="15.284577">
        <ele>158.243</ele>
        <time>2018-02-25T12:43:31Z</time>
      </trkpt>
      <trkpt lat="40.024635" lon="15.284676">
        <ele>139.817</ele>
        <time>2018-02-25T12:44:56Z</time>
      </trkpt>
      <trkpt lat="40.024315" lon="15.284591">
        <ele>140.708</ele>
        <time>2018-02-25T12:46:38Z</time>
      </trkpt>
      <trkpt lat="40.024542" lon="15.284687">
        <ele>138.640</ele>
        <time>2018-02-25T12:48:07Z</time>
      </trkpt>
      <trkpt lat="40.024920" lon="15.284628">
        <ele>158.090</ele>
        <time>2018-02-25T12:49:01Z</time>
      </trkpt>
      <trkpt lat="40.025035" lon="15.284508">
        <ele>159.157</ele>
        <time>2018-02-25T12:49:22Z</time>
      </trkpt>
      <trkpt lat="40.025172" lon="15.284584">
        <ele>161.488</ele>
        <time>2018-02-25T12:49:41Z</time>
      </trkpt>
      <trkpt lat="40.025526" lon="15.284191">
        <ele>168.698</ele>
        <time>2018-02-25T12:50:42Z</time>
      </trkpt>
      <trkpt lat="40.025839" lon="15.284112">
        <ele>170.888</ele>
        <time>2018-02-25T12:51:24Z</time>
      </trkpt>
      <trkpt lat="40.026114" lon="15.283802">
        <ele>180.966</ele>
        <time>2018-02-25T12:52:30Z</time>
      </trkpt>
      <trkpt lat="40.026395" lon="15.283728">
        <ele>182.468</ele>
        <time>2018-02-25T12:53:06Z</time>
      </trkpt>
      <trkpt lat="40.026341" lon="15.283589">
        <ele>182.665</ele>
        <time>2018-02-25T12:53:33Z</time>
      </trkpt>
      <trkpt lat="40.026537" lon="15.283814">
        <ele>181.668</ele>
        <time>2018-02-25T12:54:01Z</time>
      </trkpt>
      <trkpt lat="40.026443" lon="15.283704">
        <ele>182.114</ele>
        <time>2018-02-25T12:55:23Z</time>
      </trkpt>
      <trkpt lat="40.026534" lon="15.283648">
        <ele>181.908</ele>
        <time>2018-02-25T12:55:37Z</time>
      </trkpt>
      <trkpt lat="40.026492" lon="15.283706">
        <ele>181.178</ele>
        <time>2018-02-25T12:57:17Z</time>
      </trkpt>
      <trkpt lat="40.026328" lon="15.283564">
        <ele>181.538</ele>
        <time>2018-02-25T12:58:33Z</time>
      </trkpt>
      <trkpt lat="40.026567" lon="15.283869">
        <ele>180.175</ele>
        <time>2018-02-25T12:59:18Z</time>
      </trkpt>
      <trkpt lat="40.026467" lon="15.283722">
        <ele>181.116</ele>
        <time>2018-02-25T12:59:27Z</time>
      </trkpt>
      <trkpt lat="40.026412" lon="15.283822">
        <ele>182.996</ele>
        <time>2018-02-25T12:59:51Z</time>
      </trkpt>
      <trkpt lat="40.026474" lon="15.283715">
        <ele>179.966</ele>
        <time>2018-02-25T13:01:16Z</time>
      </trkpt>
      <trkpt lat="40.026388" lon="15.283787">
        <ele>181.394</ele>
        <time>2018-02-25T13:01:44Z</time>
      </trkpt>
      <trkpt lat="40.026443" lon="15.283650">
        <ele>181.986</ele>
        <time>2018-02-25T13:01:58Z</time>
      </trkpt>
      <trkpt lat="40.026312" lon="15.283487">
        <ele>181.317</ele>
        <time>2018-02-25T13:02:06Z</time>
      </trkpt>
      <trkpt lat="40.026520" lon="15.283824">
        <ele>180.987</ele>
        <time>2018-02-25T13:03:10Z</time>
      </trkpt>
      <trkpt lat="40.026277" lon="15.283890">
        <ele>183.015</ele>
        <time>2018-02-25T13:03:34Z</time>
      </trkpt>
      <trkpt lat="40.026373" lon="15.283756">
        <ele>183.108</ele>
        <time>2018-02-25T13:03:40Z</time>
      </trkpt>
      <trkpt lat="40.026393" lon="15.283971">
        <ele>179.713</ele>
        <time>2018-02-25T13:05:03Z</time>
      </trkpt>
      <trkpt lat="40.026506" lon="15.283700">
        <ele>181.683</ele>
        <time>2018-02-25T13:05:06Z</time>
      </trkpt>
      <trkpt lat="40.026415" lon="15.283859">
        <ele>181.980</ele>
        <time>2018-02-25T13:06:01Z</time>
      </trkpt>
      <trkpt lat="40.026508" lon="15.283868">
        <ele>181.131</ele>
        <time>2018-02-25T13:06:31Z</time>
      </trkpt>
      <trkpt lat="40.026346" lon="15.283898">
        <ele>180.751</ele>
        <time>2018-02-25T13:08:25Z</time>
      </trkpt>
      <trkpt lat="40.026349" lon="15.283706">
        <ele>182.811</ele>
        <time>2018-02-25T13:09:17Z</time>
      </trkpt>
      <trkpt lat="40.026428" lon="15.283923">
        <ele>182.369</ele>
        <time>2018-02-25T13:09:30Z</time>
      </trkpt>
      <trkpt lat="40.026194" lon="15.283761">
        <ele>180.581</ele>
        <time>2018-02-25T13:09:43Z</time>
      </trkpt>
      <trkpt lat="40.026331" lon="15.283724">
        <ele>182.476</ele>
        <time>2018-02-25T13:11:34Z</time>
      </trkpt>
      <trkpt lat="40.026393" lon="15.283980">
        <ele>183.290</ele>
        <time>2018-02-25T13:11:58Z</time>
      </trkpt>
      <trkpt lat="40.026394" lon="15.283708">
        <ele>183.119</ele>
        <time>2018-02-25T13:21:55Z</time>
      </trkpt>
      <trkpt lat="40.026344" lon="15.283824">
        <ele>183.408</ele>
        <time>2018-02-25T13:22:07Z</time>
      </trkpt>
      <trkpt lat="40.026516" lon="15.283959">
        <ele>181.879</ele>
        <time>2018-02-25T13:23:50Z</time>
      </trkpt>
      <trkpt lat="40.026329" lon="15.283650">
        <ele>180.689</ele>
        <time>2018-02-25T13:24:07Z</time>
      </trkpt>
      <trkpt lat="40.026516" lon="15.283816">
        <ele>181.586</ele>
        <time>2018-02-25T13:26:32Z</time>
      </trkpt>
      <trkpt lat="40.026562" lon="15.283697">
        <ele>181.457</ele>
        <time>2018-02-25T13:26:41Z</time>
      </trkpt>
      <trkpt lat="40.026425" lon="15.283629">
        <ele>179.977</ele>
        <time>2018-02-25T13:26:52Z</time>
      </trkpt>
      <trkpt lat="40.026383" lon="15.283446">
        <ele>176.087</ele>
        <time>2018-02-25T13:27:10Z</time>
      </trkpt>
      <trkpt lat="40.026370" lon="15.283574">
        <ele>178.115</ele>
        <time>2018-02-25T13:27:19Z</time>
      </trkpt>
      <trkpt lat="40.026458" lon="15.283765">
        <ele>181.027</ele>
        <time>2018-02-25T13:27:30Z</time>
      </trkpt>
      <trkpt lat="40.026124" lon="15.282470">
        <ele>169.083</ele>
        <time>2018-02-25T13:28:44Z</time>
      </trkpt>
      <trkpt lat="40.026207" lon="15.282228">
        <ele>174.325</ele>
        <time>2018-02-25T13:29:49Z</time>
      </trkpt>
      <trkpt lat="40.026791" lon="15.283145">
        <ele>168.217</ele>
        <time>2018-02-25T13:32:46Z</time>
      </trkpt>
      <trkpt lat="40.027233" lon="15.284629">
        <ele>153.008</ele>
        <time>2018-02-25T13:34:46Z</time>
      </trkpt>
      <trkpt lat="40.027252" lon="15.285070">
        <ele>150.950</ele>
        <time>2018-02-25T13:35:16Z</time>
      </trkpt>
      <trkpt lat="40.027604" lon="15.286146">
        <ele>130.690</ele>
        <time>2018-02-25T13:36:37Z</time>
      </trkpt>
      <trkpt lat="40.027665" lon="15.286712">
        <ele>132.147</ele>
        <time>2018-02-25T13:37:14Z</time>
      </trkpt>
      <trkpt lat="40.028038" lon="15.287202">
        <ele>125.298</ele>
        <time>2018-02-25T13:38:00Z</time>
      </trkpt>
      <trkpt lat="40.027798" lon="15.290107">
        <ele>119.048</ele>
        <time>2018-02-25T13:41:52Z</time>
      </trkpt>
      <trkpt lat="40.027906" lon="15.290804">
        <ele>108.388</ele>
        <time>2018-02-25T13:42:50Z</time>
      </trkpt>
      <trkpt lat="40.028462" lon="15.291583">
        <ele>99.466</ele>
        <time>2018-02-25T13:44:29Z</time>
      </trkpt>
      <trkpt lat="40.028780" lon="15.291398">
        <ele>100.598</ele>
        <time>2018-02-25T13:46:56Z</time>
      </trkpt>
      <trkpt lat="40.029179" lon="15.291342">
        <ele>96.646</ele>
        <time>2018-02-25T13:47:35Z</time>
      </trkpt>
      <trkpt lat="40.029732" lon="15.292441">
        <ele>83.788</ele>
        <time>2018-02-25T13:49:45Z</time>
      </trkpt>
      <trkpt lat="40.029786" lon="15.292331">
        <ele>85.816</ele>
        <time>2018-02-25T13:50:05Z</time>
      </trkpt>
      <trkpt lat="40.030628" lon="15.292130">
        <ele>77.308</ele>
        <time>2018-02-25T13:51:23Z</time>
      </trkpt>
      <trkpt lat="40.031165" lon="15.291741">
        <ele>78.156</ele>
        <time>2018-02-25T13:52:26Z</time>
      </trkpt>
      <trkpt lat="40.031171" lon="15.292892">
        <ele>71.616</ele>
        <time>2018-02-25T13:53:59Z</time>
      </trkpt>
      <trkpt lat="40.031985" lon="15.293049">
        <ele>73.033</ele>
        <time>2018-02-25T13:55:48Z</time>
      </trkpt>
      <trkpt lat="40.032357" lon="15.292975">
        <ele>76.964</ele>
        <time>2018-02-25T13:56:42Z</time>
      </trkpt>
      <trkpt lat="40.032822" lon="15.293147">
        <ele>84.574</ele>
        <time>2018-02-25T13:57:34Z</time>
      </trkpt>
      <trkpt lat="40.032674" lon="15.294045">
        <ele>88.274</ele>
        <time>2018-02-25T13:59:59Z</time>
      </trkpt>
      <trkpt lat="40.033147" lon="15.293654">
        <ele>99.182</ele>
        <time>2018-02-25T14:03:52Z</time>
      </trkpt>
      <trkpt lat="40.033455" lon="15.294109">
        <ele>111.194</ele>
        <time>2018-02-25T14:05:05Z</time>
      </trkpt>
      <trkpt lat="40.033687" lon="15.294040">
        <ele>124.347</ele>
        <time>2018-02-25T14:06:24Z</time>
      </trkpt>
      <trkpt lat="40.033733" lon="15.294240">
        <ele>119.529</ele>
        <time>2018-02-25T14:07:20Z</time>
      </trkpt>
      <trkpt lat="40.034745" lon="15.294665">
        <ele>126.321</ele>
        <time>2018-02-25T14:11:17Z</time>
      </trkpt>
      <trkpt lat="40.035084" lon="15.295230">
        <ele>126.608</ele>
        <time>2018-02-25T14:12:06Z</time>
      </trkpt>
      <trkpt lat="40.035146" lon="15.296281">
        <ele>102.236</ele>
        <time>2018-02-25T14:16:20Z</time>
      </trkpt>
      <trkpt lat="40.034943" lon="15.296465">
        <ele>93.386</ele>
        <time>2018-02-25T14:17:50Z</time>
      </trkpt>
      <trkpt lat="40.034667" lon="15.297267">
        <ele>57.553</ele>
        <time>2018-02-25T14:21:55Z</time>
      </trkpt>
      <trkpt lat="40.034475" lon="15.297297">
        <ele>61.184</ele>
        <time>2018-02-25T14:23:49Z</time>
      </trkpt>
      <trkpt lat="40.034453" lon="15.297497">
        <ele>55.774</ele>
        <time>2018-02-25T14:25:02Z</time>
      </trkpt>
      <trkpt lat="40.034290" lon="15.297361">
        <ele>47.074</ele>
        <time>2018-02-25T14:25:46Z</time>
      </trkpt>
      <trkpt lat="40.034211" lon="15.297082">
        <ele>42.892</ele>
        <time>2018-02-25T14:27:06Z</time>
      </trkpt>
      <trkpt lat="40.034106" lon="15.297146">
        <ele>31.534</ele>
        <time>2018-02-25T14:29:16Z</time>
      </trkpt>
      <trkpt lat="40.034007" lon="15.298018">
        <ele>16.216</ele>
        <time>2018-02-25T14:32:38Z</time>
      </trkpt>
      <trkpt lat="40.033752" lon="15.298611">
        <ele>8.176</ele>
        <time>2018-02-25T14:46:32Z</time>
      </trkpt>
      <trkpt lat="40.033895" lon="15.298870">
        <ele>7.313</ele>
        <time>2018-02-25T14:49:13Z</time>
      </trkpt>
      <trkpt lat="40.034136" lon="15.298802">
        <ele>5.808</ele>
        <time>2018-02-25T14:50:21Z</time>
      </trkpt>
      <trkpt lat="40.034256" lon="15.299172">
        <ele>9.623</ele>
        <time>2018-02-25T14:51:07Z</time>
      </trkpt>
      <trkpt lat="40.034799" lon="15.299238">
        <ele>7.913</ele>
        <time>2018-02-25T14:52:14Z</time>
      </trkpt>
      <trkpt lat="40.035153" lon="15.299744">
        <ele>10.740</ele>
        <time>2018-02-25T14:53:06Z</time>
      </trkpt>
      <trkpt lat="40.035431" lon="15.299663">
        <ele>13.311</ele>
        <time>2018-02-25T14:54:03Z</time>
      </trkpt>
      <trkpt lat="40.035885" lon="15.299308">
        <ele>17.791</ele>
        <time>2018-02-25T14:57:02Z</time>
      </trkpt>
      <trkpt lat="40.036349" lon="15.299515">
        <ele>17.741</ele>
        <time>2018-02-25T14:57:57Z</time>
      </trkpt>
      <trkpt lat="40.036800" lon="15.300388">
        <ele>13.539</ele>
        <time>2018-02-25T14:59:33Z</time>
      </trkpt>
      <trkpt lat="40.036734" lon="15.301016">
        <ele>17.071</ele>
        <time>2018-02-25T15:00:37Z</time>
      </trkpt>
      <trkpt lat="40.036888" lon="15.301559">
        <ele>18.593</ele>
        <time>2018-02-25T15:01:22Z</time>
      </trkpt>
      <trkpt lat="40.036678" lon="15.302165">
        <ele>35.865</ele>
        <time>2018-02-25T15:03:28Z</time>
      </trkpt>
      <trkpt lat="40.036970" lon="15.302227">
        <ele>34.921</ele>
        <time>2018-02-25T15:04:21Z</time>
      </trkpt>
      <trkpt lat="40.037058" lon="15.302144">
        <ele>32.108</ele>
        <time>2018-02-25T15:04:32Z</time>
      </trkpt>
      <trkpt lat="40.037055" lon="15.302488">
        <ele>28.251</ele>
        <time>2018-02-25T15:05:21Z</time>
      </trkpt>
      <trkpt lat="40.036243" lon="15.303459">
        <ele>20.581</ele>
        <time>2018-02-25T15:07:13Z</time>
      </trkpt>
      <trkpt lat="40.035657" lon="15.303945">
        <ele>18.558</ele>
        <time>2018-02-25T15:08:17Z</time>
      </trkpt>
      <trkpt lat="40.035478" lon="15.303905">
        <ele>14.079</ele>
        <time>2018-02-25T15:08:37Z</time>
      </trkpt>
      <trkpt lat="40.035386" lon="15.304073">
        <ele>9.849</ele>
        <time>2018-02-25T15:08:44Z</time>
      </trkpt>
      <trkpt lat="40.035435" lon="15.303917">
        <ele>15.239</ele>
        <time>2018-02-25T15:09:00Z</time>
      </trkpt>
      <trkpt lat="40.035437" lon="15.304038">
        <ele>13.427</ele>
        <time>2018-02-25T15:09:12Z</time>
      </trkpt>
      <trkpt lat="40.035505" lon="15.303857">
        <ele>1.239</ele>
        <time>2018-02-25T15:10:04Z</time>
      </trkpt>
      <trkpt lat="40.035441" lon="15.304031">
        <ele>8.898</ele>
        <time>2018-02-25T15:10:49Z</time>
      </trkpt>
      <trkpt lat="40.035475" lon="15.303951">
        <ele>10.415</ele>
        <time>2018-02-25T15:10:55Z</time>
      </trkpt>
      <trkpt lat="40.035488" lon="15.304082">
        <ele>10.926</ele>
        <time>2018-02-25T15:11:37Z</time>
      </trkpt>
      <trkpt lat="40.035481" lon="15.303922">
        <ele>-15.708</ele>
        <time>2018-02-25T15:12:14Z</time>
      </trkpt>
      <trkpt lat="40.035523" lon="15.304073">
        <ele>-5.411</ele>
        <time>2018-02-25T15:13:28Z</time>
      </trkpt>
      <trkpt lat="40.035345" lon="15.304692">
        <ele>9.591</ele>
        <time>2018-02-25T15:14:07Z</time>
      </trkpt>
      <trkpt lat="40.034997" lon="15.304899">
        <ele>9.668</ele>
        <time>2018-02-25T15:14:27Z</time>
      </trkpt>
      <trkpt lat="40.034434" lon="15.306380">
        <ele>17.349</ele>
        <time>2018-02-25T15:15:40Z</time>
      </trkpt>
      <trkpt lat="40.034142" lon="15.307501">
        <ele>20.389</ele>
        <time>2018-02-25T15:16:41Z</time>
      </trkpt>
      <trkpt lat="40.033420" lon="15.308445">
        <ele>-1.019</ele>
        <time>2018-02-25T15:17:38Z</time>
      </trkpt>
      <trkpt lat="40.032990" lon="15.308833">
        <ele>6.897</ele>
        <time>2018-02-25T15:18:09Z</time>
      </trkpt>
      <trkpt lat="40.032414" lon="15.309154">
        <ele>-6.429</ele>
        <time>2018-02-25T15:19:09Z</time>
      </trkpt>
      <trkpt lat="40.031862" lon="15.309207">
        <ele>-2.559</ele>
        <time>2018-02-25T15:20:55Z</time>
      </trkpt>
      <trkpt lat="40.031419" lon="15.308931">
        <ele>-5.203</ele>
        <time>2018-02-25T15:21:45Z</time>
      </trkpt>
      <trkpt lat="40.030782" lon="15.308000">
        <ele>-10.023</ele>
        <time>2018-02-25T15:23:29Z</time>
      </trkpt>
      <trkpt lat="40.030589" lon="15.308351">
        <ele>-8.408</ele>
        <time>2018-02-25T15:24:01Z</time>
      </trkpt>
      <trkpt lat="40.030711" lon="15.307933">
        <ele>-4.957</ele>
        <time>2018-02-25T15:24:09Z</time>
      </trkpt>
      <trkpt lat="40.030475" lon="15.308132">
        <ele>6.517</ele>
        <time>2018-02-25T15:24:19Z</time>
      </trkpt>
      <trkpt lat="40.030058" lon="15.307945">
        <ele>12.044</ele>
        <time>2018-02-25T15:24:33Z</time>
      </trkpt>
      <trkpt lat="40.030429" lon="15.307804">
        <ele>12.835</ele>
        <time>2018-02-25T15:25:27Z</time>
      </trkpt>
      <trkpt lat="40.030522" lon="15.307656">
        <ele>27.955</ele>
        <time>2018-02-25T15:25:28Z</time>
      </trkpt>
      <trkpt lat="40.030526" lon="15.308177">
        <ele>3.835</ele>
        <time>2018-02-25T15:25:30Z</time>
      </trkpt>
      <trkpt lat="40.030626" lon="15.308203">
        <ele>-4.243</ele>
        <time>2018-02-25T15:25:39Z</time>
      </trkpt>
      <trkpt lat="40.030710" lon="15.307912">
        <ele>-7.815</ele>
        <time>2018-02-25T15:26:37Z</time>
      </trkpt>
      <trkpt lat="40.030755" lon="15.308032">
        <ele>-16.521</ele>
        <time>2018-02-25T15:27:41Z</time>
      </trkpt>
      <trkpt lat="40.030580" lon="15.308491">
        <ele>-6.241</ele>
        <time>2018-02-25T15:28:43Z</time>
      </trkpt>
      <trkpt lat="40.030689" lon="15.307953">
        <ele>3.905</ele>
        <time>2018-02-25T15:29:21Z</time>
      </trkpt>
      <trkpt lat="40.030611" lon="15.307459">
        <ele>33.708</ele>
        <time>2018-02-25T15:30:09Z</time>
      </trkpt>
      <trkpt lat="40.030544" lon="15.307645">
        <ele>33.774</ele>
        <time>2018-02-25T15:30:28Z</time>
      </trkpt>
      <trkpt lat="40.030081" lon="15.307902">
        <ele>37.154</ele>
        <time>2018-02-25T15:30:35Z</time>
      </trkpt>
      <trkpt lat="40.030455" lon="15.307992">
        <ele>23.891</ele>
        <time>2018-02-25T15:30:37Z</time>
      </trkpt>
      <trkpt lat="40.030270" lon="15.308159">
        <ele>21.472</ele>
        <time>2018-02-25T15:30:42Z</time>
      </trkpt>
      <trkpt lat="40.030300" lon="15.308337">
        <ele>9.472</ele>
        <time>2018-02-25T15:30:46Z</time>
      </trkpt>
      <trkpt lat="40.030517" lon="15.308248">
        <ele>8.962</ele>
        <time>2018-02-25T15:30:47Z</time>
      </trkpt>
      <trkpt lat="40.030703" lon="15.307854">
        <ele>9.060</ele>
        <time>2018-02-25T15:31:04Z</time>
      </trkpt>
      <trkpt lat="40.030619" lon="15.307779">
        <ele>13.472</ele>
        <time>2018-02-25T15:31:32Z</time>
      </trkpt>
      <trkpt lat="40.030892" lon="15.307421">
        <ele>23.256</ele>
        <time>2018-02-25T15:31:57Z</time>
      </trkpt>
      <trkpt lat="40.030439" lon="15.307327">
        <ele>43.659</ele>
        <time>2018-02-25T15:32:02Z</time>
      </trkpt>
      <trkpt lat="40.030784" lon="15.307323">
        <ele>37.614</ele>
        <time>2018-02-25T15:32:07Z</time>
      </trkpt>
      <trkpt lat="40.030960" lon="15.306992">
        <ele>37.708</ele>
        <time>2018-02-25T15:32:34Z</time>
      </trkpt>
      <trkpt lat="40.031053" lon="15.307057">
        <ele>40.497</ele>
        <time>2018-02-25T15:32:39Z</time>
      </trkpt>
      <trkpt lat="40.030067" lon="15.307738">
        <ele>46.247</ele>
        <time>2018-02-25T15:33:05Z</time>
      </trkpt>
      <trkpt lat="40.030253" lon="15.307317">
        <ele>48.784</ele>
        <time>2018-02-25T15:33:06Z</time>
      </trkpt>
      <trkpt lat="40.030577" lon="15.307072">
        <ele>49.815</ele>
        <time>2018-02-25T15:33:07Z</time>
      </trkpt>
      <trkpt lat="40.030411" lon="15.307078">
        <ele>49.415</ele>
        <time>2018-02-25T15:33:09Z</time>
      </trkpt>
      <trkpt lat="40.030603" lon="15.307702">
        <ele>47.645</ele>
        <time>2018-02-25T15:33:15Z</time>
      </trkpt>
      <trkpt lat="40.030601" lon="15.307442">
        <ele>49.683</ele>
        <time>2018-02-25T15:33:18Z</time>
      </trkpt>
      <trkpt lat="40.030730" lon="15.307301">
        <ele>43.235</ele>
        <time>2018-02-25T15:33:39Z</time>
      </trkpt>
      <trkpt lat="40.030573" lon="15.307346">
        <ele>50.212</ele>
        <time>2018-02-25T15:33:57Z</time>
      </trkpt>
      <trkpt lat="40.031175" lon="15.307078">
        <ele>51.132</ele>
        <time>2018-02-25T15:34:05Z</time>
      </trkpt>
      <trkpt lat="40.030962" lon="15.307227">
        <ele>54.005</ele>
        <time>2018-02-25T15:34:08Z</time>
      </trkpt>
      <trkpt lat="40.030965" lon="15.307052">
        <ele>46.508</ele>
        <time>2018-02-25T15:34:26Z</time>
      </trkpt>
      <trkpt lat="40.030237" lon="15.307889">
        <ele>42.643</ele>
        <time>2018-02-25T15:34:34Z</time>
      </trkpt>
      <trkpt lat="40.030586" lon="15.308251">
        <ele>14.533</ele>
        <time>2018-02-25T15:34:43Z</time>
      </trkpt>
      <trkpt lat="40.030669" lon="15.308086">
        <ele>7.630</ele>
        <time>2018-02-25T15:34:57Z</time>
      </trkpt>
      <trkpt lat="40.030843" lon="15.308080">
        <ele>8.261</ele>
        <time>2018-02-25T15:36:10Z</time>
      </trkpt>
      <trkpt lat="40.030989" lon="15.308509">
        <ele>8.491</ele>
        <time>2018-02-25T15:36:34Z</time>
      </trkpt>
      <trkpt lat="40.031091" lon="15.308411">
        <ele>5.841</ele>
        <time>2018-02-25T15:36:51Z</time>
      </trkpt>
      <trkpt lat="40.031286" lon="15.308779">
        <ele>4.779</ele>
        <time>2018-02-25T15:37:23Z</time>
      </trkpt>
      <trkpt lat="40.031885" lon="15.309241">
        <ele>0.191</ele>
        <time>2018-02-25T15:38:13Z</time>
      </trkpt>
      <trkpt lat="40.032226" lon="15.309101">
        <ele>-0.194</ele>
        <time>2018-02-25T15:38:36Z</time>
      </trkpt>
    </trkseg>
  </trk></gpx>